"yyyymmdd"	"conds"	"hour"	"min"	"dewpti"	"dewptm"	"fog"	"hail"	"heatindexi"	"heatindexm"	"hum"	"icon"	"metar"	"precipi"	"precipm"	"pressurei"	"pressurem"	"rain"	"snow"	"tempi"	"tempm"	"thunder"	"tornado"	"visi"	"vism"	"wdird"	"wdire"	"wgusti"	"wgustm"	"windchilli"	"windchillm"	"wspdi"	"wspdm"
"20130319"	"Light Snow"	"00"	"19"	"26.6"	"-3.0"	"0"	"0"	"-9999"	"-9999"	"93"	"snow"	"SPECI KBOS 190419Z 12015KT 3/4SM R04R/5000V5500FT -SN BR SCT006 OVC010 M02/M03 A3025 RMK AO2 TWR VIS 1 1/4 P0000"	"0.00"	"0.0"	"30.25"	"1024.3"	"0"	"1"	"28.4"	"-2.0"	"0"	"0"	"0.8"	"1.2"	"120"	"ESE"	"-9999.0"	"-9999.0"	"16.2"	"-8.8"	"17.3"	"27.8"	
"20130319"	"Light Snow"	"00"	"28"	"26.6"	"-3.0"	"0"	"0"	"-9999"	"-9999"	"86"	"snow"	"SPECI KBOS 190428Z 11015KT 3/4SM R04R/4500V5000FT -SN BR BKN007 OVC010 M01/M03 A3024 RMK AO2 P0001"	"0.01"	"0.3"	"30.24"	"1023.9"	"0"	"1"	"30.2"	"-1.0"	"0"	"0"	"0.8"	"1.2"	"110"	"ESE"	"-9999.0"	"-9999.0"	"18.5"	"-7.5"	"17.3"	"27.8"	
"20130319"	"Snow"	"00"	"54"	"28.0"	"-2.2"	"1"	"0"	"-9999"	"-9999"	"92"	"snow"	"METAR KBOS 190454Z 10016KT 1/2SM R04R/3500V4000FT SN FZFG BKN007 OVC010 M01/M02 A3021 RMK AO2 TWR VIS 3/4 PRESFR SLP231 P0002 T10111022 400061061"	"0.02"	"0.5"	"30.22"	"1023.1"	"0"	"1"	"30.0"	"-1.1"	"0"	"0"	"0.5"	"0.8"	"100"	"East"	"-9999.0"	"-9999.0"	"17.9"	"-7.8"	"18.4"	"29.6"	
"20130319"	"Light Snow"	"01"	"54"	"28.9"	"-1.7"	"0"	"0"	"-9999"	"-9999"	"92"	"snow"	"METAR KBOS 190554Z 12020KT 1/2SM R04R/5500VP6000FT -SN BR BKN005 OVC010 M01/M02 A3017 RMK AO2 SFC VIS 1 SLP214 P0004 60008 T10061017 10006 21017 58041"	"0.04"	"1.0"	"30.17"	"1021.4"	"0"	"1"	"30.9"	"-0.6"	"0"	"0"	"0.5"	"0.8"	"120"	"ESE"	"-9999.0"	"-9999.0"	"17.8"	"-7.9"	"23.0"	"37.0"	
"20130319"	"Light Snow"	"02"	"54"	"28.9"	"-1.7"	"0"	"0"	"-9999"	"-9999"	"92"	"snow"	"METAR KBOS 190654Z 13016KT 1/2SM R04R/4500V5500FT -SN BR BKN006 OVC010 M01/M02 A3012 RMK AO2 SFC VIS 3/4 SLP199 P0003 T10061017"	"0.03"	"0.8"	"30.12"	"1019.9"	"0"	"1"	"30.9"	"-0.6"	"0"	"0"	"0.5"	"0.8"	"130"	"SE"	"-9999.0"	"-9999.0"	"19.1"	"-7.2"	"18.4"	"29.6"	
"20130319"	"Snow"	"03"	"54"	"30.0"	"-1.1"	"1"	"0"	"-9999"	"-9999"	"92"	"snow"	"METAR KBOS 190754Z 11018KT 1/2SM R04R/4000V5500FT SN FG VV005 00/M01 A3011 RMK AO2 PK WND 12026/0719 SLP195 P0002 T00001011"	"0.02"	"0.5"	"30.11"	"1019.5"	"0"	"1"	"32.0"	"0.0"	"0"	"0"	"0.5"	"0.8"	"110"	"ESE"	"-9999.0"	"-9999.0"	"19.8"	"-6.8"	"20.7"	"33.3"	
"20130319"	"Light Snow"	"04"	"36"	"30.2"	"-1.0"	"0"	"0"	"-9999"	"-9999"	"93"	"snow"	"SPECI KBOS 190836Z 10020G27KT 1SM R04R/6000VP6000FT -SN BR VV007 00/M01 A3008 RMK AO2 PK WND 11027/0831 P0003"	"0.03"	"0.8"	"30.08"	"1018.5"	"0"	"1"	"32.0"	"0.0"	"0"	"0"	"1.0"	"1.6"	"100"	"East"	"31.1"	"50.0"	"19.2"	"-7.1"	"23.0"	"37.0"	
"20130319"	"Light Snow"	"04"	"45"	"30.2"	"-1.0"	"0"	"0"	"-9999"	"-9999"	"93"	"snow"	"SPECI KBOS 190845Z 10021G26KT 3/4SM R04R/4000VP6000FT -SN BR BKN007 OVC010 00/M01 A3007 RMK AO2 PK WND 11027/0831 TWR VIS 1 P0003"	"0.03"	"0.8"	"30.07"	"1018.2"	"0"	"1"	"32.0"	"0.0"	"0"	"0"	"0.8"	"1.2"	"100"	"East"	"29.9"	"48.2"	"18.9"	"-7.3"	"24.2"	"38.9"	
"20130319"	"Light Snow"	"04"	"54"	"30.9"	"-0.6"	"0"	"0"	"-9999"	"-9999"	"96"	"snow"	"METAR KBOS 190854Z 10022G27KT 3/4SM R04R/4000V6000FT -SN BR BKN007 OVC010 00/M01 A3006 RMK AO2 PK WND 10027/0852 TWR VIS 1 SLP179 P0004 60009 T00001006 58035"	"0.04"	"1.0"	"30.06"	"1017.9"	"0"	"1"	"32.0"	"0.0"	"0"	"0"	"0.8"	"1.2"	"100"	"East"	"31.1"	"50.0"	"18.6"	"-7.4"	"25.3"	"40.7"	
"20130319"	"Heavy Snow"	"05"	"16"	"30.2"	"-1.0"	"1"	"0"	"-9999"	"-9999"	"93"	"snow"	"SPECI KBOS 190916Z 09022KT 1/4SM R04R/2600V3500FT +SN FG BKN004 OVC010 00/M01 A3007 RMK AO2 PK WND 11030/0906 TWR VIS 3/4 P0001"	"0.01"	"0.3"	"30.07"	"1018.2"	"0"	"1"	"32.0"	"0.0"	"0"	"0"	"0.2"	"0.4"	"90"	"East"	"-9999.0"	"-9999.0"	"18.6"	"-7.4"	"25.3"	"40.7"	
"20130319"	"Light Snow"	"05"	"54"	"30.9"	"-0.6"	"0"	"0"	"-9999"	"-9999"	"96"	"snow"	"METAR KBOS 190954Z 09023G28KT 3/4SM -SN BR BKN004 OVC010 00/M01 A3006 RMK AO2 PK WND 11030/0906 SFC VIS 1 1/2 SLP179 P0004 T00001006"	"0.04"	"1.0"	"30.06"	"1017.9"	"0"	"1"	"32.0"	"0.0"	"0"	"0"	"0.8"	"1.2"	"90"	"East"	"32.2"	"51.9"	"18.4"	"-7.6"	"26.5"	"42.6"	
"20130319"	"Light Snow"	"06"	"54"	"30.9"	"-0.6"	"0"	"0"	"-9999"	"-9999"	"96"	"snow"	"METAR KBOS 191054Z 09024G28KT 3/4SM R04R/5000VP6000FT -SN BR OVC006 00/M01 A3003 RMK AO2 PK WND 09028/1051 SLP168 P0003 T00001006"	"0.03"	"0.8"	"30.03"	"1016.8"	"0"	"1"	"32.0"	"0.0"	"0"	"0"	"0.8"	"1.2"	"90"	"East"	"32.2"	"51.9"	"18.1"	"-7.7"	"27.6"	"44.4"	
"20130319"	"Light Snow"	"07"	"54"	"32.0"	"0.0"	"0"	"0"	"-9999"	"-9999"	"100"	"snow"	"METAR KBOS 191154Z 10024G29KT 3/4SM R04R/5000VP6000FT -SNPL BR BKN006 OVC011 00/00 A3001 RMK AO2 PK WND 10029/1150 SFC VIS 1 PLB51 SLP160 P0002 60018 70026 T00000000 10006 21006 58019"	"0.02"	"0.5"	"30.01"	"1016.0"	"0"	"1"	"32.0"	"0.0"	"0"	"0"	"0.8"	"1.2"	"100"	"East"	"33.4"	"53.7"	"18.1"	"-7.7"	"27.6"	"44.4"	
"20130319"	"Light Snow"	"08"	"15"	"32.0"	"0.0"	"0"	"0"	"-9999"	"-9999"	"93"	"snow"	"SPECI KBOS 191215Z 09020KT 3/4SM -SNPL BR SCT006 BKN011 OVC019 01/00 A2999 RMK AO2 PK WND 10028/1155 SFC VIS 1 1/2 P0000"	"0.00"	"0.0"	"29.99"	"1015.5"	"0"	"1"	"33.8"	"1.0"	"0"	"0"	"0.8"	"1.2"	"90"	"East"	"-9999.0"	"-9999.0"	"21.6"	"-5.8"	"23.0"	"37.0"	
"20130319"	"Light Snow"	"08"	"30"	"33.8"	"1.0"	"0"	"0"	"-9999"	"-9999"	"100"	"snow"	"SPECI KBOS 191230Z 09022G26KT 3/4SM -SNPL BR BKN006 BKN011 OVC017 01/01 A2999 RMK AO2 PK WND 10028/1155 SFC VIS 1 3/4 P0001"	"0.01"	"0.3"	"29.99"	"1015.5"	"0"	"1"	"33.8"	"1.0"	"0"	"0"	"0.8"	"1.2"	"90"	"East"	"29.9"	"48.2"	"21.0"	"-6.1"	"25.3"	"40.7"	
"20130319"	"Light Snow"	"08"	"38"	"32.0"	"0.0"	"0"	"0"	"-9999"	"-9999"	"93"	"snow"	"SPECI KBOS 191238Z 09022G29KT 1 1/2SM -SNPL BR BKN008 OVC015 01/00 A2998 RMK AO2 PK WND 09029/1233 SFC VIS 2 P0001"	"0.01"	"0.3"	"29.98"	"1015.1"	"0"	"1"	"33.8"	"1.0"	"0"	"0"	"1.5"	"2.4"	"90"	"East"	"33.4"	"53.7"	"21.0"	"-6.1"	"25.3"	"40.7"	
"20130319"	"Light Snow"	"08"	"54"	"33.1"	"0.6"	"0"	"0"	"-9999"	"-9999"	"100"	"snow"	"METAR KBOS 191254Z 09024G28KT 1 1/2SM -SNPL BR BKN008 OVC013 01/01 A2997 RMK AO2 PK WND 09029/1233 SFC VIS 2 SLP147 P0001 T00060006"	"0.01"	"0.3"	"29.97"	"1014.7"	"0"	"1"	"33.1"	"0.6"	"0"	"0"	"1.5"	"2.4"	"90"	"East"	"32.2"	"51.9"	"19.6"	"-6.9"	"27.6"	"44.4"	
"20130319"	"Light Ice Pellets"	"09"	"25"	"33.8"	"1.0"	"0"	"0"	"-9999"	"-9999"	"100"	"sleet"	"SPECI KBOS 191325Z 08023G28KT 2SM -PLRA BR OVC008 01/01 A2995 RMK AO2 PK WND 09029/1313 SFC VIS 2 1/2 RAB17SNE17 P0001"	"0.01"	"0.3"	"29.95"	"1014.1"	"1"	"0"	"33.8"	"1.0"	"0"	"0"	"2.0"	"3.2"	"80"	"East"	"32.2"	"51.9"	"20.8"	"-6.2"	"26.5"	"42.6"	
"20130319"	"Light Ice Pellets"	"09"	"54"	"33.1"	"0.6"	"0"	"0"	"-9999"	"-9999"	"96"	"sleet"	"METAR KBOS 191354Z 08022G28KT 1 3/4SM R04R/6000VP6000FT -PLRA BR BKN006 OVC011 01/01 A2993 RMK AO2 PK WND 09029/1313 TWR VIS 2 RAB17SNE17 SLP136 P0002 T00110006"	"0.02"	"0.5"	"29.94"	"1013.6"	"1"	"0"	"34.0"	"1.1"	"0"	"0"	"1.8"	"2.8"	"80"	"East"	"32.2"	"51.9"	"21.3"	"-6.0"	"25.3"	"40.7"	
"20130319"	"Light Ice Pellets"	"10"	"01"	"33.8"	"1.0"	"0"	"0"	"-9999"	"-9999"	"100"	"sleet"	"SPECI KBOS 191401Z 08021KT 2SM R04R/6000VP6000FT -PLRA BR BKN006 OVC011 01/01 A2993 RMK AO2 PK WND 08026/1357 P0001"	"0.01"	"0.3"	"29.93"	"1013.4"	"1"	"0"	"33.8"	"1.0"	"0"	"0"	"2.0"	"3.2"	"80"	"East"	"-9999.0"	"-9999.0"	"21.3"	"-5.9"	"24.2"	"38.9"	
"20130319"	"Light Ice Pellets"	"10"	"23"	"33.8"	"1.0"	"0"	"0"	"-9999"	"-9999"	"100"	"sleet"	"SPECI KBOS 191423Z 08021G29KT 1 3/4SM R04R/5500VP6000FT -PLRA BR OVC006 01/01 A2991 RMK AO2 PK WND 09029/1420 TWR VIS 2 P0003"	"0.03"	"0.8"	"29.91"	"1012.8"	"1"	"0"	"33.8"	"1.0"	"0"	"0"	"1.8"	"2.8"	"80"	"East"	"33.4"	"53.7"	"21.3"	"-5.9"	"24.2"	"38.9"	
"20130319"	"Ice Pellets"	"10"	"54"	"33.1"	"0.6"	"0"	"0"	"-9999"	"-9999"	"96"	"sleet"	"METAR KBOS 191454Z 08022G29KT 1 3/4SM R04R/6000VP6000FT PLRA BR BKN006 OVC012 01/01 A2989 RMK AO2 PK WND 08029/1446 SLP121 P0007 60010 T00110006 58039"	"0.07"	"1.8"	"29.89"	"1012.1"	"1"	"0"	"34.0"	"1.1"	"0"	"0"	"1.8"	"2.8"	"80"	"East"	"33.4"	"53.7"	"21.3"	"-6.0"	"25.3"	"40.7"	
"20130319"	"Light Ice Pellets"	"11"	"31"	"33.8"	"1.0"	"0"	"0"	"-9999"	"-9999"	"100"	"sleet"	"SPECI KBOS 191531Z 08022KT 2SM -PLRA BR BKN006 OVC011 01/01 A2987 RMK AO2 PK WND 08029/1513 UPB29E30 P0003"	"0.03"	"0.8"	"29.87"	"1011.4"	"1"	"0"	"33.8"	"1.0"	"0"	"0"	"2.0"	"3.2"	"80"	"East"	"-9999.0"	"-9999.0"	"21.0"	"-6.1"	"25.3"	"40.7"	
"20130319"	"Light Rain"	"11"	"54"	"33.1"	"0.6"	"0"	"0"	"-9999"	"-9999"	"96"	"rain"	"METAR KBOS 191554Z 08023KT 2SM -RA BR OVC006 01/01 A2985 RMK AO2 PK WND 08029/1544 PRESFR SLP107 PLE47 P0003 T00110006"	"0.03"	"0.8"	"29.85"	"1010.7"	"1"	"0"	"34.0"	"1.1"	"0"	"0"	"2.0"	"3.2"	"80"	"East"	"-9999.0"	"-9999.0"	"21.0"	"-6.1"	"26.5"	"42.6"	
"20130319"	"Light Rain"	"12"	"26"	"33.8"	"1.0"	"0"	"0"	"-9999"	"-9999"	"100"	"rain"	"SPECI KBOS 191626Z 07021KT 3SM -RA BR BKN006 OVC011 01/01 A2982 RMK AO2 PK WND 08029/1614 P0001"	"0.01"	"0.3"	"29.82"	"1009.7"	"1"	"0"	"33.8"	"1.0"	"0"	"0"	"3.0"	"4.8"	"70"	"ENE"	"-9999.0"	"-9999.0"	"21.3"	"-5.9"	"24.2"	"38.9"	
"20130319"	"Light Rain"	"12"	"54"	"34.0"	"1.1"	"0"	"0"	"-9999"	"-9999"	"96"	"rain"	"METAR KBOS 191654Z 07022G28KT 4SM -RA BR OVC008 02/01 A2980 RMK AO2 PK WND 07029/1636 SLP091 P0001 T00170011"	"0.01"	"0.3"	"29.80"	"1009.1"	"1"	"0"	"35.1"	"1.7"	"0"	"0"	"4.0"	"6.4"	"70"	"ENE"	"32.2"	"51.9"	"22.7"	"-5.2"	"25.3"	"40.7"	
"20130319"	"Light Rain"	"13"	"29"	"33.8"	"1.0"	"0"	"0"	"-9999"	"-9999"	"93"	"rain"	"SPECI KBOS 191729Z 07021G28KT 2SM R04R/5500VP6000FT -RA BR OVC008 02/01 A2977 RMK AO2 PK WND 07031/1716 P0000"	"0.00"	"0.0"	"29.77"	"1008.0"	"1"	"0"	"35.6"	"2.0"	"0"	"0"	"2.0"	"3.2"	"70"	"ENE"	"32.2"	"51.9"	"23.7"	"-4.6"	"24.2"	"38.9"	
"20130319"	"Light Drizzle"	"13"	"43"	"33.8"	"1.0"	"0"	"0"	"-9999"	"-9999"	"93"	"rain"	"SPECI KBOS 191743Z 07023KT 1 3/4SM R04R/5000VP6000FT -DZ BR OVC008 02/01 A2975 RMK AO2 PK WND 07031/1716 PRESFR P0000"	"0.00"	"0.0"	"29.75"	"1007.3"	"0"	"0"	"35.6"	"2.0"	"0"	"0"	"1.8"	"2.8"	"70"	"ENE"	"-9999.0"	"-9999.0"	"23.2"	"-4.9"	"26.5"	"42.6"	
"20130319"	"Light Drizzle"	"13"	"54"	"34.0"	"1.1"	"0"	"0"	"-9999"	"-9999"	"96"	"rain"	"METAR KBOS 191754Z 07021G28KT 2SM -DZ BR OVC008 02/01 A2974 RMK AO2 PK WND 07031/1716 SLP070 P0000 60014 T00170011 10017 20000 58051"	"0.00"	"0.0"	"29.74"	"1007.0"	"0"	"0"	"35.1"	"1.7"	"0"	"0"	"2.0"	"3.2"	"70"	"ENE"	"32.2"	"51.9"	"23.0"	"-5.0"	"24.2"	"38.9"	
"20130319"	"Light Rain"	"14"	"07"	"33.8"	"1.0"	"0"	"0"	"-9999"	"-9999"	"93"	"rain"	"SPECI KBOS 191807Z 07024G31KT 1 1/2SM R04R/5500VP6000FT -RA BR OVC008 02/01 A2971 RMK AO2 PK WND 07031/1805 DZE07RAB07 PRESFR P0000"	"0.00"	"0.0"	"29.71"	"1006.0"	"1"	"0"	"35.6"	"2.0"	"0"	"0"	"1.5"	"2.4"	"70"	"ENE"	"35.7"	"57.4"	"23.0"	"-5.0"	"27.6"	"44.4"	
"20130319"	"Rain"	"14"	"54"	"35.1"	"1.7"	"0"	"0"	"-9999"	"-9999"	"97"	"rain"	"METAR KBOS 191854Z 06017G26KT 1 1/4SM R04R/4500VP6000FT RA BR OVC008 02/02 A2969 RMK AO2 PK WND 07031/1811 DZE07RAB07 SLP052 P0004 T00220017"	"0.04"	"1.0"	"29.69"	"1005.2"	"1"	"0"	"36.0"	"2.2"	"0"	"0"	"1.2"	"2.0"	"60"	"ENE"	"29.9"	"48.2"	"25.3"	"-3.7"	"19.6"	"31.5"	
"20130319"	"Rain"	"15"	"31"	"33.8"	"1.0"	"0"	"0"	"-9999"	"-9999"	"100"	"rain"	"SPECI KBOS 191931Z 03015KT 1 1/2SM R04R/5000VP6000FT RA BR FEW008 OVC010 01/01 A2972 RMK AO2 SNB1859E21 P0014"	"0.14"	"3.6"	"29.72"	"1006.3"	"1"	"0"	"33.8"	"1.0"	"0"	"0"	"1.5"	"2.4"	"30"	"NNE"	"-9999.0"	"-9999.0"	"23.2"	"-4.9"	"17.3"	"27.8"	
"20130319"	"Light Snow"	"15"	"43"	"33.8"	"1.0"	"0"	"0"	"-9999"	"-9999"	"100"	"snow"	"SPECI KBOS 191943Z 03018KT 1 3/4SM R04R/6000VP6000FT -SNRA BR BKN006 OVC010 01/01 A2970 RMK AO2 SNB1859E21B39 P0018"	"0.18"	"4.6"	"29.70"	"1005.6"	"1"	"1"	"33.8"	"1.0"	"0"	"0"	"1.8"	"2.8"	"30"	"NNE"	"-9999.0"	"-9999.0"	"22.2"	"-5.5"	"20.7"	"33.3"	
"20130319"	"Light Snow"	"15"	"54"	"33.1"	"0.6"	"0"	"0"	"-9999"	"-9999"	"96"	"snow"	"METAR KBOS 191954Z 02017KT 2SM -SNRA BR BKN006 OVC012 01/01 A2970 RMK AO2 SNB1859E21B39 SLP058 P0019 T00110006"	"0.19"	"4.8"	"29.70"	"1005.8"	"1"	"1"	"34.0"	"1.1"	"0"	"0"	"2.0"	"3.2"	"20"	"NNE"	"-9999.0"	"-9999.0"	"22.7"	"-5.2"	"19.6"	"31.5"	
"20130319"	"Light Snow"	"16"	"14"	"32.0"	"0.0"	"0"	"0"	"-9999"	"-9999"	"100"	"snow"	"SPECI KBOS 192014Z 35010KT 1 1/2SM R04R/4000VP6000FT -SN BR BKN005 OVC011 00/00 A2970 RMK AO2 RAE02 P0002"	"0.02"	"0.5"	"29.70"	"1005.6"	"0"	"1"	"32.0"	"0.0"	"0"	"0"	"1.5"	"2.4"	"350"	"North"	"-9999.0"	"-9999.0"	"23.0"	"-5.0"	"11.5"	"18.5"	
"20130319"	"Light Snow"	"16"	"31"	"32.0"	"0.0"	"0"	"0"	"-9999"	"-9999"	"100"	"snow"	"SPECI KBOS 192031Z 04023G27KT 1SM R04R/3500V4000FT -SN BR BKN005 OVC011 00/00 A2964 RMK AO2 PK WND 04027/2031 WSHFT 2011 RAE02 P0003"	"0.03"	"0.8"	"29.64"	"1003.6"	"0"	"1"	"32.0"	"0.0"	"0"	"0"	"1.0"	"1.6"	"40"	"NE"	"31.1"	"50.0"	"18.4"	"-7.6"	"26.5"	"42.6"	
"20130319"	"Light Snow"	"16"	"39"	"33.8"	"1.0"	"0"	"0"	"-9999"	"-9999"	"100"	"snow"	"SPECI KBOS 192039Z 04024G29KT 3/4SM R04R/2400V4500FT -SN BR BKN005 OVC011 01/01 A2963 RMK AO2 PK WND 05029/2038 WSHFT 2011 RAE02 P0005"	"0.05"	"1.3"	"29.63"	"1003.3"	"0"	"1"	"33.8"	"1.0"	"0"	"0"	"0.8"	"1.2"	"40"	"NE"	"33.4"	"53.7"	"20.5"	"-6.4"	"27.6"	"44.4"	
"20130319"	"Light Snow"	"16"	"50"	"32.0"	"0.0"	"0"	"0"	"-9999"	"-9999"	"93"	"snow"	"SPECI KBOS 192050Z 04022G29KT 1 1/4SM R04R/4000VP6000FT -SNRA BR BKN005 OVC013 01/00 A2963 RMK AO2 PK WND 04029/2050 WSHFT 2011 RAE02B50 P0005"	"0.05"	"1.3"	"29.63"	"1003.3"	"1"	"1"	"33.8"	"1.0"	"0"	"0"	"1.2"	"2.0"	"40"	"NE"	"33.4"	"53.7"	"21.0"	"-6.1"	"25.3"	"40.7"	
"20130319"	"Light Snow"	"16"	"54"	"32.0"	"0.0"	"0"	"0"	"-9999"	"-9999"	"96"	"snow"	"METAR KBOS 192054Z 04021G29KT 1 3/4SM R04R/4000VP6000FT -SNRA BR BKN005 OVC013 01/00 A2963 RMK AO2 PK WND 04029/2050 WSHFT 2011 RAE02B50 SLP033 P0005 60028 T00060000 58018"	"0.05"	"1.3"	"29.63"	"1003.3"	"1"	"1"	"33.1"	"0.6"	"0"	"0"	"1.8"	"2.8"	"40"	"NE"	"33.4"	"53.7"	"20.3"	"-6.5"	"24.2"	"38.9"	
"20130319"	"Light Snow"	"17"	"02"	"32.0"	"0.0"	"0"	"0"	"-9999"	"-9999"	"93"	"snow"	"SPECI KBOS 192102Z 04022G27KT 3SM -SNRA BR BKN005 OVC013 01/00 A2963 RMK AO2 PK WND 03027/2101 P0001"	"0.01"	"0.3"	"29.63"	"1003.3"	"1"	"1"	"33.8"	"1.0"	"0"	"0"	"3.0"	"4.8"	"40"	"NE"	"31.1"	"50.0"	"21.0"	"-6.1"	"25.3"	"40.7"	
"20130319"	"Overcast"	"17"	"54"	"32.0"	"0.0"	"0"	"0"	"-9999"	"-9999"	"92"	"cloudy"	"METAR KBOS 192154Z 03023G29KT 10SM OVC009 01/00 A2961 RMK AO2 PK WND 03031/2130 RAE24SNE21 SLP025 P0001 T00110000"	"0.01"	"0.3"	"29.61"	"1002.5"	"0"	"0"	"34.0"	"1.1"	"0"	"0"	"10.0"	"16.1"	"30"	"NNE"	"33.4"	"53.7"	"21.0"	"-6.1"	"26.5"	"42.6"	
"20130319"	"Light Snow"	"18"	"46"	"32.0"	"0.0"	"0"	"0"	"-9999"	"-9999"	"93"	"snow"	"SPECI KBOS 192246Z 02018G29KT 1 3/4SM -SNDZ BR OVC009 01/00 A2962 RMK AO2 PK WND 02029/2238 DZB21 P0000"	"0.00"	"0.0"	"29.62"	"1002.9"	"0"	"1"	"33.8"	"1.0"	"0"	"0"	"1.8"	"2.8"	"20"	"NNE"	"33.4"	"53.7"	"22.2"	"-5.5"	"20.7"	"33.3"	
"20130319"	"Light Snow"	"18"	"54"	"32.0"	"0.0"	"0"	"0"	"-9999"	"-9999"	"96"	"snow"	"METAR KBOS 192254Z 02021G24KT 1 1/4SM -SNDZ BR OVC007 01/00 A2961 RMK AO2 PK WND 02029/2238 SLP027 DZB21 P0000 T00060000"	"0.00"	"0.0"	"29.61"	"1002.7"	"0"	"1"	"33.1"	"0.6"	"0"	"0"	"1.2"	"2.0"	"20"	"NNE"	"27.6"	"44.4"	"20.3"	"-6.5"	"24.2"	"38.9"	
"20130319"	"Light Snow"	"19"	"14"	"32.0"	"0.0"	"0"	"0"	"-9999"	"-9999"	"93"	"snow"	"SPECI KBOS 192314Z 01019G23KT 2SM -SNDZ BR OVC007 01/00 A2961 RMK AO2 PK WND 03029/2302 P0001"	"0.01"	"0.3"	"29.61"	"1002.6"	"0"	"1"	"33.8"	"1.0"	"0"	"0"	"2.0"	"3.2"	"10"	"North"	"26.5"	"42.6"	"21.9"	"-5.6"	"21.9"	"35.2"	
"20130319"	"Light Snow"	"19"	"34"	"32.0"	"0.0"	"0"	"0"	"-9999"	"-9999"	"93"	"snow"	"SPECI KBOS 192334Z 01017KT 3SM -SNDZ BR OVC007 01/00 A2961 RMK AO2 PK WND 03029/2302 P0001"	"0.01"	"0.3"	"29.61"	"1002.6"	"0"	"1"	"33.8"	"1.0"	"0"	"0"	"3.0"	"4.8"	"10"	"North"	"-9999.0"	"-9999.0"	"22.5"	"-5.3"	"19.6"	"31.5"	
"20130319"	"Light Rain"	"19"	"54"	"32.0"	"0.0"	"0"	"0"	"-9999"	"-9999"	"96"	"rain"	"METAR KBOS 192354Z 02019KT 5SM -RA BR OVC009 01/00 A2961 RMK AO2 PK WND 03029/2302 DZE54RAB54SNE54 SLP025 P0001 60030 T00060000 10022 20000 56009"	"0.01"	"0.3"	"29.61"	"1002.5"	"1"	"0"	"33.1"	"0.6"	"0"	"0"	"5.0"	"8.0"	"20"	"NNE"	"-9999.0"	"-9999.0"	"20.9"	"-6.2"	"21.9"	"35.2"	
"20130319"	"Light Snow"	"20"	"54"	"32.0"	"0.0"	"0"	"0"	"-9999"	"-9999"	"92"	"snow"	"METAR KBOS 200054Z 33009G18KT 6SM -SNPLDZ BR OVC009 01/00 A2962 RMK AO2 SLP030 RAE05SNB32DZB32 P0000 T00110000"	"0.00"	"0.0"	"29.62"	"1003.0"	"0"	"1"	"34.0"	"1.1"	"0"	"0"	"6.0"	"9.7"	"330"	"NNW"	"20.7"	"33.3"	"26.0"	"-3.3"	"10.4"	"16.7"	
"20130319"	"Light Freezing Drizzle"	"21"	"13"	"30.2"	"-1.0"	"0"	"0"	"-9999"	"-9999"	"87"	"snow"	"SPECI KBOS 200113Z 30012KT 2 1/2SM -FZDZSN BR OVC009 01/M01 A2966 RMK AO2 DZE10FZDZB10PLE11 PRESRR P0001"	"0.01"	"0.3"	"29.66"	"1004.3"	"0"	"1"	"33.8"	"1.0"	"0"	"0"	"2.5"	"4.0"	"300"	"WNW"	"-9999.0"	"-9999.0"	"24.3"	"-4.3"	"13.8"	"22.2"	
"20130319"	"Light Freezing Drizzle"	"21"	"29"	"30.2"	"-1.0"	"0"	"0"	"-9999"	"-9999"	"93"	"snow"	"SPECI KBOS 200129Z 31010G19KT 2SM -FZDZSN BR FEW008 OVC011 00/M01 A2966 RMK AO2 DZE10FZDZB10PLE11 P0001"	"0.01"	"0.3"	"29.66"	"1004.3"	"0"	"1"	"32.0"	"0.0"	"0"	"0"	"2.0"	"3.2"	"310"	"NW"	"21.9"	"35.2"	"23.0"	"-5.0"	"11.5"	"18.5"	
"20130319"	"Light Freezing Drizzle"	"21"	"32"	"30.2"	"-1.0"	"0"	"0"	"-9999"	"-9999"	"93"	"snow"	"SPECI KBOS 200132Z 31010G19KT 1 1/4SM -FZDZSN BR BKN008 OVC011 00/M01 A2966 RMK AO2 SFC VIS 2 DZE10FZDZB10PLE11 P0002"	"0.02"	"0.5"	"29.66"	"1004.3"	"0"	"1"	"32.0"	"0.0"	"0"	"0"	"1.2"	"2.0"	"310"	"NW"	"21.9"	"35.2"	"23.0"	"-5.0"	"11.5"	"18.5"	
"20130319"	"Light Snow"	"21"	"42"	"30.2"	"-1.0"	"0"	"0"	"-9999"	"-9999"	"93"	"snow"	"SPECI KBOS 200142Z 31013G20KT 1 1/4SM -SN BR BKN008 OVC011 00/M01 A2966 RMK AO2 SFC VIS 1 1/2 DZE10FZDZB10E42PLE11 P0002"	"0.02"	"0.5"	"29.66"	"1004.3"	"0"	"1"	"32.0"	"0.0"	"0"	"0"	"1.2"	"2.0"	"310"	"NW"	"23.0"	"37.0"	"21.6"	"-5.8"	"15.0"	"24.1"	
"20130319"	"Light Snow"	"21"	"54"	"30.9"	"-0.6"	"0"	"0"	"-9999"	"-9999"	"96"	"snow"	"METAR KBOS 200154Z 32013KT 1 1/4SM -SN BR BKN008 OVC011 00/M01 A2967 RMK AO2 SFC VIS 1 1/2 DZE10FZDZB10E42PLE11 SLP045 P0003 T00001006"	"0.03"	"0.8"	"29.67"	"1004.5"	"0"	"1"	"32.0"	"0.0"	"0"	"0"	"1.2"	"2.0"	"320"	"NW"	"-9999.0"	"-9999.0"	"21.6"	"-5.8"	"15.0"	"24.1"	
"20130319"	"Light Snow"	"22"	"54"	"27.0"	"-2.8"	"0"	"0"	"-9999"	"-9999"	"92"	"snow"	"METAR KBOS 200254Z 33016G23KT 1 1/4SM -SN BR BKN008 OVC011 M02/M03 A2968 RMK AO2 SFC VIS 3 SLP051 P0000 60003 T10171028 52026"	"0.00"	"0.0"	"29.68"	"1005.1"	"0"	"1"	"28.9"	"-1.7"	"0"	"0"	"1.2"	"2.0"	"330"	"NNW"	"26.5"	"42.6"	"16.5"	"-8.6"	"18.4"	"29.6"	
"20130319"	"Light Snow"	"23"	"02"	"26.6"	"-3.0"	"0"	"0"	"-9999"	"-9999"	"86"	"snow"	"SPECI KBOS 200302Z 32013KT 3SM -SN BR FEW013 BKN041 OVC055 M01/M03 A2969 RMK AO2 CIG 027 E P0000"	"0.00"	"0.0"	"29.69"	"1005.3"	"0"	"1"	"30.2"	"-1.0"	"0"	"0"	"3.0"	"4.8"	"320"	"NW"	"-9999.0"	"-9999.0"	"19.3"	"-7.0"	"15.0"	"24.1"	
"20130319"	"Overcast"	"23"	"54"	"24.1"	"-4.4"	"0"	"0"	"-9999"	"-9999"	"82"	"cloudy"	"METAR KBOS 200354Z 31015G20KT 10SM FEW015 OVC060 M02/M04 A2969 RMK AO2 SLP053 T10171044"	"-9999.00"	"-9999.00"	"29.69"	"1005.3"	"0"	"0"	"28.9"	"-1.7"	"0"	"0"	"10.0"	"16.1"	"310"	"NW"	"23.0"	"37.0"	"16.9"	"-8.4"	"17.3"	"27.8"	
"20130318"	"Clear"	"00"	"54"	"-0.9"	"-18.3"	"0"	"0"	"-9999"	"-9999"	"31"	"clear"	"METAR KBOS 180454Z 34011G17KT 10SM CLR M03/M18 A3035 RMK AO2 SLP276 T10331183 400331033"	"-9999.00"	"-9999.00"	"30.35"	"1027.6"	"0"	"0"	"26.1"	"-3.3"	"0"	"0"	"10.0"	"16.1"	"340"	"NNW"	"19.6"	"31.5"	"15.0"	"-9.4"	"12.7"	"20.4"	
"20130318"	"Clear"	"01"	"54"	"-0.9"	"-18.3"	"0"	"0"	"-9999"	"-9999"	"34"	"clear"	"METAR KBOS 180554Z 32010KT 10SM CLR M04/M18 A3038 RMK AO2 SLP286 T10441183 10006 21044 53025"	"-9999.00"	"-9999.00"	"30.38"	"1028.6"	"0"	"0"	"24.1"	"-4.4"	"0"	"0"	"10.0"	"16.1"	"320"	"NW"	"-9999.0"	"-9999.0"	"13.1"	"-10.5"	"11.5"	"18.5"	
"20130318"	"Clear"	"02"	"54"	"-0.0"	"-17.8"	"0"	"0"	"-9999"	"-9999"	"37"	"clear"	"METAR KBOS 180654Z 36008KT 10SM CLR M05/M18 A3039 RMK AO2 SLP290 T10501178"	"-9999.00"	"-9999.00"	"30.39"	"1029.0"	"0"	"0"	"23.0"	"-5.0"	"0"	"0"	"10.0"	"16.1"	"360"	"North"	"-9999.0"	"-9999.0"	"13.1"	"-10.5"	"9.2"	"14.8"	
"20130318"	"Clear"	"03"	"54"	"-0.9"	"-18.3"	"0"	"0"	"-9999"	"-9999"	"37"	"clear"	"METAR KBOS 180754Z 34007KT 10SM CLR M06/M18 A3040 RMK AO2 SLP295 T10561183"	"-9999.00"	"-9999.00"	"30.40"	"1029.5"	"0"	"0"	"21.9"	"-5.6"	"0"	"0"	"10.0"	"16.1"	"340"	"NNW"	"-9999.0"	"-9999.0"	"12.5"	"-10.8"	"8.1"	"13.0"	
"20130318"	"Clear"	"04"	"54"	"-2.0"	"-18.9"	"0"	"0"	"-9999"	"-9999"	"36"	"clear"	"METAR KBOS 180854Z 34006KT 10SM CLR M06/M19 A3041 RMK AO2 SLP297 T10611189 51011"	"-9999.00"	"-9999.00"	"30.41"	"1029.7"	"0"	"0"	"21.0"	"-6.1"	"0"	"0"	"10.0"	"16.1"	"340"	"NNW"	"-9999.0"	"-9999.0"	"12.4"	"-10.9"	"6.9"	"11.1"	
"20130318"	"Clear"	"05"	"54"	"-2.0"	"-18.9"	"0"	"0"	"-9999"	"-9999"	"36"	"clear"	"METAR KBOS 180954Z 33007KT 10SM CLR M06/M19 A3043 RMK AO2 SLP304 T10611189"	"-9999.00"	"-9999.00"	"30.43"	"1030.4"	"0"	"0"	"21.0"	"-6.1"	"0"	"0"	"10.0"	"16.1"	"330"	"NNW"	"-9999.0"	"-9999.0"	"11.4"	"-11.4"	"8.1"	"13.0"	
"20130318"	"Partly Cloudy"	"06"	"54"	"-0.9"	"-18.3"	"0"	"0"	"-9999"	"-9999"	"38"	"partlycloudy"	"METAR KBOS 181054Z 33007KT 10SM FEW060 M06/M18 A3045 RMK AO2 SLP311 T10611183"	"-9999.00"	"-9999.00"	"30.45"	"1031.1"	"0"	"0"	"21.0"	"-6.1"	"0"	"0"	"10.0"	"16.1"	"330"	"NNW"	"-9999.0"	"-9999.0"	"11.4"	"-11.4"	"8.1"	"13.0"	
"20130318"	"Scattered Clouds"	"07"	"54"	"-0.9"	"-18.3"	"0"	"0"	"-9999"	"-9999"	"37"	"partlycloudy"	"METAR KBOS 181154Z 34007KT 10SM FEW060 SCT250 M06/M18 A3046 RMK AO2 SLP314 T10561183 11044 21061 51017"	"-9999.00"	"-9999.00"	"30.46"	"1031.4"	"0"	"0"	"21.9"	"-5.6"	"0"	"0"	"10.0"	"16.1"	"340"	"NNW"	"-9999.0"	"-9999.0"	"12.5"	"-10.8"	"8.1"	"13.0"	
"20130318"	"Scattered Clouds"	"08"	"54"	"-0.9"	"-18.3"	"0"	"0"	"-9999"	"-9999"	"33"	"partlycloudy"	"METAR KBOS 181254Z 33004KT 10SM FEW060 SCT250 M04/M18 A3047 RMK AO2 SLP316 T10391183"	"-9999.00"	"-9999.00"	"30.47"	"1031.6"	"0"	"0"	"25.0"	"-3.9"	"0"	"0"	"10.0"	"16.1"	"330"	"NNW"	"-9999.0"	"-9999.0"	"19.3"	"-7.1"	"4.6"	"7.4"	
"20130318"	"Mostly Cloudy"	"09"	"54"	"1.0"	"-17.2"	"0"	"0"	"-9999"	"-9999"	"33"	"mostlycloudy"	"METAR KBOS 181354Z 00000KT 10SM BKN250 M03/M17 A3046 RMK AO2 SLP315 T10281172"	"-9999.00"	"-9999.00"	"30.46"	"1031.5"	"0"	"0"	"27.0"	"-2.8"	"0"	"0"	"10.0"	"16.1"	"0"	"North"	"-9999.0"	"-9999.0"	"-999"	"-999"	"0.0"	"0.0"	
"20130318"	"Mostly Cloudy"	"10"	"54"	"8.1"	"-13.3"	"0"	"0"	"-9999"	"-9999"	"45"	"mostlycloudy"	"METAR KBOS 181454Z 13005KT 10SM BKN250 M03/M13 A3045 RMK AO2 SLP311 T10281133 58003"	"-9999.00"	"-9999.00"	"30.45"	"1031.1"	"0"	"0"	"27.0"	"-2.8"	"0"	"0"	"10.0"	"16.1"	"130"	"SE"	"-9999.0"	"-9999.0"	"20.5"	"-6.4"	"5.8"	"9.3"	
"20130318"	"Mostly Cloudy"	"11"	"54"	"10.0"	"-12.2"	"0"	"0"	"-9999"	"-9999"	"45"	"mostlycloudy"	"METAR KBOS 181554Z 14005KT 10SM BKN250 M02/M12 A3044 RMK AO2 SLP307 T10171122"	"-9999.00"	"-9999.00"	"30.44"	"1030.7"	"0"	"0"	"28.9"	"-1.7"	"0"	"0"	"10.0"	"16.1"	"140"	"SE"	"-9999.0"	"-9999.0"	"22.8"	"-5.1"	"5.8"	"9.3"	
"20130318"	"Mostly Cloudy"	"12"	"54"	"9.0"	"-12.8"	"0"	"0"	"-9999"	"-9999"	"40"	"mostlycloudy"	"METAR KBOS 181654Z 14006KT 10SM BKN250 M01/M13 A3042 RMK AO2 SLP300 T10061128"	"-9999.00"	"-9999.00"	"30.42"	"1030.0"	"0"	"0"	"30.9"	"-0.6"	"0"	"0"	"10.0"	"16.1"	"140"	"SE"	"-9999.0"	"-9999.0"	"24.3"	"-4.3"	"6.9"	"11.1"	
"20130318"	"Overcast"	"13"	"54"	"12.9"	"-10.6"	"0"	"0"	"-9999"	"-9999"	"43"	"cloudy"	"METAR KBOS 181754Z 12010KT 10SM SCT200 OVC250 01/M11 A3039 RMK AO2 SLP291 T00061106 10006 21056 58019"	"-9999.00"	"-9999.00"	"30.39"	"1029.1"	"0"	"0"	"33.1"	"0.6"	"0"	"0"	"10.0"	"16.1"	"120"	"ESE"	"-9999.0"	"-9999.0"	"24.4"	"-4.2"	"11.5"	"18.5"	
"20130318"	"Overcast"	"14"	"54"	"17.1"	"-8.3"	"0"	"0"	"-9999"	"-9999"	"54"	"cloudy"	"METAR KBOS 181854Z 12011KT 10SM BKN200 OVC270 00/M08 A3037 RMK AO2 SLP282 T00001083"	"-9999.00"	"-9999.00"	"30.37"	"1028.2"	"0"	"0"	"32.0"	"0.0"	"0"	"0"	"10.0"	"16.1"	"120"	"ESE"	"-9999.0"	"-9999.0"	"22.5"	"-5.3"	"12.7"	"20.4"	
"20130318"	"Overcast"	"15"	"54"	"19.0"	"-7.2"	"0"	"0"	"-9999"	"-9999"	"59"	"cloudy"	"METAR KBOS 181954Z 11012KT 10SM BKN200 OVC270 00/M07 A3035 RMK AO2 SLP277 T00001072"	"-9999.00"	"-9999.00"	"30.35"	"1027.7"	"0"	"0"	"32.0"	"0.0"	"0"	"0"	"10.0"	"16.1"	"110"	"ESE"	"-9999.0"	"-9999.0"	"22.1"	"-5.5"	"13.8"	"22.2"	
"20130318"	"Overcast"	"16"	"54"	"19.9"	"-6.7"	"0"	"0"	"-9999"	"-9999"	"61"	"cloudy"	"METAR KBOS 182054Z 11012KT 10SM BKN200 OVC270 00/M07 A3033 RMK AO2 SLP270 T00001067 56021"	"-9999.00"	"-9999.00"	"30.33"	"1027.0"	"0"	"0"	"32.0"	"0.0"	"0"	"0"	"10.0"	"16.1"	"110"	"ESE"	"-9999.0"	"-9999.0"	"22.1"	"-5.5"	"13.8"	"22.2"	
"20130318"	"Overcast"	"17"	"54"	"19.9"	"-6.7"	"0"	"0"	"-9999"	"-9999"	"59"	"cloudy"	"METAR KBOS 182154Z 12012KT 10SM BKN200 OVC270 01/M07 A3031 RMK AO2 SLP264 T00061067"	"-9999.00"	"-9999.00"	"30.31"	"1026.4"	"0"	"0"	"33.1"	"0.6"	"0"	"0"	"10.0"	"16.1"	"120"	"ESE"	"-9999.0"	"-9999.0"	"23.4"	"-4.8"	"13.8"	"22.2"	
"20130318"	"Overcast"	"18"	"54"	"19.0"	"-7.2"	"0"	"0"	"-9999"	"-9999"	"56"	"cloudy"	"METAR KBOS 182254Z 15010KT 10SM SCT120 OVC200 01/M07 A3031 RMK AO2 SLP261 T00061072"	"-9999.00"	"-9999.00"	"30.30"	"1026.1"	"0"	"0"	"33.1"	"0.6"	"0"	"0"	"10.0"	"16.1"	"150"	"SSE"	"-9999.0"	"-9999.0"	"24.4"	"-4.2"	"11.5"	"18.5"	
"20130318"	"Overcast"	"19"	"54"	"19.9"	"-6.7"	"0"	"0"	"-9999"	"-9999"	"59"	"cloudy"	"METAR KBOS 182354Z 16010KT 150V210 10SM BKN110 OVC180 01/M07 A3030 RMK AO2 SLP258 T00061067 10006 21006 56012"	"-9999.00"	"-9999.00"	"30.30"	"1025.8"	"0"	"0"	"33.1"	"0.6"	"0"	"0"	"10.0"	"16.1"	"160"	"SSE"	"-9999.0"	"-9999.0"	"24.4"	"-4.2"	"11.5"	"18.5"	
"20130318"	"Overcast"	"20"	"54"	"19.0"	"-7.2"	"0"	"0"	"-9999"	"-9999"	"56"	"cloudy"	"METAR KBOS 190054Z 16012KT 10SM BKN075 OVC100 01/M07 A3029 RMK AO2 SLP255 T00061072"	"-9999.00"	"-9999.00"	"30.29"	"1025.5"	"0"	"0"	"33.1"	"0.6"	"0"	"0"	"10.0"	"16.1"	"160"	"SSE"	"-9999.0"	"-9999.0"	"23.4"	"-4.8"	"13.8"	"22.2"	
"20130318"	"Overcast"	"21"	"54"	"18.0"	"-7.8"	"0"	"0"	"-9999"	"-9999"	"56"	"cloudy"	"METAR KBOS 190154Z 18014KT 10SM FEW045 BKN070 OVC120 00/M08 A3028 RMK AO2 SLP254 T00001078"	"-9999.00"	"-9999.00"	"30.28"	"1025.4"	"0"	"0"	"32.0"	"0.0"	"0"	"0"	"10.0"	"16.1"	"180"	"South"	"-9999.0"	"-9999.0"	"21.2"	"-6.0"	"16.1"	"25.9"	
"20130318"	"Light Snow"	"22"	"35"	"23.0"	"-5.0"	"0"	"0"	"-9999"	"-9999"	"75"	"snow"	"SPECI KBOS 190235Z 16012KT 2 1/2SM -SN FEW010 OVC028 M01/M05 A3029 RMK AO2 SNB11 P0000"	"0.00"	"0.0"	"30.29"	"1025.6"	"0"	"1"	"30.2"	"-1.0"	"0"	"0"	"2.5"	"4.0"	"160"	"SSE"	"-9999.0"	"-9999.0"	"19.8"	"-6.8"	"13.8"	"22.2"	
"20130318"	"Light Snow"	"22"	"54"	"24.1"	"-4.4"	"0"	"0"	"-9999"	"-9999"	"82"	"snow"	"METAR KBOS 190254Z 15011KT 1 1/2SM -SN FEW010 OVC018 M02/M04 A3029 RMK AO2 SNB11 SLP255 P0000 60000 T10171044 55004"	"0.00"	"0.0"	"30.29"	"1025.5"	"0"	"1"	"28.9"	"-1.7"	"0"	"0"	"1.5"	"2.4"	"150"	"SSE"	"-9999.0"	"-9999.0"	"18.6"	"-7.4"	"12.7"	"20.4"	
"20130318"	"Light Snow"	"23"	"07"	"24.8"	"-4.0"	"0"	"0"	"-9999"	"-9999"	"86"	"snow"	"SPECI KBOS 190307Z 15009G18KT 1 1/4SM -SN BR FEW008 OVC014 M02/M04 A3028 RMK AO2 P0000"	"0.00"	"0.0"	"30.28"	"1025.3"	"0"	"1"	"28.4"	"-2.0"	"0"	"0"	"1.2"	"2.0"	"150"	"SSE"	"20.7"	"33.3"	"19.1"	"-7.2"	"10.4"	"16.7"	
"20130318"	"Light Snow"	"23"	"54"	"26.1"	"-3.3"	"0"	"0"	"-9999"	"-9999"	"89"	"snow"	"METAR KBOS 190354Z 13010KT 1 1/4SM -SN BR FEW006 OVC012 M02/M03 A3027 RMK AO2 SLP248 P0002 T10171033"	"0.02"	"0.5"	"30.27"	"1024.8"	"0"	"1"	"28.9"	"-1.7"	"0"	"0"	"1.2"	"2.0"	"130"	"SE"	"-9999.0"	"-9999.0"	"19.2"	"-7.1"	"11.5"	"18.5"	
"20130317"	"Partly Cloudy"	"00"	"54"	"12.0"	"-11.1"	"0"	"0"	"-9999"	"-9999"	"46"	"partlycloudy"	"METAR KBOS 170454Z 02009KT 10SM FEW100 M01/M11 A2989 RMK AO2 SLP122 T10061111 400441011"	"-9999.00"	"-9999.00"	"29.89"	"1012.2"	"0"	"0"	"30.9"	"-0.6"	"0"	"0"	"10.0"	"16.1"	"20"	"NNE"	"-9999.0"	"-9999.0"	"22.2"	"-5.4"	"10.4"	"16.7"	
"20130317"	"Clear"	"01"	"54"	"12.0"	"-11.1"	"0"	"0"	"-9999"	"-9999"	"49"	"clear"	"METAR KBOS 170554Z 01005KT 10SM CLR M02/M11 A2990 RMK AO2 SLP126 T10171111 10028 21017 53012"	"-9999.00"	"-9999.00"	"29.91"	"1012.6"	"0"	"0"	"28.9"	"-1.7"	"0"	"0"	"10.0"	"16.1"	"10"	"North"	"-9999.0"	"-9999.0"	"22.8"	"-5.1"	"5.8"	"9.3"	
"20130317"	"Partly Cloudy"	"02"	"54"	"10.9"	"-11.7"	"0"	"0"	"-9999"	"-9999"	"45"	"partlycloudy"	"METAR KBOS 170654Z 34004KT 10SM FEW100 M01/M12 A2990 RMK AO2 SLP124 T10111117"	"-9999.00"	"-9999.00"	"29.90"	"1012.4"	"0"	"0"	"30.0"	"-1.1"	"0"	"0"	"10.0"	"16.1"	"340"	"NNW"	"-9999.0"	"-9999.0"	"25.2"	"-3.8"	"4.6"	"7.4"	
"20130317"	"Partly Cloudy"	"03"	"54"	"10.9"	"-11.7"	"0"	"0"	"-9999"	"-9999"	"45"	"partlycloudy"	"METAR KBOS 170754Z 35004KT 10SM FEW055 M01/M12 A2990 RMK AO2 SLP125 T10111117"	"-9999.00"	"-9999.00"	"29.90"	"1012.5"	"0"	"0"	"30.0"	"-1.1"	"0"	"0"	"10.0"	"16.1"	"350"	"North"	"-9999.0"	"-9999.0"	"25.2"	"-3.8"	"4.6"	"7.4"	
"20130317"	"Partly Cloudy"	"04"	"54"	"10.9"	"-11.7"	"0"	"0"	"-9999"	"-9999"	"47"	"partlycloudy"	"METAR KBOS 170854Z 33005KT 10SM FEW055 M02/M12 A2993 RMK AO2 SLP133 T10171117 53007"	"-9999.00"	"-9999.00"	"29.93"	"1013.3"	"0"	"0"	"28.9"	"-1.7"	"0"	"0"	"10.0"	"16.1"	"330"	"NNW"	"-9999.0"	"-9999.0"	"22.8"	"-5.1"	"5.8"	"9.3"	
"20130317"	"Clear"	"05"	"54"	"10.9"	"-11.7"	"0"	"0"	"-9999"	"-9999"	"47"	"clear"	"METAR KBOS 170954Z 33006KT 10SM CLR M02/M12 A2994 RMK AO2 SLP138 T10171117"	"-9999.00"	"-9999.00"	"29.94"	"1013.8"	"0"	"0"	"28.9"	"-1.7"	"0"	"0"	"10.0"	"16.1"	"330"	"NNW"	"-9999.0"	"-9999.0"	"21.9"	"-5.6"	"6.9"	"11.1"	
"20130317"	"Scattered Clouds"	"06"	"54"	"10.9"	"-11.7"	"0"	"0"	"-9999"	"-9999"	"49"	"partlycloudy"	"METAR KBOS 171054Z 32004KT 10SM FEW037 SCT250 SCT300 M02/M12 A2996 RMK AO2 SLP143 T10221117"	"-9999.00"	"-9999.00"	"29.96"	"1014.3"	"0"	"0"	"28.0"	"-2.2"	"0"	"0"	"10.0"	"16.1"	"320"	"NW"	"-9999.0"	"-9999.0"	"22.8"	"-5.1"	"4.6"	"7.4"	
"20130317"	"Scattered Clouds"	"07"	"54"	"12.0"	"-11.1"	"0"	"0"	"-9999"	"-9999"	"49"	"partlycloudy"	"METAR KBOS 171154Z 29008KT 10SM FEW037 SCT100 M02/M11 A3000 RMK AO2 SLP157 T10171111 11006 21028 53024"	"-9999.00"	"-9999.00"	"30.00"	"1015.7"	"0"	"0"	"28.9"	"-1.7"	"0"	"0"	"10.0"	"16.1"	"290"	"WNW"	"-9999.0"	"-9999.0"	"20.4"	"-6.4"	"9.2"	"14.8"	
"20130317"	"Scattered Clouds"	"08"	"54"	"12.0"	"-11.1"	"0"	"0"	"-9999"	"-9999"	"47"	"partlycloudy"	"METAR KBOS 171254Z 32013KT 10SM FEW041 SCT100 SCT250 M01/M11 A3003 RMK AO2 SLP168 T10111111"	"-9999.00"	"-9999.00"	"30.03"	"1016.8"	"0"	"0"	"30.0"	"-1.1"	"0"	"0"	"10.0"	"16.1"	"320"	"NW"	"-9999.0"	"-9999.0"	"19.1"	"-7.2"	"15.0"	"24.1"	
"20130317"	"Scattered Clouds"	"09"	"54"	"10.9"	"-11.7"	"0"	"0"	"-9999"	"-9999"	"42"	"partlycloudy"	"METAR KBOS 171354Z 30009KT 10SM FEW041 SCT250 SCT300 00/M12 A3004 RMK AO2 SLP171 T00001117"	"-9999.00"	"-9999.00"	"30.04"	"1017.1"	"0"	"0"	"32.0"	"0.0"	"0"	"0"	"10.0"	"16.1"	"300"	"WNW"	"-9999.0"	"-9999.0"	"23.6"	"-4.7"	"10.4"	"16.7"	
"20130317"	"Scattered Clouds"	"10"	"54"	"8.1"	"-13.3"	"0"	"0"	"-9999"	"-9999"	"34"	"partlycloudy"	"METAR KBOS 171454Z 28012G18KT 10SM FEW055 SCT250 SCT300 01/M13 A3003 RMK AO2 SLP169 T00111133 50012"	"-9999.00"	"-9999.00"	"30.03"	"1016.9"	"0"	"0"	"34.0"	"1.1"	"0"	"0"	"10.0"	"16.1"	"280"	"West"	"20.7"	"33.3"	"24.6"	"-4.1"	"13.8"	"22.2"	
"20130317"	"Scattered Clouds"	"11"	"54"	"10.0"	"-12.2"	"0"	"0"	"-9999"	"-9999"	"33"	"partlycloudy"	"METAR KBOS 171554Z 31016KT 10SM FEW055 SCT180 SCT250 SCT300 03/M12 A3004 RMK AO2 SLP172 T00281122"	"-9999.00"	"-9999.00"	"30.04"	"1017.2"	"0"	"0"	"37.0"	"2.8"	"0"	"0"	"10.0"	"16.1"	"310"	"NW"	"-9999.0"	"-9999.0"	"27.0"	"-2.8"	"18.4"	"29.6"	
"20130317"	"Scattered Clouds"	"12"	"54"	"8.1"	"-13.3"	"0"	"0"	"-9999"	"-9999"	"29"	"partlycloudy"	"METAR KBOS 171654Z 33015G23KT 10SM SCT065 SCT250 03/M13 A3004 RMK AO2 SLP171 T00331133"	"-9999.00"	"-9999.00"	"30.04"	"1017.1"	"0"	"0"	"37.9"	"3.3"	"0"	"0"	"10.0"	"16.1"	"330"	"NNW"	"26.5"	"42.6"	"28.5"	"-1.9"	"17.3"	"27.8"	
"20130317"	"Mostly Cloudy"	"13"	"54"	"6.1"	"-14.4"	"0"	"0"	"-9999"	"-9999"	"27"	"mostlycloudy"	"METAR KBOS 171754Z 32016KT 10SM SCT070 BKN250 03/M14 A3003 RMK AO2 PK WND 31028/1738 SLP170 T00331144 10033 21017 50001"	"-9999.00"	"-9999.00"	"30.04"	"1017.0"	"0"	"0"	"37.9"	"3.3"	"0"	"0"	"10.0"	"16.1"	"320"	"NW"	"-9999.0"	"-9999.0"	"28.2"	"-2.1"	"18.4"	"29.6"	
"20130317"	"Overcast"	"14"	"54"	"3.9"	"-15.6"	"0"	"0"	"-9999"	"-9999"	"24"	"cloudy"	"METAR KBOS 171854Z 32014G25KT 10SM FEW070 SCT220 OVC250 03/M16 A3005 RMK AO2 PK WND 35026/1844 SLP173 T00331156"	"-9999.00"	"-9999.00"	"30.04"	"1017.3"	"0"	"0"	"37.9"	"3.3"	"0"	"0"	"10.0"	"16.1"	"320"	"NW"	"28.8"	"46.3"	"28.9"	"-1.7"	"16.1"	"25.9"	
"20130317"	"Overcast"	"15"	"54"	"1.9"	"-16.7"	"0"	"0"	"-9999"	"-9999"	"24"	"cloudy"	"METAR KBOS 171954Z 32015G22KT 10SM FEW070 BKN220 OVC250 02/M17 A3007 RMK AO2 SLP183 T00221167"	"-9999.00"	"-9999.00"	"30.07"	"1018.3"	"0"	"0"	"36.0"	"2.2"	"0"	"0"	"10.0"	"16.1"	"320"	"NW"	"25.3"	"40.7"	"26.0"	"-3.4"	"17.3"	"27.8"	
"20130317"	"Overcast"	"16"	"54"	"3.0"	"-16.1"	"0"	"0"	"-9999"	"-9999"	"25"	"cloudy"	"METAR KBOS 172054Z 30014G19KT 10SM FEW070 SCT220 OVC250 02/M16 A3009 RMK AO2 SLP189 T00221161 53019"	"-9999.00"	"-9999.00"	"30.09"	"1018.9"	"0"	"0"	"36.0"	"2.2"	"0"	"0"	"10.0"	"16.1"	"300"	"WNW"	"21.9"	"35.2"	"26.3"	"-3.2"	"16.1"	"25.9"	
"20130317"	"Overcast"	"17"	"54"	"3.9"	"-15.6"	"0"	"0"	"-9999"	"-9999"	"26"	"cloudy"	"METAR KBOS 172154Z 32009G19KT 10SM SCT220 OVC250 02/M16 A3012 RMK AO2 SLP200 T00221156"	"-9999.00"	"-9999.00"	"30.12"	"1020.0"	"0"	"0"	"36.0"	"2.2"	"0"	"0"	"10.0"	"16.1"	"320"	"NW"	"21.9"	"35.2"	"28.5"	"-2.0"	"10.4"	"16.7"	
"20130317"	"Mostly Cloudy"	"18"	"54"	"5.0"	"-15.0"	"0"	"0"	"-9999"	"-9999"	"30"	"mostlycloudy"	"METAR KBOS 172254Z 33010KT 10SM SCT220 BKN250 01/M15 A3016 RMK AO2 SLP211 T00111150"	"-9999.00"	"-9999.00"	"30.16"	"1021.1"	"0"	"0"	"34.0"	"1.1"	"0"	"0"	"10.0"	"16.1"	"330"	"NNW"	"-9999.0"	"-9999.0"	"25.5"	"-3.6"	"11.5"	"18.5"	
"20130317"	"Scattered Clouds"	"19"	"54"	"3.9"	"-15.6"	"0"	"0"	"-9999"	"-9999"	"29"	"partlycloudy"	"METAR KBOS 172354Z 33010KT 10SM FEW220 SCT250 01/M16 A3020 RMK AO2 SLP225 T00061156 10033 20006 53037"	"-9999.00"	"-9999.00"	"30.20"	"1022.5"	"0"	"0"	"33.1"	"0.6"	"0"	"0"	"10.0"	"16.1"	"330"	"NNW"	"-9999.0"	"-9999.0"	"24.4"	"-4.2"	"11.5"	"18.5"	
"20130317"	"Partly Cloudy"	"20"	"54"	"3.9"	"-15.6"	"0"	"0"	"-9999"	"-9999"	"31"	"partlycloudy"	"METAR KBOS 180054Z 34009KT 10SM FEW250 00/M16 A3024 RMK AO2 SLP238 T00001156"	"-9999.00"	"-9999.00"	"30.24"	"1023.8"	"0"	"0"	"32.0"	"0.0"	"0"	"0"	"10.0"	"16.1"	"340"	"NNW"	"-9999.0"	"-9999.0"	"23.6"	"-4.7"	"10.4"	"16.7"	
"20130317"	"Partly Cloudy"	"21"	"54"	"3.9"	"-15.6"	"0"	"0"	"-9999"	"-9999"	"33"	"partlycloudy"	"METAR KBOS 180154Z 35008KT 10SM FEW250 M01/M16 A3027 RMK AO2 SLP249 T10111156"	"-9999.00"	"-9999.00"	"30.27"	"1024.9"	"0"	"0"	"30.0"	"-1.1"	"0"	"0"	"10.0"	"16.1"	"350"	"North"	"-9999.0"	"-9999.0"	"21.7"	"-5.7"	"9.2"	"14.8"	
"20130317"	"Clear"	"22"	"54"	"3.9"	"-15.6"	"0"	"0"	"-9999"	"-9999"	"36"	"clear"	"METAR KBOS 180254Z 01011KT 10SM CLR M02/M16 A3030 RMK AO2 SLP260 T10221156 51036"	"-9999.00"	"-9999.00"	"30.30"	"1026.0"	"0"	"0"	"28.0"	"-2.2"	"0"	"0"	"10.0"	"16.1"	"10"	"North"	"-9999.0"	"-9999.0"	"17.5"	"-8.0"	"12.7"	"20.4"	
"20130317"	"Clear"	"23"	"54"	"1.9"	"-16.7"	"0"	"0"	"-9999"	"-9999"	"34"	"clear"	"METAR KBOS 180354Z 35012KT 10SM CLR M03/M17 A3033 RMK AO2 SLP268 T10281167"	"-9999.00"	"-9999.00"	"30.32"	"1026.8"	"0"	"0"	"27.0"	"-2.8"	"0"	"0"	"10.0"	"16.1"	"350"	"North"	"-9999.0"	"-9999.0"	"15.6"	"-9.1"	"13.8"	"22.2"	
"20130316"	"Scattered Clouds"	"00"	"54"	"23.0"	"-5.0"	"0"	"0"	"-9999"	"-9999"	"59"	"partlycloudy"	"METAR KBOS 160454Z 29010G18KT 10SM SCT037 SCT055 02/M05 A2969 RMK AO2 SLP055 T00221050 400501061"	"-9999.00"	"-9999.00"	"29.70"	"1005.5"	"0"	"0"	"36.0"	"2.2"	"0"	"0"	"10.0"	"16.1"	"290"	"WNW"	"20.7"	"33.3"	"28.0"	"-2.2"	"11.5"	"18.5"	
"20130316"	"Mostly Cloudy"	"01"	"54"	"19.9"	"-6.7"	"0"	"0"	"-9999"	"-9999"	"54"	"mostlycloudy"	"METAR KBOS 160554Z 32011G20KT 10SM FEW039 SCT055 BKN075 02/M07 A2972 RMK AO2 SLP064 T00171067 10039 20017 53019"	"-9999.00"	"-9999.00"	"29.72"	"1006.4"	"0"	"0"	"35.1"	"1.7"	"0"	"0"	"10.0"	"16.1"	"320"	"NW"	"23.0"	"37.0"	"26.4"	"-3.1"	"12.7"	"20.4"	
"20130316"	"Mostly Cloudy"	"02"	"54"	"17.1"	"-8.3"	"0"	"0"	"-9999"	"-9999"	"52"	"mostlycloudy"	"METAR KBOS 160654Z 33011G18KT 10SM BKN070 01/M08 A2974 RMK AO2 SLP071 T00061083"	"-9999.00"	"-9999.00"	"29.74"	"1007.1"	"0"	"0"	"33.1"	"0.6"	"0"	"0"	"10.0"	"16.1"	"330"	"NNW"	"20.7"	"33.3"	"23.9"	"-4.5"	"12.7"	"20.4"	
"20130316"	"Scattered Clouds"	"03"	"54"	"15.1"	"-9.4"	"0"	"0"	"-9999"	"-9999"	"50"	"partlycloudy"	"METAR KBOS 160754Z 32010KT 10SM FEW035 SCT070 00/M09 A2976 RMK AO2 SLP076 T00001094"	"-9999.00"	"-9999.00"	"29.76"	"1007.6"	"0"	"0"	"32.0"	"0.0"	"0"	"0"	"10.0"	"16.1"	"320"	"NW"	"-9999.0"	"-9999.0"	"23.0"	"-5.0"	"11.5"	"18.5"	
"20130316"	"Scattered Clouds"	"04"	"54"	"16.0"	"-8.9"	"0"	"0"	"-9999"	"-9999"	"54"	"partlycloudy"	"METAR KBOS 160854Z 32007KT 10SM FEW030 SCT070 M01/M09 A2978 RMK AO2 SLP084 T10061089 53020"	"-9999.00"	"-9999.00"	"29.78"	"1008.4"	"0"	"0"	"30.9"	"-0.6"	"0"	"0"	"10.0"	"16.1"	"320"	"NW"	"-9999.0"	"-9999.0"	"23.5"	"-4.7"	"8.1"	"13.0"	
"20130316"	"Scattered Clouds"	"05"	"54"	"17.1"	"-8.3"	"0"	"0"	"-9999"	"-9999"	"57"	"partlycloudy"	"METAR KBOS 160954Z 30006KT 10SM FEW030 SCT070 M01/M08 A2981 RMK AO2 SLP093 T10061083"	"-9999.00"	"-9999.00"	"29.81"	"1009.3"	"0"	"0"	"30.9"	"-0.6"	"0"	"0"	"10.0"	"16.1"	"300"	"WNW"	"-9999.0"	"-9999.0"	"24.3"	"-4.3"	"6.9"	"11.1"	
"20130316"	"Scattered Clouds"	"06"	"54"	"16.0"	"-8.9"	"0"	"0"	"-9999"	"-9999"	"56"	"partlycloudy"	"METAR KBOS 161054Z 32008KT 10SM FEW030 SCT070 SCT250 M01/M09 A2983 RMK AO2 SLP100 T10111089"	"-9999.00"	"-9999.00"	"29.83"	"1010.0"	"0"	"0"	"30.0"	"-1.1"	"0"	"0"	"10.0"	"16.1"	"320"	"NW"	"-9999.0"	"-9999.0"	"21.7"	"-5.7"	"9.2"	"14.8"	
"20130316"	"Scattered Clouds"	"07"	"54"	"14.0"	"-10.0"	"0"	"0"	"-9999"	"-9999"	"51"	"partlycloudy"	"METAR KBOS 161154Z 32011KT 10SM FEW030 SCT070 SCT250 M01/M10 A2984 RMK AO2 SLP103 T10111100 10017 21011 51019"	"-9999.00"	"-9999.00"	"29.84"	"1010.3"	"0"	"0"	"30.0"	"-1.1"	"0"	"0"	"10.0"	"16.1"	"320"	"NW"	"-9999.0"	"-9999.0"	"20.0"	"-6.7"	"12.7"	"20.4"	
"20130316"	"Scattered Clouds"	"08"	"54"	"12.9"	"-10.6"	"0"	"0"	"-9999"	"-9999"	"47"	"partlycloudy"	"METAR KBOS 161254Z 32013G17KT 10SM FEW030 SCT070 SCT250 M01/M11 A2985 RMK AO2 SLP107 T10061106"	"-9999.00"	"-9999.00"	"29.85"	"1010.7"	"0"	"0"	"30.9"	"-0.6"	"0"	"0"	"10.0"	"16.1"	"320"	"NW"	"19.6"	"31.5"	"20.2"	"-6.5"	"15.0"	"24.1"	
"20130316"	"Scattered Clouds"	"09"	"54"	"10.9"	"-11.7"	"0"	"0"	"-9999"	"-9999"	"40"	"partlycloudy"	"METAR KBOS 161354Z 32008KT 10SM FEW030 SCT250 01/M12 A2985 RMK AO2 SLP108 T00061117"	"-9999.00"	"-9999.00"	"29.85"	"1010.8"	"0"	"0"	"33.1"	"0.6"	"0"	"0"	"10.0"	"16.1"	"320"	"NW"	"-9999.0"	"-9999.0"	"25.5"	"-3.6"	"9.2"	"14.8"	
"20130316"	"Mostly Cloudy"	"10"	"54"	"10.9"	"-11.7"	"0"	"0"	"-9999"	"-9999"	"40"	"mostlycloudy"	"METAR KBOS 161454Z 27007KT 10SM FEW030 SCT150 BKN250 01/M12 A2984 RMK AO2 SLP103 T00061117 50000"	"-9999.00"	"-9999.00"	"29.84"	"1010.3"	"0"	"0"	"33.1"	"0.6"	"0"	"0"	"10.0"	"16.1"	"270"	"West"	"-9999.0"	"-9999.0"	"26.1"	"-3.3"	"8.1"	"13.0"	
"20130316"	"Overcast"	"11"	"54"	"10.0"	"-12.2"	"0"	"0"	"-9999"	"-9999"	"35"	"cloudy"	"METAR KBOS 161554Z 29009G15KT 10SM FEW030 BKN150 OVC220 02/M12 A2983 RMK AO2 SLP102 T00171122"	"-9999.00"	"-9999.00"	"29.83"	"1010.2"	"0"	"0"	"35.1"	"1.7"	"0"	"0"	"10.0"	"16.1"	"290"	"WNW"	"17.3"	"27.8"	"27.4"	"-2.6"	"10.4"	"16.7"	
"20130316"	"Overcast"	"12"	"54"	"7.0"	"-13.9"	"0"	"0"	"-9999"	"-9999"	"31"	"cloudy"	"METAR KBOS 161654Z 31008KT 10SM FEW030 SCT090 OVC200 02/M14 A2983 RMK AO2 SLP099 VIRGA OHD T00171139"	"-9999.00"	"-9999.00"	"29.83"	"1009.9"	"0"	"0"	"35.1"	"1.7"	"0"	"0"	"10.0"	"16.1"	"310"	"NW"	"-9999.0"	"-9999.0"	"27.9"	"-2.3"	"9.2"	"14.8"	
"20130316"	"Overcast"	"13"	"54"	"8.1"	"-13.3"	"0"	"0"	"-9999"	"-9999"	"31"	"cloudy"	"METAR KBOS 161754Z 32008KT 10SM FEW035 BKN090 OVC230 02/M13 A2981 RMK AO2 SLP093 VIRGA SE-SW T00221133 10022 21011 58010"	"-9999.00"	"-9999.00"	"29.81"	"1009.3"	"0"	"0"	"36.0"	"2.2"	"0"	"0"	"10.0"	"16.1"	"320"	"NW"	"-9999.0"	"-9999.0"	"29.0"	"-1.6"	"9.2"	"14.8"	
"20130316"	"Mostly Cloudy"	"14"	"54"	"5.0"	"-15.0"	"0"	"0"	"-9999"	"-9999"	"26"	"mostlycloudy"	"METAR KBOS 161854Z 32006G14KT 10SM FEW045 SCT090 BKN120 BKN230 03/M15 A2980 RMK AO2 SLP091 VIRGA ALQDS T00281150"	"-9999.00"	"-9999.00"	"29.80"	"1009.1"	"0"	"0"	"37.0"	"2.8"	"0"	"0"	"10.0"	"16.1"	"320"	"NW"	"16.1"	"25.9"	"31.6"	"-0.2"	"6.9"	"11.1"	
"20130316"	"Mostly Cloudy"	"15"	"54"	"6.1"	"-14.4"	"0"	"0"	"-9999"	"-9999"	"27"	"mostlycloudy"	"METAR KBOS 161954Z VRB04KT 10SM FEW045 SCT085 BKN140 BKN250 03/M14 A2980 RMK AO2 SLP090 VIRGA ALQDS T00331144"	"-9999.00"	"-9999.00"	"29.80"	"1009.0"	"0"	"0"	"37.9"	"3.3"	"0"	"0"	"10.0"	"16.1"	"0"	"Variable"	"-9999.0"	"-9999.0"	"34.4"	"1.3"	"4.6"	"7.4"	
"20130316"	"Mostly Cloudy"	"16"	"54"	"7.0"	"-13.9"	"0"	"0"	"-9999"	"-9999"	"27"	"mostlycloudy"	"METAR KBOS 162054Z 26007KT 10SM FEW100 SCT150 BKN250 04/M14 A2978 RMK AO2 SLP085 T00391139 58008"	"-9999.00"	"-9999.00"	"29.78"	"1008.5"	"0"	"0"	"39.0"	"3.9"	"0"	"0"	"10.0"	"16.1"	"260"	"West"	"-9999.0"	"-9999.0"	"33.4"	"0.8"	"8.1"	"13.0"	
"20130316"	"Mostly Cloudy"	"17"	"54"	"6.1"	"-14.4"	"0"	"0"	"-9999"	"-9999"	"27"	"mostlycloudy"	"METAR KBOS 162154Z 27003KT 10SM FEW095 BKN150 03/M14 A2978 RMK AO2 SLP085 T00331144"	"-9999.00"	"-9999.00"	"29.78"	"1008.5"	"0"	"0"	"37.9"	"3.3"	"0"	"0"	"10.0"	"16.1"	"270"	"West"	"-9999.0"	"-9999.0"	"35.5"	"2.0"	"3.5"	"5.6"	
"20130316"	"Mostly Cloudy"	"18"	"54"	"6.1"	"-14.4"	"0"	"0"	"-9999"	"-9999"	"27"	"mostlycloudy"	"METAR KBOS 162254Z 28004KT 10SM BKN085 03/M14 A2978 RMK AO2 SLP085 T00331144"	"-9999.00"	"-9999.00"	"29.78"	"1008.5"	"0"	"0"	"37.9"	"3.3"	"0"	"0"	"10.0"	"16.1"	"280"	"West"	"-9999.0"	"-9999.0"	"34.4"	"1.3"	"4.6"	"7.4"	
"20130316"	"Overcast"	"19"	"54"	"10.9"	"-11.7"	"0"	"0"	"-9999"	"-9999"	"34"	"cloudy"	"METAR KBOS 162354Z 12006KT 10SM OVC070 03/M12 A2981 RMK AO2 SLP094 T00281117 10044 20022 53009"	"-9999.00"	"-9999.00"	"29.81"	"1009.4"	"0"	"0"	"37.0"	"2.8"	"0"	"0"	"10.0"	"16.1"	"120"	"ESE"	"-9999.0"	"-9999.0"	"31.6"	"-0.2"	"6.9"	"11.1"	
"20130316"	"Overcast"	"20"	"54"	"17.1"	"-8.3"	"0"	"0"	"-9999"	"-9999"	"48"	"cloudy"	"METAR KBOS 170054Z 17006KT 10SM OVC080 02/M08 A2984 RMK AO2 SLP102 T00171083"	"-9999.00"	"-9999.00"	"29.83"	"1010.2"	"0"	"0"	"35.1"	"1.7"	"0"	"0"	"10.0"	"16.1"	"170"	"South"	"-9999.0"	"-9999.0"	"29.3"	"-1.5"	"6.9"	"11.1"	
"20130316"	"Overcast"	"21"	"54"	"18.0"	"-7.8"	"0"	"0"	"-9999"	"-9999"	"50"	"cloudy"	"METAR KBOS 170154Z 17005KT 10SM BKN085 OVC120 02/M08 A2985 RMK AO2 SLP107 T00171078"	"-9999.00"	"-9999.00"	"29.85"	"1010.7"	"0"	"0"	"35.1"	"1.7"	"0"	"0"	"10.0"	"16.1"	"170"	"South"	"-9999.0"	"-9999.0"	"30.1"	"-1.1"	"5.8"	"9.3"	
"20130316"	"Overcast"	"22"	"54"	"19.0"	"-7.2"	"0"	"0"	"-9999"	"-9999"	"54"	"cloudy"	"METAR KBOS 170254Z 15004KT 10SM FEW030 BKN080 OVC100 01/M07 A2987 RMK AO2 SLP114 T00111072 51020"	"-9999.00"	"-9999.00"	"29.87"	"1011.4"	"0"	"0"	"34.0"	"1.1"	"0"	"0"	"10.0"	"16.1"	"150"	"SSE"	"-9999.0"	"-9999.0"	"29.8"	"-1.2"	"4.6"	"7.4"	
"20130316"	"Scattered Clouds"	"23"	"54"	"19.0"	"-7.2"	"0"	"0"	"-9999"	"-9999"	"59"	"partlycloudy"	"METAR KBOS 170354Z 10003KT 10SM SCT100 00/M07 A2988 RMK AO2 SLP117 T00001072"	"-9999.00"	"-9999.00"	"29.88"	"1011.7"	"0"	"0"	"32.0"	"0.0"	"0"	"0"	"10.0"	"16.1"	"100"	"East"	"-9999.0"	"-9999.0"	"28.7"	"-1.8"	"3.5"	"5.6"	
"20130315"	"Partly Cloudy"	"00"	"54"	"6.1"	"-14.4"	"0"	"0"	"-9999"	"-9999"	"48"	"partlycloudy"	"METAR KBOS 150454Z 29017G21KT 10SM FEW090 M05/M14 A2984 RMK AO2 SLP103 T10501144 400391050"	"-9999.00"	"-9999.00"	"29.84"	"1010.3"	"0"	"0"	"23.0"	"-5.0"	"0"	"0"	"10.0"	"16.1"	"290"	"WNW"	"24.2"	"38.9"	"8.3"	"-13.1"	"19.6"	"31.5"	
"20130315"	"Scattered Clouds"	"01"	"54"	"6.1"	"-14.4"	"0"	"0"	"-9999"	"-9999"	"48"	"partlycloudy"	"METAR KBOS 150554Z 31014G23KT 10SM SCT050 M05/M14 A2985 RMK AO2 SLP106 T10501144 11022 21050 53004"	"-9999.00"	"-9999.00"	"29.85"	"1010.6"	"0"	"0"	"23.0"	"-5.0"	"0"	"0"	"10.0"	"16.1"	"310"	"NW"	"26.5"	"42.6"	"9.6"	"-12.4"	"16.1"	"25.9"	
"20130315"	"Mostly Cloudy"	"02"	"54"	"6.1"	"-14.4"	"0"	"0"	"-9999"	"-9999"	"48"	"mostlycloudy"	"METAR KBOS 150654Z 32016G27KT 10SM BKN048 M05/M14 A2984 RMK AO2 PK WND 32029/0619 SLP105 T10501144"	"-9999.00"	"-9999.00"	"29.84"	"1010.5"	"0"	"0"	"23.0"	"-5.0"	"0"	"0"	"10.0"	"16.1"	"320"	"NW"	"31.1"	"50.0"	"8.7"	"-12.9"	"18.4"	"29.6"	
"20130315"	"Scattered Clouds"	"03"	"54"	"6.1"	"-14.4"	"0"	"0"	"-9999"	"-9999"	"51"	"partlycloudy"	"METAR KBOS 150754Z 31013G22KT 10SM SCT039 M06/M14 A2984 RMK AO2 PK WND 31026/0724 SLP104 T10561144"	"-9999.00"	"-9999.00"	"29.84"	"1010.4"	"0"	"0"	"21.9"	"-5.6"	"0"	"0"	"10.0"	"16.1"	"310"	"NW"	"25.3"	"40.7"	"8.7"	"-12.9"	"15.0"	"24.1"	
"20130315"	"Clear"	"04"	"54"	"3.0"	"-16.1"	"0"	"0"	"-9999"	"-9999"	"44"	"clear"	"METAR KBOS 150854Z 32016G30KT 10SM CLR M06/M16 A2984 RMK AO2 PK WND 30030/0850 SLP105 T10561161 55001"	"-9999.00"	"-9999.00"	"29.84"	"1010.5"	"0"	"0"	"21.9"	"-5.6"	"0"	"0"	"10.0"	"16.1"	"320"	"NW"	"34.5"	"55.6"	"7.3"	"-13.7"	"18.4"	"29.6"	
"20130315"	"Clear"	"05"	"54"	"1.9"	"-16.7"	"0"	"0"	"-9999"	"-9999"	"44"	"clear"	"METAR KBOS 150954Z 32013G24KT 10SM CLR M06/M17 A2986 RMK AO2 PK WND 33028/0911 SLP110 T10611167"	"-9999.00"	"-9999.00"	"29.86"	"1011.0"	"0"	"0"	"21.0"	"-6.1"	"0"	"0"	"10.0"	"16.1"	"320"	"NW"	"27.6"	"44.4"	"7.6"	"-13.6"	"15.0"	"24.1"	
"20130315"	"Scattered Clouds"	"06"	"54"	"1.9"	"-16.7"	"0"	"0"	"-9999"	"-9999"	"44"	"partlycloudy"	"METAR KBOS 151054Z 30015G24KT 10SM FEW050 SCT250 M06/M17 A2987 RMK AO2 SLP114 T10611167"	"-9999.00"	"-9999.00"	"29.87"	"1011.4"	"0"	"0"	"21.0"	"-6.1"	"0"	"0"	"10.0"	"16.1"	"300"	"WNW"	"27.6"	"44.4"	"6.6"	"-14.1"	"17.3"	"27.8"	
"20130315"	"Scattered Clouds"	"07"	"54"	"3.0"	"-16.1"	"0"	"0"	"-9999"	"-9999"	"46"	"partlycloudy"	"METAR KBOS 151154Z 30014G20KT 10SM FEW050 SCT250 M06/M16 A2987 RMK AO2 SLP115 T10611161 11050 21061 51009"	"-9999.00"	"-9999.00"	"29.87"	"1011.5"	"0"	"0"	"21.0"	"-6.1"	"0"	"0"	"10.0"	"16.1"	"300"	"WNW"	"23.0"	"37.0"	"7.1"	"-13.9"	"16.1"	"25.9"	
"20130315"	"Scattered Clouds"	"08"	"54"	"5.0"	"-15.0"	"0"	"0"	"-9999"	"-9999"	"44"	"partlycloudy"	"METAR KBOS 151254Z 29014G22KT 10SM FEW050 SCT250 M04/M15 A2987 RMK AO2 SLP115 T10441150"	"-9999.00"	"-9999.00"	"29.87"	"1011.5"	"0"	"0"	"24.1"	"-4.4"	"0"	"0"	"10.0"	"16.1"	"290"	"WNW"	"25.3"	"40.7"	"11.0"	"-11.7"	"16.1"	"25.9"	
"20130315"	"Mostly Cloudy"	"09"	"54"	"5.0"	"-15.0"	"0"	"0"	"-9999"	"-9999"	"43"	"mostlycloudy"	"METAR KBOS 151354Z 30014G20KT 10SM FEW120 BKN200 M04/M15 A2987 RMK AO2 SLP115 T10391150"	"-9999.00"	"-9999.00"	"29.87"	"1011.5"	"0"	"0"	"25.0"	"-3.9"	"0"	"0"	"10.0"	"16.1"	"300"	"WNW"	"23.0"	"37.0"	"12.2"	"-11.0"	"16.1"	"25.9"	
"20130315"	"Mostly Cloudy"	"10"	"54"	"5.0"	"-15.0"	"0"	"0"	"-9999"	"-9999"	"38"	"mostlycloudy"	"METAR KBOS 151454Z 28012KT 10SM BKN200 BKN250 M02/M15 A2985 RMK AO2 SLP106 T10221150 58009"	"-9999.00"	"-9999.00"	"29.85"	"1010.6"	"0"	"0"	"28.0"	"-2.2"	"0"	"0"	"10.0"	"16.1"	"280"	"West"	"-9999.0"	"-9999.0"	"17.0"	"-8.3"	"13.8"	"22.2"	
"20130315"	"Mostly Cloudy"	"11"	"54"	"5.0"	"-15.0"	"0"	"0"	"-9999"	"-9999"	"36"	"mostlycloudy"	"METAR KBOS 151554Z 28011G17KT 10SM SCT090 BKN200 M02/M15 A2983 RMK AO2 SLP099 T10171150"	"-9999.00"	"-9999.00"	"29.83"	"1009.9"	"0"	"0"	"28.9"	"-1.7"	"0"	"0"	"10.0"	"16.1"	"280"	"West"	"19.6"	"31.5"	"18.6"	"-7.4"	"12.7"	"20.4"	
"20130315"	"Mostly Cloudy"	"12"	"54"	"5.0"	"-15.0"	"0"	"0"	"-9999"	"-9999"	"31"	"mostlycloudy"	"METAR KBOS 151654Z 26010G20KT 10SM FEW090 SCT200 BKN250 01/M15 A2979 RMK AO2 SLP085 T00061150"	"-9999.00"	"-9999.00"	"29.78"	"1008.5"	"0"	"0"	"33.1"	"0.6"	"0"	"0"	"10.0"	"16.1"	"260"	"West"	"23.0"	"37.0"	"24.4"	"-4.2"	"11.5"	"18.5"	
"20130315"	"Mostly Cloudy"	"13"	"54"	"6.1"	"-14.4"	"0"	"0"	"-9999"	"-9999"	"28"	"mostlycloudy"	"METAR KBOS 151754Z 24011G16KT 10SM BKN090 BKN200 BKN250 03/M14 A2974 RMK AO2 SLP071 T00281144 10028 21061 58035"	"-9999.00"	"-9999.00"	"29.74"	"1007.1"	"0"	"0"	"37.0"	"2.8"	"0"	"0"	"10.0"	"16.1"	"240"	"WSW"	"18.4"	"29.6"	"28.9"	"-1.7"	"12.7"	"20.4"	
"20130315"	"Mostly Cloudy"	"14"	"54"	"5.0"	"-15.0"	"0"	"0"	"-9999"	"-9999"	"25"	"mostlycloudy"	"METAR KBOS 151854Z 26012G18KT 10SM BKN085 BKN180 BKN260 03/M15 A2969 RMK AO2 SLP054 T00331150"	"-9999.00"	"-9999.00"	"29.69"	"1005.4"	"0"	"0"	"37.9"	"3.3"	"0"	"0"	"10.0"	"16.1"	"260"	"West"	"20.7"	"33.3"	"29.6"	"-1.3"	"13.8"	"22.2"	
"20130315"	"Mostly Cloudy"	"15"	"54"	"9.0"	"-12.8"	"0"	"0"	"-9999"	"-9999"	"28"	"mostlycloudy"	"METAR KBOS 151954Z 24016G22KT 10SM SCT070 BKN110 BKN180 BKN270 04/M13 A2968 RMK AO2 SLP050 T00441128"	"-9999.00"	"-9999.00"	"29.68"	"1005.0"	"0"	"0"	"39.9"	"4.4"	"0"	"0"	"10.0"	"16.1"	"240"	"WSW"	"25.3"	"40.7"	"30.8"	"-0.7"	"18.4"	"29.6"	
"20130315"	"Mostly Cloudy"	"16"	"54"	"12.0"	"-11.1"	"0"	"0"	"-9999"	"-9999"	"32"	"mostlycloudy"	"METAR KBOS 152054Z 23012KT 10SM FEW070 SCT180 BKN270 04/M11 A2965 RMK AO2 SLP040 T00441111 56031"	"-9999.00"	"-9999.00"	"29.65"	"1004.0"	"0"	"0"	"39.9"	"4.4"	"0"	"0"	"10.0"	"16.1"	"230"	"SW"	"-9999.0"	"-9999.0"	"32.1"	"0.1"	"13.8"	"22.2"	
"20130315"	"Mostly Cloudy"	"17"	"54"	"14.0"	"-10.0"	"0"	"0"	"-9999"	"-9999"	"33"	"mostlycloudy"	"METAR KBOS 152154Z 24018G22KT 10SM FEW031 SCT070 SCT180 BKN270 05/M10 A2964 RMK AO2 SLP035 T00501100"	"-9999.00"	"-9999.00"	"29.64"	"1003.5"	"0"	"0"	"41.0"	"5.0"	"0"	"0"	"10.0"	"16.1"	"240"	"WSW"	"25.3"	"40.7"	"31.6"	"-0.2"	"20.7"	"33.3"	
"20130315"	"Overcast"	"18"	"54"	"21.9"	"-5.6"	"0"	"0"	"-9999"	"-9999"	"50"	"cloudy"	"METAR KBOS 152254Z 25015KT 10SM FEW040 BKN070 OVC180 04/M06 A2965 RMK AO2 PK WND 27029/2212 SLP041 T00391056"	"-9999.00"	"-9999.00"	"29.65"	"1004.1"	"0"	"0"	"39.0"	"3.9"	"0"	"0"	"10.0"	"16.1"	"250"	"WSW"	"-9999.0"	"-9999.0"	"29.9"	"-1.2"	"17.3"	"27.8"	
"20130315"	"Overcast"	"19"	"54"	"21.9"	"-5.6"	"0"	"0"	"-9999"	"-9999"	"53"	"cloudy"	"METAR KBOS 152354Z 25014KT 10SM FEW040 SCT055 OVC095 03/M06 A2966 RMK AO2 SLP042 T00331056 10050 20028 53002"	"-9999.00"	"-9999.00"	"29.66"	"1004.2"	"0"	"0"	"37.9"	"3.3"	"0"	"0"	"10.0"	"16.1"	"250"	"WSW"	"-9999.0"	"-9999.0"	"28.9"	"-1.7"	"16.1"	"25.9"	
"20130315"	"Mostly Cloudy"	"20"	"54"	"23.0"	"-5.0"	"0"	"0"	"-9999"	"-9999"	"55"	"mostlycloudy"	"METAR KBOS 160054Z 24012G18KT 10SM FEW032 BKN047 BKN060 03/M05 A2967 RMK AO2 SLP045 T00331050"	"-9999.00"	"-9999.00"	"29.67"	"1004.5"	"0"	"0"	"37.9"	"3.3"	"0"	"0"	"10.0"	"16.1"	"240"	"WSW"	"20.7"	"33.3"	"29.6"	"-1.3"	"13.8"	"22.2"	
"20130315"	"Scattered Clouds"	"21"	"54"	"25.0"	"-3.9"	"0"	"0"	"-9999"	"-9999"	"62"	"partlycloudy"	"METAR KBOS 160154Z 25012KT 10SM FEW035 SCT050 03/M04 A2966 RMK AO2 SLP045 T00281039"	"-9999.00"	"-9999.00"	"29.67"	"1004.5"	"0"	"0"	"37.0"	"2.8"	"0"	"0"	"10.0"	"16.1"	"250"	"WSW"	"-9999.0"	"-9999.0"	"28.5"	"-2.0"	"13.8"	"22.2"	
"20130315"	"Scattered Clouds"	"22"	"54"	"25.0"	"-3.9"	"0"	"0"	"-9999"	"-9999"	"62"	"partlycloudy"	"METAR KBOS 160254Z 27012G17KT 10SM FEW035 SCT050 03/M04 A2967 RMK AO2 SLP045 T00281039 51003"	"-9999.00"	"-9999.00"	"29.67"	"1004.5"	"0"	"0"	"37.0"	"2.8"	"0"	"0"	"10.0"	"16.1"	"270"	"West"	"19.6"	"31.5"	"28.5"	"-2.0"	"13.8"	"22.2"	
"20130315"	"Scattered Clouds"	"23"	"54"	"25.0"	"-3.9"	"0"	"0"	"-9999"	"-9999"	"64"	"partlycloudy"	"METAR KBOS 160354Z 27011KT 10SM FEW035 SCT055 02/M04 A2967 RMK AO2 SLP046 T00221039"	"-9999.00"	"-9999.00"	"29.67"	"1004.6"	"0"	"0"	"36.0"	"2.2"	"0"	"0"	"10.0"	"16.1"	"270"	"West"	"-9999.0"	"-9999.0"	"27.5"	"-2.5"	"12.7"	"20.4"	
"20130314"	"Partly Cloudy"	"00"	"54"	"19.0"	"-7.2"	"0"	"0"	"-9999"	"-9999"	"45"	"partlycloudy"	"METAR KBOS 140454Z 29013KT 10SM FEW060 04/M07 A2977 RMK AO2 SLP081 T00391072 401060039"	"-9999.00"	"-9999.00"	"29.77"	"1008.1"	"0"	"0"	"39.0"	"3.9"	"0"	"0"	"10.0"	"16.1"	"290"	"WNW"	"-9999.0"	"-9999.0"	"30.6"	"-0.8"	"15.0"	"24.1"	
"20130314"	"Partly Cloudy"	"01"	"54"	"19.0"	"-7.2"	"0"	"0"	"-9999"	"-9999"	"47"	"partlycloudy"	"METAR KBOS 140554Z 29009KT 10SM FEW060 03/M07 A2977 RMK AO2 SLP081 T00331072 10072 20033 56004"	"-9999.00"	"-9999.00"	"29.77"	"1008.1"	"0"	"0"	"37.9"	"3.3"	"0"	"0"	"10.0"	"16.1"	"290"	"WNW"	"-9999.0"	"-9999.0"	"30.9"	"-0.6"	"10.4"	"16.7"	
"20130314"	"Partly Cloudy"	"02"	"54"	"21.0"	"-6.1"	"0"	"0"	"-9999"	"-9999"	"52"	"partlycloudy"	"METAR KBOS 140654Z 28013G21KT 10SM FEW070 03/M06 A2977 RMK AO2 SLP080 T00281061"	"-9999.00"	"-9999.00"	"29.77"	"1008.0"	"0"	"0"	"37.0"	"2.8"	"0"	"0"	"10.0"	"16.1"	"280"	"West"	"24.2"	"38.9"	"28.1"	"-2.2"	"15.0"	"24.1"	
"20130314"	"Overcast"	"03"	"54"	"21.9"	"-5.6"	"0"	"0"	"-9999"	"-9999"	"57"	"cloudy"	"METAR KBOS 140754Z 29010G17KT 10SM OVC070 02/M06 A2976 RMK AO2 SLP076 T00221056"	"-9999.00"	"-9999.00"	"29.76"	"1007.6"	"0"	"0"	"36.0"	"2.2"	"0"	"0"	"10.0"	"16.1"	"290"	"WNW"	"19.6"	"31.5"	"28.0"	"-2.2"	"11.5"	"18.5"	
"20130314"	"Scattered Clouds"	"04"	"54"	"21.0"	"-6.1"	"0"	"0"	"-9999"	"-9999"	"57"	"partlycloudy"	"METAR KBOS 140854Z 29012KT 10SM SCT060 02/M06 A2975 RMK AO2 SLP074 T00171061 58007"	"-9999.00"	"-9999.00"	"29.75"	"1007.4"	"0"	"0"	"35.1"	"1.7"	"0"	"0"	"10.0"	"16.1"	"290"	"WNW"	"-9999.0"	"-9999.0"	"25.9"	"-3.4"	"13.8"	"22.2"	
"20130314"	"Clear"	"05"	"54"	"19.9"	"-6.7"	"0"	"0"	"-9999"	"-9999"	"54"	"clear"	"METAR KBOS 140954Z 28011KT 10SM CLR 02/M07 A2977 RMK AO2 SLP079 T00171067"	"-9999.00"	"-9999.00"	"29.77"	"1007.9"	"0"	"0"	"35.1"	"1.7"	"0"	"0"	"10.0"	"16.1"	"280"	"West"	"-9999.0"	"-9999.0"	"26.4"	"-3.1"	"12.7"	"20.4"	
"20130314"	"Mostly Cloudy"	"06"	"54"	"18.0"	"-7.8"	"0"	"0"	"-9999"	"-9999"	"52"	"mostlycloudy"	"METAR KBOS 141054Z 29013G18KT 10SM BKN080 01/M08 A2978 RMK AO2 SLP082 T00111078"	"-9999.00"	"-9999.00"	"29.78"	"1008.2"	"0"	"0"	"34.0"	"1.1"	"0"	"0"	"10.0"	"16.1"	"290"	"WNW"	"20.7"	"33.3"	"24.2"	"-4.4"	"15.0"	"24.1"	
"20130314"	"Mostly Cloudy"	"07"	"54"	"16.0"	"-8.9"	"0"	"0"	"-9999"	"-9999"	"50"	"mostlycloudy"	"METAR KBOS 141154Z 28010KT 10SM FEW065 BKN085 01/M09 A2978 RMK AO2 SLP082 T00061089 10033 20006 51008"	"-9999.00"	"-9999.00"	"29.78"	"1008.2"	"0"	"0"	"33.1"	"0.6"	"0"	"0"	"10.0"	"16.1"	"280"	"West"	"-9999.0"	"-9999.0"	"24.4"	"-4.2"	"11.5"	"18.5"	
"20130314"	"Mostly Cloudy"	"08"	"54"	"15.1"	"-9.4"	"0"	"0"	"-9999"	"-9999"	"48"	"mostlycloudy"	"METAR KBOS 141254Z 27015G20KT 10SM FEW065 BKN090 01/M09 A2978 RMK AO2 SLP085 T00061094"	"-9999.00"	"-9999.00"	"29.78"	"1008.5"	"0"	"0"	"33.1"	"0.6"	"0"	"0"	"10.0"	"16.1"	"270"	"West"	"23.0"	"37.0"	"22.2"	"-5.4"	"17.3"	"27.8"	
"20130314"	"Overcast"	"09"	"54"	"14.0"	"-10.0"	"0"	"0"	"-9999"	"-9999"	"44"	"cloudy"	"METAR KBOS 141354Z 29014G20KT 10SM OVC060 01/M10 A2978 RMK AO2 SLP085 T00111100"	"-9999.00"	"-9999.00"	"29.78"	"1008.5"	"0"	"0"	"34.0"	"1.1"	"0"	"0"	"10.0"	"16.1"	"290"	"WNW"	"23.0"	"37.0"	"23.8"	"-4.6"	"16.1"	"25.9"	
"20130314"	"Mostly Cloudy"	"10"	"54"	"12.9"	"-10.6"	"0"	"0"	"-9999"	"-9999"	"42"	"mostlycloudy"	"METAR KBOS 141454Z 29012G18KT 10SM SCT070 BKN085 01/M11 A2977 RMK AO2 SLP082 T00111106 58001"	"-9999.00"	"-9999.00"	"29.78"	"1008.2"	"0"	"0"	"34.0"	"1.1"	"0"	"0"	"10.0"	"16.1"	"290"	"WNW"	"20.7"	"33.3"	"24.6"	"-4.1"	"13.8"	"22.2"	
"20130314"	"Scattered Clouds"	"11"	"54"	"12.9"	"-10.6"	"0"	"0"	"-9999"	"-9999"	"40"	"partlycloudy"	"METAR KBOS 141554Z 28014G19KT 10SM SCT080 02/M11 A2975 RMK AO2 SLP074 T00171106"	"-9999.00"	"-9999.00"	"29.75"	"1007.4"	"0"	"0"	"35.1"	"1.7"	"0"	"0"	"10.0"	"16.1"	"280"	"West"	"21.9"	"35.2"	"25.2"	"-3.8"	"16.1"	"25.9"	
"20130314"	"Overcast"	"12"	"54"	"12.0"	"-11.1"	"0"	"0"	"-9999"	"-9999"	"37"	"cloudy"	"METAR KBOS 141654Z 26016G20KT 10SM OVC060 02/M11 A2973 RMK AO2 SLP068 BINOVC T00221111"	"-9999.00"	"-9999.00"	"29.73"	"1006.8"	"0"	"0"	"36.0"	"2.2"	"0"	"0"	"10.0"	"16.1"	"260"	"West"	"23.0"	"37.0"	"25.6"	"-3.5"	"18.4"	"29.6"	
"20130314"	"Mostly Cloudy"	"13"	"54"	"10.9"	"-11.7"	"0"	"0"	"-9999"	"-9999"	"38"	"mostlycloudy"	"METAR KBOS 141754Z 27017G22KT 10SM BKN065 01/M12 A2972 RMK AO2 SLP062 T00111117 10022 20006 56019"	"-9999.00"	"-9999.00"	"29.72"	"1006.2"	"0"	"0"	"34.0"	"1.1"	"0"	"0"	"10.0"	"16.1"	"270"	"West"	"25.3"	"40.7"	"22.7"	"-5.2"	"19.6"	"31.5"	
"20130314"	"Mostly Cloudy"	"14"	"54"	"10.9"	"-11.7"	"0"	"0"	"-9999"	"-9999"	"38"	"mostlycloudy"	"METAR KBOS 141854Z 30015G22KT 10SM SCT055 BKN080 01/M12 A2971 RMK AO2 SLP061 T00111117"	"-9999.00"	"-9999.00"	"29.71"	"1006.1"	"0"	"0"	"34.0"	"1.1"	"0"	"0"	"10.0"	"16.1"	"300"	"WNW"	"25.3"	"40.7"	"23.4"	"-4.8"	"17.3"	"27.8"	
"20130314"	"Mostly Cloudy"	"15"	"54"	"10.9"	"-11.7"	"0"	"0"	"-9999"	"-9999"	"38"	"mostlycloudy"	"METAR KBOS 141954Z 28019G25KT 10SM SCT055 BKN080 01/M12 A2972 RMK AO2 SLP062 T00111117"	"-9999.00"	"-9999.00"	"29.72"	"1006.2"	"0"	"0"	"34.0"	"1.1"	"0"	"0"	"10.0"	"16.1"	"280"	"West"	"28.8"	"46.3"	"22.1"	"-5.5"	"21.9"	"35.2"	
"20130314"	"Mostly Cloudy"	"16"	"54"	"10.0"	"-12.2"	"0"	"0"	"-9999"	"-9999"	"38"	"mostlycloudy"	"METAR KBOS 142054Z 28016G25KT 10SM BKN060 01/M12 A2972 RMK AO2 PK WND 27028/2032 SLP064 T00061122 53002"	"-9999.00"	"-9999.00"	"29.72"	"1006.4"	"0"	"0"	"33.1"	"0.6"	"0"	"0"	"10.0"	"16.1"	"280"	"West"	"28.8"	"46.3"	"21.9"	"-5.6"	"18.4"	"29.6"	
"20130314"	"Mostly Cloudy"	"17"	"54"	"10.0"	"-12.2"	"0"	"0"	"-9999"	"-9999"	"40"	"mostlycloudy"	"METAR KBOS 142154Z 27016G23KT 10SM BKN055 BKN065 00/M12 A2974 RMK AO2 PK WND 28026/2142 SLP069 T00001122"	"-9999.00"	"-9999.00"	"29.74"	"1006.9"	"0"	"0"	"32.0"	"0.0"	"0"	"0"	"10.0"	"16.1"	"270"	"West"	"26.5"	"42.6"	"20.5"	"-6.4"	"18.4"	"29.6"	
"20130314"	"Scattered Clouds"	"18"	"54"	"10.0"	"-12.2"	"0"	"0"	"-9999"	"-9999"	"43"	"partlycloudy"	"METAR KBOS 142254Z 30018G26KT 10SM SCT045 SCT160 M01/M12 A2977 RMK AO2 PK WND 27027/2234 SLP079 T10111122"	"-9999.00"	"-9999.00"	"29.77"	"1007.9"	"0"	"0"	"30.0"	"-1.1"	"0"	"0"	"10.0"	"16.1"	"300"	"WNW"	"29.9"	"48.2"	"17.2"	"-8.2"	"20.7"	"33.3"	
"20130314"	"Scattered Clouds"	"19"	"54"	"8.1"	"-13.3"	"0"	"0"	"-9999"	"-9999"	"43"	"partlycloudy"	"METAR KBOS 142354Z 30017G28KT 10SM SCT047 M02/M13 A2979 RMK AO2 PK WND 30028/2350 SLP086 T10221133 10017 21022 53022"	"-9999.00"	"-9999.00"	"29.79"	"1008.6"	"0"	"0"	"28.0"	"-2.2"	"0"	"0"	"10.0"	"16.1"	"300"	"WNW"	"32.2"	"51.9"	"14.9"	"-9.5"	"19.6"	"31.5"	
"20130314"	"Partly Cloudy"	"20"	"54"	"7.0"	"-13.9"	"0"	"0"	"-9999"	"-9999"	"41"	"partlycloudy"	"METAR KBOS 150054Z 29020G26KT 10SM FEW047 M02/M14 A2981 RMK AO2 PK WND 29028/0037 SLP094 T10221139"	"-9999.00"	"-9999.00"	"29.81"	"1009.4"	"0"	"0"	"28.0"	"-2.2"	"0"	"0"	"10.0"	"16.1"	"290"	"WNW"	"29.9"	"48.2"	"13.9"	"-10.0"	"23.0"	"37.0"	
"20130314"	"Mostly Cloudy"	"21"	"54"	"5.0"	"-15.0"	"0"	"0"	"-9999"	"-9999"	"41"	"mostlycloudy"	"METAR KBOS 150154Z 31015G22KT 10SM BKN095 M03/M15 A2983 RMK AO2 PK WND 28027/0100 SLP100 T10331150"	"-9999.00"	"-9999.00"	"29.83"	"1010.0"	"0"	"0"	"26.1"	"-3.3"	"0"	"0"	"10.0"	"16.1"	"310"	"NW"	"25.3"	"40.7"	"13.1"	"-10.5"	"17.3"	"27.8"	
"20130314"	"Partly Cloudy"	"22"	"54"	"5.0"	"-15.0"	"0"	"0"	"-9999"	"-9999"	"43"	"partlycloudy"	"METAR KBOS 150254Z 32019G23KT 10SM FEW050 M04/M15 A2983 RMK AO2 PK WND 32030/0158 SLP102 T10391150 51015"	"-9999.00"	"-9999.00"	"29.83"	"1010.2"	"0"	"0"	"25.0"	"-3.9"	"0"	"0"	"10.0"	"16.1"	"320"	"NW"	"26.5"	"42.6"	"10.2"	"-12.1"	"21.9"	"35.2"	
"20130314"	"Scattered Clouds"	"23"	"54"	"6.1"	"-14.4"	"0"	"0"	"-9999"	"-9999"	"46"	"partlycloudy"	"METAR KBOS 150354Z 30010G19KT 10SM SCT095 M04/M14 A2984 RMK AO2 SLP104 T10441144"	"-9999.00"	"-9999.00"	"29.84"	"1010.4"	"0"	"0"	"24.1"	"-4.4"	"0"	"0"	"10.0"	"16.1"	"300"	"WNW"	"21.9"	"35.2"	"13.1"	"-10.5"	"11.5"	"18.5"	
"20130313"	"Light Drizzle"	"00"	"54"	"50.0"	"10.0"	"0"	"0"	"-9999"	"-9999"	"100"	"rain"	"METAR KBOS 130454Z 24006KT 9SM -DZ SCT007 BKN013 OVC018 10/10 A2974 RMK AO2 DZE01B50RAB21E32 SLP070 P0000 T01000100 401170039"	"0.00"	"0.0"	"29.74"	"1007.0"	"0"	"0"	"50.0"	"10.0"	"0"	"0"	"9.0"	"14.5"	"240"	"WSW"	"-9999.0"	"-9999.0"	"-999"	"-999"	"6.9"	"11.1"	
"20130313"	"Mostly Cloudy"	"01"	"37"	"48.2"	"9.0"	"0"	"0"	"-9999"	"-9999"	"94"	"mostlycloudy"	"SPECI KBOS 130537Z 29010KT 10SM FEW013 BKN022 10/09 A2973 RMK AO2 DZE01RAB01E10 P0000"	"0.00"	"0.0"	"29.73"	"1006.7"	"0"	"0"	"50.0"	"10.0"	"0"	"0"	"10.0"	"16.1"	"290"	"WNW"	"-9999.0"	"-9999.0"	"-999"	"-999"	"11.5"	"18.5"	
"20130313"	"Mostly Cloudy"	"01"	"54"	"44.1"	"6.7"	"0"	"0"	"-9999"	"-9999"	"86"	"mostlycloudy"	"METAR KBOS 130554Z 29016G22KT 10SM FEW013 BKN022 09/07 A2974 RMK AO2 DZE01RAB01E10 SLP069 P0000 60014 T00890067 10117 20089 56002"	"0.00"	"0.0"	"29.74"	"1006.9"	"0"	"0"	"48.0"	"8.9"	"0"	"0"	"10.0"	"16.1"	"290"	"WNW"	"25.3"	"40.7"	"-999"	"-999"	"18.4"	"29.6"	
"20130313"	"Mostly Cloudy"	"02"	"54"	"41.0"	"5.0"	"0"	"0"	"-9999"	"-9999"	"86"	"mostlycloudy"	"METAR KBOS 130654Z 29011KT 10SM FEW013 BKN024 BKN100 07/05 A2976 RMK AO2 SLP076 T00720050"	"-9999.00"	"-9999.00"	"29.76"	"1007.6"	"0"	"0"	"45.0"	"7.2"	"0"	"0"	"10.0"	"16.1"	"290"	"WNW"	"-9999.0"	"-9999.0"	"38.9"	"3.8"	"12.7"	"20.4"	
"20130313"	"Overcast"	"03"	"01"	"41.0"	"5.0"	"0"	"0"	"-9999"	"-9999"	"87"	"cloudy"	"SPECI KBOS 130701Z 29010KT 10SM OVC045 07/05 A2976 RMK AO2"	"-9999.00"	"-9999.00"	"29.76"	"1007.7"	"0"	"0"	"44.6"	"7.0"	"0"	"0"	"10.0"	"16.1"	"290"	"WNW"	"-9999.0"	"-9999.0"	"38.8"	"3.8"	"11.5"	"18.5"	
"20130313"	"Scattered Clouds"	"03"	"54"	"37.9"	"3.3"	"0"	"0"	"-9999"	"-9999"	"79"	"partlycloudy"	"METAR KBOS 130754Z 30013KT 10SM FEW049 SCT100 07/03 A2974 RMK AO2 SLP070 T00670033"	"-9999.00"	"-9999.00"	"29.74"	"1007.0"	"0"	"0"	"44.1"	"6.7"	"0"	"0"	"10.0"	"16.1"	"300"	"WNW"	"-9999.0"	"-9999.0"	"37.1"	"2.8"	"15.0"	"24.1"	
"20130313"	"Overcast"	"04"	"54"	"35.1"	"1.7"	"0"	"0"	"-9999"	"-9999"	"74"	"cloudy"	"METAR KBOS 130854Z 31010KT 10SM OVC060 06/02 A2976 RMK AO2 SLP078 T00610017 53009"	"-9999.00"	"-9999.00"	"29.76"	"1007.8"	"0"	"0"	"43.0"	"6.1"	"0"	"0"	"10.0"	"16.1"	"310"	"NW"	"-9999.0"	"-9999.0"	"36.8"	"2.7"	"11.5"	"18.5"	
"20130313"	"Partly Cloudy"	"05"	"54"	"33.1"	"0.6"	"0"	"0"	"-9999"	"-9999"	"73"	"partlycloudy"	"METAR KBOS 130954Z 30014G20KT 10SM FEW055 05/01 A2977 RMK AO2 SLP079 T00500006"	"-9999.00"	"-9999.00"	"29.77"	"1007.9"	"0"	"0"	"41.0"	"5.0"	"0"	"0"	"10.0"	"16.1"	"300"	"WNW"	"23.0"	"37.0"	"32.8"	"0.4"	"16.1"	"25.9"	
"20130313"	"Partly Cloudy"	"06"	"54"	"32.0"	"0.0"	"0"	"0"	"-9999"	"-9999"	"73"	"partlycloudy"	"METAR KBOS 131054Z 29012KT 10SM FEW048 04/00 A2976 RMK AO2 SLP077 T00440000"	"-9999.00"	"-9999.00"	"29.76"	"1007.7"	"0"	"0"	"39.9"	"4.4"	"0"	"0"	"10.0"	"16.1"	"290"	"WNW"	"-9999.0"	"-9999.0"	"32.1"	"0.1"	"13.8"	"22.2"	
"20130313"	"Mostly Cloudy"	"07"	"54"	"30.0"	"-1.1"	"0"	"0"	"-9999"	"-9999"	"68"	"mostlycloudy"	"METAR KBOS 131154Z 29011KT 10SM FEW050 BKN250 04/M01 A2977 RMK AO2 SLP080 70029 T00441011 10089 20039 53001"	"-9999.00"	"-9999.00"	"29.77"	"1008.0"	"0"	"0"	"39.9"	"4.4"	"0"	"0"	"10.0"	"16.1"	"290"	"WNW"	"-9999.0"	"-9999.0"	"32.5"	"0.3"	"12.7"	"20.4"	
"20130313"	"Mostly Cloudy"	"08"	"54"	"30.9"	"-0.6"	"0"	"0"	"-9999"	"-9999"	"65"	"mostlycloudy"	"METAR KBOS 131254Z 29009KT 10SM FEW050 BKN250 06/M01 A2977 RMK AO2 SLP079 T00561006"	"-9999.00"	"-9999.00"	"29.77"	"1007.9"	"0"	"0"	"42.1"	"5.6"	"0"	"0"	"10.0"	"16.1"	"290"	"WNW"	"-9999.0"	"-9999.0"	"36.1"	"2.3"	"10.4"	"16.7"	
"20130313"	"Mostly Cloudy"	"09"	"54"	"32.0"	"0.0"	"0"	"0"	"-9999"	"-9999"	"65"	"mostlycloudy"	"METAR KBOS 131354Z 29010KT 10SM FEW200 BKN250 06/00 A2976 RMK AO2 SLP076 T00610000"	"-9999.00"	"-9999.00"	"29.76"	"1007.6"	"0"	"0"	"43.0"	"6.1"	"0"	"0"	"10.0"	"16.1"	"290"	"WNW"	"-9999.0"	"-9999.0"	"36.8"	"2.7"	"11.5"	"18.5"	
"20130313"	"Mostly Cloudy"	"10"	"54"	"32.0"	"0.0"	"0"	"0"	"-9999"	"-9999"	"60"	"mostlycloudy"	"METAR KBOS 131454Z 30011KT 10SM SCT200 BKN250 07/00 A2975 RMK AO2 SLP072 T00720000 58007"	"-9999.00"	"-9999.00"	"29.75"	"1007.2"	"0"	"0"	"45.0"	"7.2"	"0"	"0"	"10.0"	"16.1"	"300"	"WNW"	"-9999.0"	"-9999.0"	"38.9"	"3.8"	"12.7"	"20.4"	
"20130313"	"Mostly Cloudy"	"11"	"54"	"32.0"	"0.0"	"0"	"0"	"-9999"	"-9999"	"54"	"mostlycloudy"	"METAR KBOS 131554Z 29010KT 10SM FEW045 SCT200 BKN250 09/00 A2974 RMK AO2 SLP070 T00890000 $"	"-9999.00"	"-9999.00"	"29.74"	"1007.0"	"0"	"0"	"48.0"	"8.9"	"0"	"0"	"10.0"	"16.1"	"290"	"WNW"	"-9999.0"	"-9999.0"	"-999"	"-999"	"11.5"	"18.5"	
"20130313"	"Mostly Cloudy"	"12"	"54"	"32.0"	"0.0"	"0"	"0"	"-9999"	"-9999"	"52"	"mostlycloudy"	"METAR KBOS 131654Z 27007KT 10SM FEW045 SCT200 BKN250 09/00 A2974 RMK AO2 SLP068 T00940000"	"-9999.00"	"-9999.00"	"29.73"	"1006.8"	"0"	"0"	"48.9"	"9.4"	"0"	"0"	"10.0"	"16.1"	"270"	"West"	"-9999.0"	"-9999.0"	"-999"	"-999"	"8.1"	"13.0"	
"20130313"	"Scattered Clouds"	"13"	"54"	"30.0"	"-1.1"	"0"	"0"	"-9999"	"-9999"	"46"	"partlycloudy"	"METAR KBOS 131754Z 28013KT 10SM FEW050 SCT200 10/M01 A2972 RMK AO2 SLP063 T01001011 10106 20044 58009"	"-9999.00"	"-9999.00"	"29.72"	"1006.3"	"0"	"0"	"50.0"	"10.0"	"0"	"0"	"10.0"	"16.1"	"280"	"West"	"-9999.0"	"-9999.0"	"-999"	"-999"	"15.0"	"24.1"	
"20130313"	"Scattered Clouds"	"14"	"54"	"28.9"	"-1.7"	"0"	"0"	"-9999"	"-9999"	"43"	"partlycloudy"	"METAR KBOS 131854Z 28009G18KT 10SM FEW050 SCT200 11/M02 A2971 RMK AO2 SLP059 T01061017"	"-9999.00"	"-9999.00"	"29.71"	"1005.9"	"0"	"0"	"51.1"	"10.6"	"0"	"0"	"10.0"	"16.1"	"280"	"West"	"20.7"	"33.3"	"-999"	"-999"	"10.4"	"16.7"	
"20130313"	"Scattered Clouds"	"15"	"54"	"27.0"	"-2.8"	"0"	"0"	"-9999"	"-9999"	"39"	"partlycloudy"	"METAR KBOS 131954Z 27014G19KT 10SM FEW060 SCT200 11/M03 A2970 RMK AO2 SLP057 T01061028"	"-9999.00"	"-9999.00"	"29.70"	"1005.7"	"0"	"0"	"51.1"	"10.6"	"0"	"0"	"10.0"	"16.1"	"270"	"West"	"21.9"	"35.2"	"-999"	"-999"	"16.1"	"25.9"	
"20130313"	"Scattered Clouds"	"16"	"54"	"21.9"	"-5.6"	"0"	"0"	"-9999"	"-9999"	"33"	"partlycloudy"	"METAR KBOS 132054Z 29012G17KT 10SM FEW060 SCT200 10/M06 A2970 RMK AO2 SLP058 T01001056 55005"	"-9999.00"	"-9999.00"	"29.70"	"1005.8"	"0"	"0"	"50.0"	"10.0"	"0"	"0"	"10.0"	"16.1"	"290"	"WNW"	"19.6"	"31.5"	"-999"	"-999"	"13.8"	"22.2"	
"20130313"	"Partly Cloudy"	"17"	"54"	"19.0"	"-7.2"	"0"	"0"	"-9999"	"-9999"	"31"	"partlycloudy"	"METAR KBOS 132154Z 30013G20KT 10SM FEW060 09/M07 A2971 RMK AO2 SLP060 T00941072"	"-9999.00"	"-9999.00"	"29.71"	"1006.0"	"0"	"0"	"48.9"	"9.4"	"0"	"0"	"10.0"	"16.1"	"300"	"WNW"	"23.0"	"37.0"	"-999"	"-999"	"15.0"	"24.1"	
"20130313"	"Partly Cloudy"	"18"	"54"	"19.0"	"-7.2"	"0"	"0"	"-9999"	"-9999"	"33"	"partlycloudy"	"METAR KBOS 132254Z 29012G20KT 10SM FEW060 08/M07 A2974 RMK AO2 SLP069 T00831072"	"-9999.00"	"-9999.00"	"29.74"	"1006.9"	"0"	"0"	"46.9"	"8.3"	"0"	"0"	"10.0"	"16.1"	"290"	"WNW"	"23.0"	"37.0"	"-999"	"-999"	"13.8"	"22.2"	
"20130313"	"Clear"	"19"	"54"	"19.0"	"-7.2"	"0"	"0"	"-9999"	"-9999"	"36"	"clear"	"METAR KBOS 132354Z 29009KT 10SM CLR 07/M07 A2976 RMK AO2 SLP078 T00721072 10106 20072 53021"	"-9999.00"	"-9999.00"	"29.76"	"1007.8"	"0"	"0"	"45.0"	"7.2"	"0"	"0"	"10.0"	"16.1"	"290"	"WNW"	"-9999.0"	"-9999.0"	"39.7"	"4.3"	"10.4"	"16.7"	
"20130313"	"Clear"	"20"	"54"	"18.0"	"-7.8"	"0"	"0"	"-9999"	"-9999"	"37"	"clear"	"METAR KBOS 140054Z 28010KT 10SM CLR 06/M08 A2978 RMK AO2 SLP084 T00611078"	"-9999.00"	"-9999.00"	"29.78"	"1008.4"	"0"	"0"	"43.0"	"6.1"	"0"	"0"	"10.0"	"16.1"	"280"	"West"	"-9999.0"	"-9999.0"	"36.8"	"2.7"	"11.5"	"18.5"	
"20130313"	"Clear"	"21"	"54"	"18.0"	"-7.8"	"0"	"0"	"-9999"	"-9999"	"38"	"clear"	"METAR KBOS 140154Z 28009KT 10SM CLR 06/M08 A2979 RMK AO2 SLP086 T00561078"	"-9999.00"	"-9999.00"	"29.79"	"1008.6"	"0"	"0"	"42.1"	"5.6"	"0"	"0"	"10.0"	"16.1"	"280"	"West"	"-9999.0"	"-9999.0"	"36.1"	"2.3"	"10.4"	"16.7"	
"20130313"	"Clear"	"22"	"54"	"18.0"	"-7.8"	"0"	"0"	"-9999"	"-9999"	"40"	"clear"	"METAR KBOS 140254Z 29007KT 10SM CLR 05/M08 A2978 RMK AO2 SLP085 T00501078 50006"	"-9999.00"	"-9999.00"	"29.78"	"1008.5"	"0"	"0"	"41.0"	"5.0"	"0"	"0"	"10.0"	"16.1"	"290"	"WNW"	"-9999.0"	"-9999.0"	"35.8"	"2.1"	"8.1"	"13.0"	
"20130313"	"Partly Cloudy"	"23"	"54"	"18.0"	"-7.8"	"0"	"0"	"-9999"	"-9999"	"41"	"partlycloudy"	"METAR KBOS 140354Z 28008KT 10SM FEW060 04/M08 A2977 RMK AO2 SLP081 T00441078"	"-9999.00"	"-9999.00"	"29.77"	"1008.1"	"0"	"0"	"39.9"	"4.4"	"0"	"0"	"10.0"	"16.1"	"280"	"West"	"-9999.0"	"-9999.0"	"33.9"	"1.1"	"9.2"	"14.8"	
"20130312"	"Scattered Clouds"	"00"	"54"	"37.9"	"3.3"	"0"	"0"	"-9999"	"-9999"	"96"	"partlycloudy"	"METAR KBOS 120454Z 18006KT 10SM SCT024 04/03 A3016 RMK AO2 SLP214 T00390033 401000017"	"-9999.00"	"-9999.00"	"30.17"	"1021.4"	"0"	"0"	"39.0"	"3.9"	"0"	"0"	"10.0"	"16.1"	"180"	"South"	"-9999.0"	"-9999.0"	"34.0"	"1.1"	"6.9"	"11.1"	
"20130312"	"Mostly Cloudy"	"01"	"25"	"37.4"	"3.0"	"0"	"0"	"-9999"	"-9999"	"93"	"mostlycloudy"	"SPECI KBOS 120525Z 17006KT 10SM BKN012 BKN024 04/03 A3017 RMK AO2"	"-9999.00"	"-9999.00"	"30.17"	"1021.6"	"0"	"0"	"39.2"	"4.0"	"0"	"0"	"10.0"	"16.1"	"170"	"South"	"-9999.0"	"-9999.0"	"34.2"	"1.2"	"6.9"	"11.1"	
"20130312"	"Scattered Clouds"	"01"	"54"	"37.9"	"3.3"	"0"	"0"	"-9999"	"-9999"	"93"	"partlycloudy"	"METAR KBOS 120554Z 16008KT 10SM SCT012 SCT024 04/03 A3016 RMK AO2 SLP211 T00440033 10067 20039 58003"	"-9999.00"	"-9999.00"	"30.16"	"1021.1"	"0"	"0"	"39.9"	"4.4"	"0"	"0"	"10.0"	"16.1"	"160"	"SSE"	"-9999.0"	"-9999.0"	"33.9"	"1.1"	"9.2"	"14.8"	
"20130312"	"Scattered Clouds"	"02"	"36"	"37.4"	"3.0"	"0"	"0"	"-9999"	"-9999"	"93"	"partlycloudy"	"SPECI KBOS 120636Z 17005KT 10SM SCT009 04/03 A3014 RMK AO2"	"-9999.00"	"-9999.00"	"30.14"	"1020.5"	"0"	"0"	"39.2"	"4.0"	"0"	"0"	"10.0"	"16.1"	"170"	"South"	"-9999.0"	"-9999.0"	"35.0"	"1.7"	"5.8"	"9.3"	
"20130312"	"Mostly Cloudy"	"02"	"52"	"39.2"	"4.0"	"0"	"0"	"-9999"	"-9999"	"100"	"mostlycloudy"	"SPECI KBOS 120652Z 17006KT 10SM SCT009 BKN018 04/04 A3013 RMK AO2"	"-9999.00"	"-9999.00"	"30.13"	"1020.2"	"0"	"0"	"39.2"	"4.0"	"0"	"0"	"10.0"	"16.1"	"170"	"South"	"-9999.0"	"-9999.0"	"34.2"	"1.2"	"6.9"	"11.1"	
"20130312"	"Mostly Cloudy"	"02"	"54"	"39.0"	"3.9"	"0"	"0"	"-9999"	"-9999"	"97"	"mostlycloudy"	"METAR KBOS 120654Z 17006KT 10SM SCT009 BKN018 04/04 A3013 RMK AO2 SLP202 T00440039"	"-9999.00"	"-9999.00"	"30.13"	"1020.2"	"0"	"0"	"39.9"	"4.4"	"0"	"0"	"10.0"	"16.1"	"170"	"South"	"-9999.0"	"-9999.0"	"35.1"	"1.7"	"6.9"	"11.1"	
"20130312"	"Mostly Cloudy"	"03"	"54"	"39.0"	"3.9"	"0"	"0"	"-9999"	"-9999"	"93"	"mostlycloudy"	"METAR KBOS 120754Z 15007KT 10SM BKN018 05/04 A3009 RMK AO2 SLP190 T00500039"	"-9999.00"	"-9999.00"	"30.09"	"1019.0"	"0"	"0"	"41.0"	"5.0"	"0"	"0"	"10.0"	"16.1"	"150"	"SSE"	"-9999.0"	"-9999.0"	"35.8"	"2.1"	"8.1"	"13.0"	
"20130312"	"Clear"	"04"	"01"	"39.2"	"4.0"	"0"	"0"	"-9999"	"-9999"	"93"	"clear"	"SPECI KBOS 120801Z 15007KT 10SM CLR 05/04 A3009 RMK AO2"	"-9999.00"	"-9999.00"	"30.09"	"1018.8"	"0"	"0"	"41.0"	"5.0"	"0"	"0"	"10.0"	"16.1"	"150"	"SSE"	"-9999.0"	"-9999.0"	"35.8"	"2.1"	"8.1"	"13.0"	
"20130312"	"Partly Cloudy"	"04"	"19"	"39.2"	"4.0"	"0"	"0"	"-9999"	"-9999"	"93"	"partlycloudy"	"SPECI KBOS 120819Z 16007KT 10SM FEW009 05/04 A3009 RMK AO2"	"-9999.00"	"-9999.00"	"30.09"	"1018.8"	"0"	"0"	"41.0"	"5.0"	"0"	"0"	"10.0"	"16.1"	"160"	"SSE"	"-9999.0"	"-9999.0"	"35.8"	"2.1"	"8.1"	"13.0"	
"20130312"	"Mostly Cloudy"	"04"	"42"	"41.0"	"5.0"	"0"	"0"	"-9999"	"-9999"	"93"	"mostlycloudy"	"SPECI KBOS 120842Z 17005KT 10SM BKN007 06/05 A3009 RMK AO2"	"-9999.00"	"-9999.00"	"30.09"	"1018.8"	"0"	"0"	"42.8"	"6.0"	"0"	"0"	"10.0"	"16.1"	"170"	"South"	"-9999.0"	"-9999.0"	"39.3"	"4.0"	"5.8"	"9.3"	
"20130312"	"Overcast"	"04"	"54"	"41.0"	"5.0"	"0"	"0"	"-9999"	"-9999"	"96"	"cloudy"	"METAR KBOS 120854Z 16004KT 10SM OVC007 06/05 A3008 RMK AO2 SLP186 T00560050 58017"	"-9999.00"	"-9999.00"	"30.08"	"1018.6"	"0"	"0"	"42.1"	"5.6"	"0"	"0"	"10.0"	"16.1"	"160"	"SSE"	"-9999.0"	"-9999.0"	"39.2"	"4.0"	"4.6"	"7.4"	
"20130312"	"Overcast"	"05"	"54"	"41.0"	"5.0"	"0"	"0"	"-9999"	"-9999"	"96"	"cloudy"	"METAR KBOS 120954Z 14005KT 10SM OVC007 06/05 A3008 RMK AO2 SLP186 T00560050"	"-9999.00"	"-9999.00"	"30.08"	"1018.6"	"0"	"0"	"42.1"	"5.6"	"0"	"0"	"10.0"	"16.1"	"140"	"SE"	"-9999.0"	"-9999.0"	"38.4"	"3.6"	"5.8"	"9.3"	
"20130312"	"Overcast"	"06"	"54"	"42.1"	"5.6"	"0"	"0"	"-9999"	"-9999"	"97"	"cloudy"	"METAR KBOS 121054Z 16005KT 9SM BKN007 OVC014 06/06 A3008 RMK AO2 SLP185 T00610056"	"-9999.00"	"-9999.00"	"30.08"	"1018.5"	"0"	"0"	"43.0"	"6.1"	"0"	"0"	"9.0"	"14.5"	"160"	"SSE"	"-9999.0"	"-9999.0"	"39.5"	"4.2"	"5.8"	"9.3"	
"20130312"	"Overcast"	"07"	"20"	"41.0"	"5.0"	"0"	"0"	"-9999"	"-9999"	"93"	"cloudy"	"SPECI KBOS 121120Z 15006KT 8SM SCT007 OVC014 06/05 A3007 RMK AO2"	"-9999.00"	"-9999.00"	"30.07"	"1018.2"	"0"	"0"	"42.8"	"6.0"	"0"	"0"	"8.0"	"12.9"	"150"	"SSE"	"-9999.0"	"-9999.0"	"38.6"	"3.7"	"6.9"	"11.1"	
"20130312"	"Overcast"	"07"	"54"	"43.0"	"6.1"	"0"	"0"	"-9999"	"-9999"	"100"	"cloudy"	"METAR KBOS 121154Z 16006KT 8SM SCT007 OVC014 06/06 A3006 RMK AO2 SLP179 T00610061 10067 20039 58007"	"-9999.00"	"-9999.00"	"30.06"	"1017.9"	"0"	"0"	"43.0"	"6.1"	"0"	"0"	"8.0"	"12.9"	"160"	"SSE"	"-9999.0"	"-9999.0"	"38.8"	"3.8"	"6.9"	"11.1"	
"20130312"	"Overcast"	"08"	"28"	"44.6"	"7.0"	"0"	"0"	"-9999"	"-9999"	"100"	"cloudy"	"SPECI KBOS 121228Z 16008KT 8SM BKN008 OVC014 07/07 A3006 RMK AO2"	"-9999.00"	"-9999.00"	"30.06"	"1017.8"	"0"	"0"	"44.6"	"7.0"	"0"	"0"	"8.0"	"12.9"	"160"	"SSE"	"-9999.0"	"-9999.0"	"39.7"	"4.3"	"9.2"	"14.8"	
"20130312"	"Overcast"	"08"	"54"	"44.1"	"6.7"	"0"	"0"	"-9999"	"-9999"	"97"	"cloudy"	"METAR KBOS 121254Z 16007KT 9SM FEW008 OVC011 07/07 A3006 RMK AO2 SLP178 T00720067"	"-9999.00"	"-9999.00"	"30.06"	"1017.8"	"0"	"0"	"45.0"	"7.2"	"0"	"0"	"9.0"	"14.5"	"160"	"SSE"	"-9999.0"	"-9999.0"	"40.6"	"4.8"	"8.1"	"13.0"	
"20130312"	"Overcast"	"09"	"06"	"44.6"	"7.0"	"0"	"0"	"-9999"	"-9999"	"100"	"cloudy"	"SPECI KBOS 121306Z 16006KT 9SM OVC009 07/07 A3006 RMK AO2"	"-9999.00"	"-9999.00"	"30.06"	"1017.8"	"0"	"0"	"44.6"	"7.0"	"0"	"0"	"9.0"	"14.5"	"160"	"SSE"	"-9999.0"	"-9999.0"	"40.7"	"4.9"	"6.9"	"11.1"	
"20130312"	"Overcast"	"09"	"54"	"46.0"	"7.8"	"0"	"0"	"-9999"	"-9999"	"93"	"cloudy"	"METAR KBOS 121354Z 18011KT 10SM OVC009 09/08 A3006 RMK AO2 SLP179 T00890078"	"-9999.00"	"-9999.00"	"30.06"	"1017.9"	"0"	"0"	"48.0"	"8.9"	"0"	"0"	"10.0"	"16.1"	"180"	"South"	"-9999.0"	"-9999.0"	"-999"	"-999"	"12.7"	"20.4"	
"20130312"	"Overcast"	"10"	"54"	"46.0"	"7.8"	"0"	"0"	"-9999"	"-9999"	"97"	"cloudy"	"METAR KBOS 121454Z 17008KT 8SM OVC009 08/08 A3004 RMK AO2 SLP170 T00830078 58008"	"-9999.00"	"-9999.00"	"30.04"	"1017.0"	"0"	"0"	"46.9"	"8.3"	"0"	"0"	"8.0"	"12.9"	"170"	"South"	"-9999.0"	"-9999.0"	"-999"	"-999"	"9.2"	"14.8"	
"20130312"	"Overcast"	"11"	"33"	"46.4"	"8.0"	"0"	"0"	"-9999"	"-9999"	"100"	"cloudy"	"SPECI KBOS 121533Z 17008KT 9SM OVC011 08/08 A3003 RMK AO2"	"-9999.00"	"-9999.00"	"30.03"	"1016.8"	"0"	"0"	"46.4"	"8.0"	"0"	"0"	"9.0"	"14.5"	"170"	"South"	"-9999.0"	"-9999.0"	"41.9"	"5.5"	"9.2"	"14.8"	
"20130312"	"Overcast"	"11"	"54"	"46.0"	"7.8"	"0"	"0"	"-9999"	"-9999"	"93"	"cloudy"	"METAR KBOS 121554Z 17009KT 9SM BKN013 OVC050 09/08 A3001 RMK AO2 SLP162 T00890078"	"-9999.00"	"-9999.00"	"30.01"	"1016.2"	"0"	"0"	"48.0"	"8.9"	"0"	"0"	"9.0"	"14.5"	"170"	"South"	"-9999.0"	"-9999.0"	"-999"	"-999"	"10.4"	"16.7"	
"20130312"	"Overcast"	"12"	"19"	"46.4"	"8.0"	"0"	"0"	"-9999"	"-9999"	"93"	"cloudy"	"SPECI KBOS 121619Z 16008KT 10SM OVC015 09/08 A3000 RMK AO2"	"-9999.00"	"-9999.00"	"30.00"	"1015.8"	"0"	"0"	"48.2"	"9.0"	"0"	"0"	"10.0"	"16.1"	"160"	"SSE"	"-9999.0"	"-9999.0"	"-999"	"-999"	"9.2"	"14.8"	
"20130312"	"Overcast"	"12"	"54"	"46.9"	"8.3"	"0"	"0"	"-9999"	"-9999"	"89"	"cloudy"	"METAR KBOS 121654Z 16010KT 10SM BKN022 OVC060 10/08 A2998 RMK AO2 SLP153 T01000083"	"-9999.00"	"-9999.00"	"29.99"	"1015.3"	"0"	"0"	"50.0"	"10.0"	"0"	"0"	"10.0"	"16.1"	"160"	"SSE"	"-9999.0"	"-9999.0"	"-999"	"-999"	"11.5"	"18.5"	
"20130312"	"Overcast"	"13"	"01"	"46.4"	"8.0"	"0"	"0"	"-9999"	"-9999"	"87"	"cloudy"	"SPECI KBOS 121701Z 16010KT 10SM SCT032 OVC060 10/08 A2998 RMK AO2"	"-9999.00"	"-9999.00"	"29.98"	"1015.1"	"0"	"0"	"50.0"	"10.0"	"0"	"0"	"10.0"	"16.1"	"160"	"SSE"	"-9999.0"	"-9999.0"	"-999"	"-999"	"11.5"	"18.5"	
"20130312"	"Overcast"	"13"	"54"	"46.9"	"8.3"	"0"	"0"	"-9999"	"-9999"	"86"	"cloudy"	"METAR KBOS 121754Z 17010KT 10SM FEW024 BKN060 OVC140 11/08 A2995 RMK AO2 SLP142 T01060083 10106 20061 58028"	"-9999.00"	"-9999.00"	"29.95"	"1014.2"	"0"	"0"	"51.1"	"10.6"	"0"	"0"	"10.0"	"16.1"	"170"	"South"	"-9999.0"	"-9999.0"	"-999"	"-999"	"11.5"	"18.5"	
"20130312"	"Overcast"	"14"	"54"	"48.0"	"8.9"	"0"	"0"	"-9999"	"-9999"	"83"	"cloudy"	"METAR KBOS 121854Z 18012KT 10SM FEW025 BKN050 OVC060 12/09 A2993 RMK AO2 SLP133 T01170089"	"-9999.00"	"-9999.00"	"29.93"	"1013.3"	"0"	"0"	"53.1"	"11.7"	"0"	"0"	"10.0"	"16.1"	"180"	"South"	"-9999.0"	"-9999.0"	"-999"	"-999"	"13.8"	"22.2"	
"20130312"	"Overcast"	"15"	"54"	"48.0"	"8.9"	"0"	"0"	"-9999"	"-9999"	"86"	"cloudy"	"METAR KBOS 121954Z 17014KT 10SM FEW025 SCT042 OVC048 11/09 A2989 RMK AO2 SLP122 T01110089"	"-9999.00"	"-9999.00"	"29.89"	"1012.2"	"0"	"0"	"52.0"	"11.1"	"0"	"0"	"10.0"	"16.1"	"170"	"South"	"-9999.0"	"-9999.0"	"-999"	"-999"	"16.1"	"25.9"	
"20130312"	"Light Rain"	"16"	"46"	"46.4"	"8.0"	"0"	"0"	"-9999"	"-9999"	"82"	"rain"	"SPECI KBOS 122046Z 16015KT 7SM -RA BKN019 BKN033 OVC055 11/08 A2987 RMK AO2 RAB30 P0000"	"0.00"	"0.0"	"29.87"	"1011.4"	"1"	"0"	"51.8"	"11.0"	"0"	"0"	"7.0"	"11.3"	"160"	"SSE"	"-9999.0"	"-9999.0"	"-999"	"-999"	"17.3"	"27.8"	
"20130312"	"Light Rain"	"16"	"54"	"46.9"	"8.3"	"0"	"0"	"-9999"	"-9999"	"89"	"rain"	"METAR KBOS 122054Z 16014KT 6SM -RA BR BKN018 BKN033 OVC050 10/08 A2987 RMK AO2 RAB30 SLP115 P0000 60000 T01000083 56027"	"0.00"	"0.0"	"29.87"	"1011.5"	"1"	"0"	"50.0"	"10.0"	"0"	"0"	"6.0"	"9.7"	"160"	"SSE"	"-9999.0"	"-9999.0"	"-999"	"-999"	"16.1"	"25.9"	
"20130312"	"Light Rain"	"17"	"54"	"48.0"	"8.9"	"0"	"0"	"-9999"	"-9999"	"93"	"rain"	"METAR KBOS 122154Z 16016KT 7SM -RA BKN015 BKN025 OVC046 10/09 A2984 RMK AO2 SLP103 P0001 T01000089"	"0.01"	"0.3"	"29.84"	"1010.3"	"1"	"0"	"50.0"	"10.0"	"0"	"0"	"7.0"	"11.3"	"160"	"SSE"	"-9999.0"	"-9999.0"	"-999"	"-999"	"18.4"	"29.6"	
"20130312"	"Light Rain"	"18"	"13"	"48.2"	"9.0"	"0"	"0"	"-9999"	"-9999"	"94"	"rain"	"SPECI KBOS 122213Z 16016KT 7SM -RA BKN014 BKN021 OVC080 10/09 A2982 RMK AO2 P0000"	"0.00"	"0.0"	"29.82"	"1009.7"	"1"	"0"	"50.0"	"10.0"	"0"	"0"	"7.0"	"11.3"	"160"	"SSE"	"-9999.0"	"-9999.0"	"-999"	"-999"	"18.4"	"29.6"	
"20130312"	"Rain"	"18"	"54"	"48.0"	"8.9"	"0"	"0"	"-9999"	"-9999"	"93"	"rain"	"METAR KBOS 122254Z 16015KT 6SM RA BR BKN011 OVC016 10/09 A2980 RMK AO2 SLP091 P0003 T01000089"	"0.03"	"0.8"	"29.80"	"1009.1"	"1"	"0"	"50.0"	"10.0"	"0"	"0"	"6.0"	"9.7"	"160"	"SSE"	"-9999.0"	"-9999.0"	"-999"	"-999"	"17.3"	"27.8"	
"20130312"	"Rain"	"19"	"07"	"48.2"	"9.0"	"0"	"0"	"-9999"	"-9999"	"94"	"rain"	"SPECI KBOS 122307Z 16013KT 5SM RA BR FEW011 OVC015 10/09 A2980 RMK AO2 P0001"	"0.01"	"0.3"	"29.80"	"1009.0"	"1"	"0"	"50.0"	"10.0"	"0"	"0"	"5.0"	"8.0"	"160"	"SSE"	"-9999.0"	"-9999.0"	"-999"	"-999"	"15.0"	"24.1"	
"20130312"	"Rain"	"19"	"54"	"50.0"	"10.0"	"0"	"0"	"-9999"	"-9999"	"93"	"rain"	"METAR KBOS 122354Z 17018KT 4SM RA BR FEW011 BKN015 OVC036 11/10 A2977 RMK AO2 SLP082 P0011 60015 T01110100 10117 20100 58022"	"0.11"	"2.8"	"29.78"	"1008.2"	"1"	"0"	"52.0"	"11.1"	"0"	"0"	"4.0"	"6.4"	"170"	"South"	"-9999.0"	"-9999.0"	"-999"	"-999"	"20.7"	"33.3"	
"20130312"	"Light Rain"	"20"	"26"	"50.0"	"10.0"	"0"	"0"	"-9999"	"-9999"	"94"	"rain"	"SPECI KBOS 130026Z 16018G29KT 4SM -RA BR BKN013 OVC034 11/10 A2975 RMK AO2 PK WND 16029/0021 P0009"	"0.09"	"2.3"	"29.75"	"1007.3"	"1"	"0"	"51.8"	"11.0"	"0"	"0"	"4.0"	"6.4"	"160"	"SSE"	"33.4"	"53.7"	"-999"	"-999"	"20.7"	"33.3"	
"20130312"	"Light Rain"	"20"	"47"	"48.2"	"9.0"	"0"	"0"	"-9999"	"-9999"	"94"	"rain"	"SPECI KBOS 130047Z 17018KT 4SM -RA BR SCT013 BKN028 OVC037 10/09 A2974 RMK AO2 PK WND 16029/0021 CIG 012 E P0010"	"0.10"	"2.5"	"29.74"	"1007.0"	"1"	"0"	"50.0"	"10.0"	"0"	"0"	"4.0"	"6.4"	"170"	"South"	"-9999.0"	"-9999.0"	"-999"	"-999"	"20.7"	"33.3"	
"20130312"	"Light Rain"	"20"	"54"	"50.0"	"10.0"	"0"	"0"	"-9999"	"-9999"	"96"	"rain"	"METAR KBOS 130054Z 17018KT 4SM -RA BR SCT011 SCT016 OVC026 11/10 A2975 RMK AO2 PK WND 16029/0021 CIG 014 E SLP073 P0010 T01060100"	"0.10"	"2.5"	"29.75"	"1007.3"	"1"	"0"	"51.1"	"10.6"	"0"	"0"	"4.0"	"6.4"	"170"	"South"	"-9999.0"	"-9999.0"	"-999"	"-999"	"20.7"	"33.3"	
"20130312"	"Light Rain"	"21"	"14"	"51.8"	"11.0"	"0"	"0"	"-9999"	"-9999"	"100"	"rain"	"SPECI KBOS 130114Z 19014KT 4SM -RA BR BKN010 OVC015 11/11 A2975 RMK AO2 P0002"	"0.02"	"0.5"	"29.75"	"1007.3"	"1"	"0"	"51.8"	"11.0"	"0"	"0"	"4.0"	"6.4"	"190"	"South"	"-9999.0"	"-9999.0"	"-999"	"-999"	"16.1"	"25.9"	
"20130312"	"Light Rain"	"21"	"36"	"51.8"	"11.0"	"0"	"0"	"-9999"	"-9999"	"100"	"rain"	"SPECI KBOS 130136Z 19011KT 5SM -RA BR SCT010 OVC015 11/11 A2975 RMK AO2 P0004"	"0.04"	"1.0"	"29.75"	"1007.3"	"1"	"0"	"51.8"	"11.0"	"0"	"0"	"5.0"	"8.0"	"190"	"South"	"-9999.0"	"-9999.0"	"-999"	"-999"	"12.7"	"20.4"	
"20130312"	"Light Rain"	"21"	"54"	"51.1"	"10.6"	"0"	"0"	"-9999"	"-9999"	"97"	"rain"	"METAR KBOS 130154Z 19012KT 9SM -RA SCT010 OVC015 11/11 A2975 RMK AO2 SLP073 P0004 T01110106"	"0.04"	"1.0"	"29.75"	"1007.3"	"1"	"0"	"52.0"	"11.1"	"0"	"0"	"9.0"	"14.5"	"190"	"South"	"-9999.0"	"-9999.0"	"-999"	"-999"	"13.8"	"22.2"	
"20130312"	"Light Drizzle"	"22"	"54"	"50.0"	"10.0"	"0"	"0"	"-9999"	"-9999"	"96"	"rain"	"METAR KBOS 130254Z 20014KT 10SM -DZ OVC011 11/10 A2975 RMK AO2 RAE36DZB36 SLP072 P0000 60014 T01060100 56010"	"0.00"	"0.0"	"29.75"	"1007.2"	"0"	"0"	"51.1"	"10.6"	"0"	"0"	"10.0"	"16.1"	"200"	"SSW"	"-9999.0"	"-9999.0"	"-999"	"-999"	"16.1"	"25.9"	
"20130312"	"Light Drizzle"	"23"	"16"	"50.0"	"10.0"	"0"	"0"	"-9999"	"-9999"	"94"	"rain"	"SPECI KBOS 130316Z 21010G18KT 10SM -DZ OVC009 11/10 A2975 RMK AO2 P0000"	"0.00"	"0.0"	"29.75"	"1007.3"	"0"	"0"	"51.8"	"11.0"	"0"	"0"	"10.0"	"16.1"	"210"	"SSW"	"20.7"	"33.3"	"-999"	"-999"	"11.5"	"18.5"	
"20130312"	"Light Drizzle"	"23"	"54"	"50.0"	"10.0"	"0"	"0"	"-9999"	"-9999"	"100"	"rain"	"METAR KBOS 130354Z 21008KT 10SM -DZ OVC007 10/10 A2974 RMK AO2 SLP071 P0000 T01000100"	"0.00"	"0.0"	"29.74"	"1007.1"	"0"	"0"	"50.0"	"10.0"	"0"	"0"	"10.0"	"16.1"	"210"	"SSW"	"-9999.0"	"-9999.0"	"-999"	"-999"	"9.2"	"14.8"	
"20130311"	"Overcast"	"00"	"12"	"30.2"	"-1.0"	"0"	"0"	"-9999"	"-9999"	"81"	"cloudy"	"SPECI KBOS 110412Z 20005KT 10SM OVC016 02/M01 A3033 RMK AO2"	"-9999.00"	"-9999.00"	"30.33"	"1027.0"	"0"	"0"	"35.6"	"2.0"	"0"	"0"	"10.0"	"16.1"	"200"	"SSW"	"-9999.0"	"-9999.0"	"30.7"	"-0.7"	"5.8"	"9.3"	
"20130311"	"Overcast"	"00"	"54"	"30.9"	"-0.6"	"0"	"0"	"-9999"	"-9999"	"85"	"cloudy"	"METAR KBOS 110454Z 20007KT 10SM OVC016 02/M01 A3033 RMK AO2 SLP269 T00171006 400281022"	"-9999.00"	"-9999.00"	"30.33"	"1026.9"	"0"	"0"	"35.1"	"1.7"	"0"	"0"	"10.0"	"16.1"	"200"	"SSW"	"-9999.0"	"-9999.0"	"28.6"	"-1.9"	"8.1"	"13.0"	
"20130311"	"Overcast"	"01"	"21"	"30.2"	"-1.0"	"0"	"0"	"-9999"	"-9999"	"81"	"cloudy"	"SPECI KBOS 110521Z 18006KT 10SM OVC014 02/M01 A3032 RMK AO2"	"-9999.00"	"-9999.00"	"30.32"	"1026.6"	"0"	"0"	"35.6"	"2.0"	"0"	"0"	"10.0"	"16.1"	"180"	"South"	"-9999.0"	"-9999.0"	"29.9"	"-1.2"	"6.9"	"11.1"	
"20130311"	"Overcast"	"01"	"54"	"30.9"	"-0.6"	"0"	"0"	"-9999"	"-9999"	"85"	"cloudy"	"METAR KBOS 110554Z 21007KT 10SM OVC012 02/M01 A3034 RMK AO2 SLP272 T00171006 10022 20017 55001"	"-9999.00"	"-9999.00"	"30.34"	"1027.2"	"0"	"0"	"35.1"	"1.7"	"0"	"0"	"10.0"	"16.1"	"210"	"SSW"	"-9999.0"	"-9999.0"	"28.6"	"-1.9"	"8.1"	"13.0"	
"20130311"	"Overcast"	"02"	"54"	"32.0"	"0.0"	"0"	"0"	"-9999"	"-9999"	"89"	"cloudy"	"METAR KBOS 110654Z 20005KT 10SM OVC012 02/00 A3033 RMK AO2 SLP270 T00170000"	"-9999.00"	"-9999.00"	"30.33"	"1027.0"	"0"	"0"	"35.1"	"1.7"	"0"	"0"	"10.0"	"16.1"	"200"	"SSW"	"-9999.0"	"-9999.0"	"30.1"	"-1.1"	"5.8"	"9.3"	
"20130311"	"Overcast"	"03"	"54"	"32.0"	"0.0"	"0"	"0"	"-9999"	"-9999"	"89"	"cloudy"	"METAR KBOS 110754Z 19009KT 10SM OVC012 02/00 A3027 RMK AO2 SLP249 T00170000"	"-9999.00"	"-9999.00"	"30.27"	"1024.9"	"0"	"0"	"35.1"	"1.7"	"0"	"0"	"10.0"	"16.1"	"190"	"South"	"-9999.0"	"-9999.0"	"27.4"	"-2.6"	"10.4"	"16.7"	
"20130311"	"Overcast"	"04"	"54"	"30.9"	"-0.6"	"0"	"0"	"-9999"	"-9999"	"85"	"cloudy"	"METAR KBOS 110854Z 22009KT 10SM OVC012 02/M01 A3029 RMK AO2 SLP255 T00171006 55017"	"-9999.00"	"-9999.00"	"30.29"	"1025.5"	"0"	"0"	"35.1"	"1.7"	"0"	"0"	"10.0"	"16.1"	"220"	"SW"	"-9999.0"	"-9999.0"	"27.4"	"-2.6"	"10.4"	"16.7"	
"20130311"	"Overcast"	"05"	"54"	"30.9"	"-0.6"	"0"	"0"	"-9999"	"-9999"	"85"	"cloudy"	"METAR KBOS 110954Z 20010KT 10SM OVC012 02/M01 A3027 RMK AO2 SLP248 T00171006"	"-9999.00"	"-9999.00"	"30.27"	"1024.8"	"0"	"0"	"35.1"	"1.7"	"0"	"0"	"10.0"	"16.1"	"200"	"SSW"	"-9999.0"	"-9999.0"	"26.9"	"-2.9"	"11.5"	"18.5"	
"20130311"	"Overcast"	"06"	"54"	"30.9"	"-0.6"	"0"	"0"	"-9999"	"-9999"	"85"	"cloudy"	"METAR KBOS 111054Z 23007KT 10SM OVC012 02/M01 A3028 RMK AO2 SLP254 T00171006"	"-9999.00"	"-9999.00"	"30.28"	"1025.4"	"0"	"0"	"35.1"	"1.7"	"0"	"0"	"10.0"	"16.1"	"230"	"SW"	"-9999.0"	"-9999.0"	"28.6"	"-1.9"	"8.1"	"13.0"	
"20130311"	"Overcast"	"07"	"54"	"30.9"	"-0.6"	"0"	"0"	"-9999"	"-9999"	"85"	"cloudy"	"METAR KBOS 111154Z 20008KT 10SM OVC012 02/M01 A3027 RMK AO2 SLP251 BINOVC T00171006 10017 20017 56004"	"-9999.00"	"-9999.00"	"30.27"	"1025.1"	"0"	"0"	"35.1"	"1.7"	"0"	"0"	"10.0"	"16.1"	"200"	"SSW"	"-9999.0"	"-9999.0"	"27.9"	"-2.3"	"9.2"	"14.8"	
"20130311"	"Overcast"	"08"	"54"	"32.0"	"0.0"	"0"	"0"	"-9999"	"-9999"	"82"	"cloudy"	"METAR KBOS 111254Z 22009KT 10SM OVC012 03/00 A3027 RMK AO2 SLP251 BINOVC T00280000"	"-9999.00"	"-9999.00"	"30.27"	"1025.1"	"0"	"0"	"37.0"	"2.8"	"0"	"0"	"10.0"	"16.1"	"220"	"SW"	"-9999.0"	"-9999.0"	"29.8"	"-1.2"	"10.4"	"16.7"	
"20130311"	"Scattered Clouds"	"09"	"49"	"33.8"	"1.0"	"0"	"0"	"-9999"	"-9999"	"87"	"partlycloudy"	"SPECI KBOS 111349Z 24011KT 10SM FEW014 SCT200 03/01 A3027 RMK AO2"	"-9999.00"	"-9999.00"	"30.27"	"1024.9"	"0"	"0"	"37.4"	"3.0"	"0"	"0"	"10.0"	"16.1"	"240"	"WSW"	"-9999.0"	"-9999.0"	"29.3"	"-1.5"	"12.7"	"20.4"	
"20130311"	"Scattered Clouds"	"09"	"54"	"33.1"	"0.6"	"0"	"0"	"-9999"	"-9999"	"79"	"partlycloudy"	"METAR KBOS 111354Z 23011KT 10SM FEW014 SCT200 04/01 A3027 RMK AO2 SLP249 T00390006"	"-9999.00"	"-9999.00"	"30.27"	"1024.9"	"0"	"0"	"39.0"	"3.9"	"0"	"0"	"10.0"	"16.1"	"230"	"SW"	"-9999.0"	"-9999.0"	"31.4"	"-0.3"	"12.7"	"20.4"	
"20130311"	"Scattered Clouds"	"10"	"54"	"35.1"	"1.7"	"0"	"0"	"-9999"	"-9999"	"76"	"partlycloudy"	"METAR KBOS 111454Z 23010KT 10SM FEW025 SCT140 SCT200 06/02 A3027 RMK AO2 SLP248 T00560017 56003"	"-9999.00"	"-9999.00"	"30.27"	"1024.8"	"0"	"0"	"42.1"	"5.6"	"0"	"0"	"10.0"	"16.1"	"230"	"SW"	"-9999.0"	"-9999.0"	"35.7"	"2.0"	"11.5"	"18.5"	
"20130311"	"Mostly Cloudy"	"11"	"54"	"36.0"	"2.2"	"0"	"0"	"-9999"	"-9999"	"73"	"mostlycloudy"	"METAR KBOS 111554Z 20007KT 10SM SCT140 BKN200 07/02 A3026 RMK AO2 SLP246 T00670022"	"-9999.00"	"-9999.00"	"30.26"	"1024.6"	"0"	"0"	"44.1"	"6.7"	"0"	"0"	"10.0"	"16.1"	"200"	"SSW"	"-9999.0"	"-9999.0"	"39.5"	"4.2"	"8.1"	"13.0"	
"20130311"	"Mostly Cloudy"	"12"	"54"	"36.0"	"2.2"	"0"	"0"	"-9999"	"-9999"	"71"	"mostlycloudy"	"METAR KBOS 111654Z 18009KT 10SM BKN140 BKN200 07/02 A3025 RMK AO2 SLP242 T00720022"	"-9999.00"	"-9999.00"	"30.25"	"1024.2"	"0"	"0"	"45.0"	"7.2"	"0"	"0"	"10.0"	"16.1"	"180"	"South"	"-9999.0"	"-9999.0"	"39.7"	"4.3"	"10.4"	"16.7"	
"20130311"	"Mostly Cloudy"	"13"	"54"	"36.0"	"2.2"	"0"	"0"	"-9999"	"-9999"	"68"	"mostlycloudy"	"METAR KBOS 111754Z 19009KT 9SM BKN140 BKN200 08/02 A3024 RMK AO2 SLP238 T00780022 10078 20017 58010"	"-9999.00"	"-9999.00"	"30.24"	"1023.8"	"0"	"0"	"46.0"	"7.8"	"0"	"0"	"9.0"	"14.5"	"190"	"South"	"-9999.0"	"-9999.0"	"41.0"	"5.0"	"10.4"	"16.7"	
"20130311"	"Mostly Cloudy"	"14"	"54"	"37.9"	"3.3"	"0"	"0"	"-9999"	"-9999"	"71"	"mostlycloudy"	"METAR KBOS 111854Z 18008KT 10SM BKN140 BKN200 08/03 A3021 RMK AO2 SLP229 T00830033"	"-9999.00"	"-9999.00"	"30.21"	"1022.9"	"0"	"0"	"46.9"	"8.3"	"0"	"0"	"10.0"	"16.1"	"180"	"South"	"-9999.0"	"-9999.0"	"-999"	"-999"	"9.2"	"14.8"	
"20130311"	"Mostly Cloudy"	"15"	"54"	"39.0"	"3.9"	"0"	"0"	"-9999"	"-9999"	"69"	"mostlycloudy"	"METAR KBOS 111954Z 19010KT 10SM BKN140 BKN200 09/04 A3020 RMK AO2 SLP224 T00940039"	"-9999.00"	"-9999.00"	"30.19"	"1022.4"	"0"	"0"	"48.9"	"9.4"	"0"	"0"	"10.0"	"16.1"	"190"	"South"	"-9999.0"	"-9999.0"	"-999"	"-999"	"11.5"	"18.5"	
"20130311"	"Mostly Cloudy"	"16"	"54"	"37.9"	"3.3"	"0"	"0"	"-9999"	"-9999"	"68"	"mostlycloudy"	"METAR KBOS 112054Z 17008KT 10SM BKN140 BKN200 09/03 A3018 RMK AO2 SLP220 T00890033 56018"	"-9999.00"	"-9999.00"	"30.18"	"1022.0"	"0"	"0"	"48.0"	"8.9"	"0"	"0"	"10.0"	"16.1"	"170"	"South"	"-9999.0"	"-9999.0"	"-999"	"-999"	"9.2"	"14.8"	
"20130311"	"Mostly Cloudy"	"17"	"54"	"37.0"	"2.8"	"0"	"0"	"-9999"	"-9999"	"68"	"mostlycloudy"	"METAR KBOS 112154Z 19009KT 10SM BKN130 BKN220 08/03 A3018 RMK AO2 SLP219 T00830028"	"-9999.00"	"-9999.00"	"30.18"	"1021.9"	"0"	"0"	"46.9"	"8.3"	"0"	"0"	"10.0"	"16.1"	"190"	"South"	"-9999.0"	"-9999.0"	"-999"	"-999"	"10.4"	"16.7"	
"20130311"	"Mostly Cloudy"	"18"	"54"	"37.9"	"3.3"	"0"	"0"	"-9999"	"-9999"	"76"	"mostlycloudy"	"METAR KBOS 112254Z 20012KT 10SM BKN130 BKN220 07/03 A3019 RMK AO2 SLP221 T00720033"	"-9999.00"	"-9999.00"	"30.19"	"1022.1"	"0"	"0"	"45.0"	"7.2"	"0"	"0"	"10.0"	"16.1"	"200"	"SSW"	"-9999.0"	"-9999.0"	"38.5"	"3.6"	"13.8"	"22.2"	
"20130311"	"Scattered Clouds"	"19"	"54"	"37.9"	"3.3"	"0"	"0"	"-9999"	"-9999"	"82"	"partlycloudy"	"METAR KBOS 112354Z 19011KT 10SM SCT130 SCT220 06/03 A3019 RMK AO2 SLP222 T00610033 10100 20061 53002"	"-9999.00"	"-9999.00"	"30.19"	"1022.2"	"0"	"0"	"43.0"	"6.1"	"0"	"0"	"10.0"	"16.1"	"190"	"South"	"-9999.0"	"-9999.0"	"36.4"	"2.4"	"12.7"	"20.4"	
"20130311"	"Scattered Clouds"	"20"	"54"	"37.9"	"3.3"	"0"	"0"	"-9999"	"-9999"	"82"	"partlycloudy"	"METAR KBOS 120054Z 18010KT 10SM FEW130 SCT220 06/03 A3019 RMK AO2 SLP221 T00610033"	"-9999.00"	"-9999.00"	"30.19"	"1022.1"	"0"	"0"	"43.0"	"6.1"	"0"	"0"	"10.0"	"16.1"	"180"	"South"	"-9999.0"	"-9999.0"	"36.8"	"2.7"	"11.5"	"18.5"	
"20130311"	"Overcast"	"21"	"19"	"37.4"	"3.0"	"0"	"0"	"-9999"	"-9999"	"81"	"cloudy"	"SPECI KBOS 120119Z 20007KT 10SM FEW012 BKN018 OVC130 06/03 A3019 RMK AO2"	"-9999.00"	"-9999.00"	"30.19"	"1022.2"	"0"	"0"	"42.8"	"6.0"	"0"	"0"	"10.0"	"16.1"	"200"	"SSW"	"-9999.0"	"-9999.0"	"38.0"	"3.3"	"8.1"	"13.0"	
"20130311"	"Mostly Cloudy"	"21"	"50"	"37.4"	"3.0"	"0"	"0"	"-9999"	"-9999"	"87"	"mostlycloudy"	"SPECI KBOS 120150Z 19007KT 10SM FEW012 SCT018 BKN130 05/03 A3018 RMK AO2"	"-9999.00"	"-9999.00"	"30.18"	"1021.9"	"0"	"0"	"41.0"	"5.0"	"0"	"0"	"10.0"	"16.1"	"190"	"South"	"-9999.0"	"-9999.0"	"35.8"	"2.1"	"8.1"	"13.0"	
"20130311"	"Mostly Cloudy"	"21"	"54"	"37.9"	"3.3"	"0"	"0"	"-9999"	"-9999"	"85"	"mostlycloudy"	"METAR KBOS 120154Z 18008KT 10SM FEW012 SCT018 BKN130 06/03 A3018 RMK AO2 SLP219 T00560033"	"-9999.00"	"-9999.00"	"30.18"	"1021.9"	"0"	"0"	"42.1"	"5.6"	"0"	"0"	"10.0"	"16.1"	"180"	"South"	"-9999.0"	"-9999.0"	"36.6"	"2.5"	"9.2"	"14.8"	
"20130311"	"Scattered Clouds"	"22"	"54"	"37.9"	"3.3"	"0"	"0"	"-9999"	"-9999"	"89"	"partlycloudy"	"METAR KBOS 120254Z 18006KT 10SM SCT018 SCT130 05/03 A3017 RMK AO2 SLP214 T00500033 58007"	"-9999.00"	"-9999.00"	"30.17"	"1021.4"	"0"	"0"	"41.0"	"5.0"	"0"	"0"	"10.0"	"16.1"	"180"	"South"	"-9999.0"	"-9999.0"	"36.4"	"2.5"	"6.9"	"11.1"	
"20130311"	"Mostly Cloudy"	"23"	"43"	"37.4"	"3.0"	"0"	"0"	"-9999"	"-9999"	"87"	"mostlycloudy"	"SPECI KBOS 120343Z 20008KT 10SM BKN020 05/03 A3018 RMK AO2"	"-9999.00"	"-9999.00"	"30.18"	"1021.9"	"0"	"0"	"41.0"	"5.0"	"0"	"0"	"10.0"	"16.1"	"200"	"SSW"	"-9999.0"	"-9999.0"	"35.2"	"1.8"	"9.2"	"14.8"	
"20130311"	"Mostly Cloudy"	"23"	"54"	"37.9"	"3.3"	"0"	"0"	"-9999"	"-9999"	"89"	"mostlycloudy"	"METAR KBOS 120354Z 19008KT 10SM BKN020 05/03 A3017 RMK AO2 SLP217 T00500033"	"-9999.00"	"-9999.00"	"30.17"	"1021.7"	"0"	"0"	"41.0"	"5.0"	"0"	"0"	"10.0"	"16.1"	"190"	"South"	"-9999.0"	"-9999.0"	"35.2"	"1.8"	"9.2"	"14.8"	
"20130310"	"Partly Cloudy"	"00"	"54"	"28.0"	"-2.2"	"0"	"0"	"-9999"	"-9999"	"85"	"partlycloudy"	"METAR KBOS 100554Z 35006KT 8SM FEW010 00/M02 A3037 RMK AO2 SLP283 T00001022 10022 21006 53003"	"-9999.00"	"-9999.00"	"30.37"	"1028.3"	"0"	"0"	"32.0"	"0.0"	"0"	"0"	"8.0"	"12.9"	"350"	"North"	"-9999.0"	"-9999.0"	"25.6"	"-3.6"	"6.9"	"11.1"	
"20130310"	"Partly Cloudy"	"01"	"54"	"27.0"	"-2.8"	"0"	"0"	"-9999"	"-9999"	"85"	"partlycloudy"	"METAR KBOS 100654Z 34006KT 8SM FEW012 M01/M03 A3037 RMK AO2 SLP284 T10061028"	"-9999.00"	"-9999.00"	"30.37"	"1028.4"	"0"	"0"	"30.9"	"-0.6"	"0"	"0"	"8.0"	"12.9"	"340"	"NNW"	"-9999.0"	"-9999.0"	"24.3"	"-4.3"	"6.9"	"11.1"	
"20130310"	"Mostly Cloudy"	"03"	"42"	"28.4"	"-2.0"	"0"	"0"	"-9999"	"-9999"	"87"	"mostlycloudy"	"SPECI KBOS 100742Z 35006KT 8SM FEW012 BKN023 00/M02 A3036 RMK AO2"	"-9999.00"	"-9999.00"	"30.36"	"1028.0"	"0"	"0"	"32.0"	"0.0"	"0"	"0"	"8.0"	"12.9"	"350"	"North"	"-9999.0"	"-9999.0"	"25.6"	"-3.6"	"6.9"	"11.1"	
"20130310"	"Mostly Cloudy"	"03"	"54"	"28.0"	"-2.2"	"0"	"0"	"-9999"	"-9999"	"85"	"mostlycloudy"	"METAR KBOS 100754Z 35006KT 10SM FEW012 BKN023 00/M02 A3037 RMK AO2 SLP283 T00001022"	"-9999.00"	"-9999.00"	"30.37"	"1028.3"	"0"	"0"	"32.0"	"0.0"	"0"	"0"	"10.0"	"16.1"	"350"	"North"	"-9999.0"	"-9999.0"	"25.6"	"-3.6"	"6.9"	"11.1"	
"20130310"	"Scattered Clouds"	"04"	"44"	"26.6"	"-3.0"	"0"	"0"	"-9999"	"-9999"	"86"	"partlycloudy"	"SPECI KBOS 100844Z 01006KT 10SM FEW012 SCT023 M01/M03 A3037 RMK AO2"	"-9999.00"	"-9999.00"	"30.37"	"1028.3"	"0"	"0"	"30.2"	"-1.0"	"0"	"0"	"10.0"	"16.1"	"10"	"North"	"-9999.0"	"-9999.0"	"23.4"	"-4.8"	"6.9"	"11.1"	
"20130310"	"Scattered Clouds"	"04"	"54"	"27.0"	"-2.8"	"0"	"0"	"-9999"	"-9999"	"85"	"partlycloudy"	"METAR KBOS 100854Z 36005KT 10SM FEW012 SCT023 M01/M03 A3038 RMK AO2 SLP285 T10061028 53002"	"-9999.00"	"-9999.00"	"30.38"	"1028.5"	"0"	"0"	"30.9"	"-0.6"	"0"	"0"	"10.0"	"16.1"	"360"	"North"	"-9999.0"	"-9999.0"	"25.2"	"-3.8"	"5.8"	"9.3"	
"20130310"	"Partly Cloudy"	"05"	"54"	"26.1"	"-3.3"	"0"	"0"	"-9999"	"-9999"	"85"	"partlycloudy"	"METAR KBOS 100954Z 36007KT 10SM FEW022 M01/M03 A3038 RMK AO2 SLP285 T10111033"	"-9999.00"	"-9999.00"	"30.38"	"1028.5"	"0"	"0"	"30.0"	"-1.1"	"0"	"0"	"10.0"	"16.1"	"360"	"North"	"-9999.0"	"-9999.0"	"22.4"	"-5.3"	"8.1"	"13.0"	
"20130310"	"Scattered Clouds"	"06"	"54"	"26.1"	"-3.3"	"0"	"0"	"-9999"	"-9999"	"85"	"partlycloudy"	"METAR KBOS 101054Z 01008KT 10SM SCT022 M01/M03 A3038 RMK AO2 SLP287 T10111033"	"-9999.00"	"-9999.00"	"30.38"	"1028.7"	"0"	"0"	"30.0"	"-1.1"	"0"	"0"	"10.0"	"16.1"	"10"	"North"	"-9999.0"	"-9999.0"	"21.7"	"-5.7"	"9.2"	"14.8"	
"20130310"	"Overcast"	"07"	"18"	"24.8"	"-4.0"	"0"	"0"	"-9999"	"-9999"	"86"	"cloudy"	"SPECI KBOS 101118Z 01007KT 10SM OVC022 M02/M04 A3038 RMK AO2"	"-9999.00"	"-9999.00"	"30.38"	"1028.7"	"0"	"0"	"28.4"	"-2.0"	"0"	"0"	"10.0"	"16.1"	"10"	"North"	"-9999.0"	"-9999.0"	"20.4"	"-6.4"	"8.1"	"13.0"	
"20130310"	"Overcast"	"07"	"54"	"28.0"	"-2.2"	"0"	"0"	"-9999"	"-9999"	"85"	"cloudy"	"METAR KBOS 101154Z 35007KT 10SM OVC022 00/M02 A3040 RMK AO2 SLP292 T00001022 10000 21022 53007"	"-9999.00"	"-9999.00"	"30.40"	"1029.2"	"0"	"0"	"32.0"	"0.0"	"0"	"0"	"10.0"	"16.1"	"350"	"North"	"-9999.0"	"-9999.0"	"24.8"	"-4.0"	"8.1"	"13.0"	
"20130310"	"Overcast"	"08"	"54"	"30.0"	"-1.1"	"0"	"0"	"-9999"	"-9999"	"85"	"cloudy"	"METAR KBOS 101254Z 36006KT 10SM OVC022 01/M01 A3041 RMK AO2 SLP297 T00111011"	"-9999.00"	"-9999.00"	"30.41"	"1029.7"	"0"	"0"	"34.0"	"1.1"	"0"	"0"	"10.0"	"16.1"	"360"	"North"	"-9999.0"	"-9999.0"	"28.0"	"-2.2"	"6.9"	"11.1"	
"20130310"	"Overcast"	"09"	"54"	"30.0"	"-1.1"	"0"	"0"	"-9999"	"-9999"	"82"	"cloudy"	"METAR KBOS 101354Z 01005KT 10SM OVC022 02/M01 A3042 RMK AO2 SLP298 T00171011"	"-9999.00"	"-9999.00"	"30.41"	"1029.8"	"0"	"0"	"35.1"	"1.7"	"0"	"0"	"10.0"	"16.1"	"10"	"North"	"-9999.0"	"-9999.0"	"30.1"	"-1.1"	"5.8"	"9.3"	
"20130310"	"Overcast"	"10"	"54"	"30.0"	"-1.1"	"0"	"0"	"-9999"	"-9999"	"76"	"cloudy"	"METAR KBOS 101454Z 03007KT 10SM OVC022 03/M01 A3042 RMK AO2 SLP300 T00281011 51007"	"-9999.00"	"-9999.00"	"30.42"	"1030.0"	"0"	"0"	"37.0"	"2.8"	"0"	"0"	"10.0"	"16.1"	"30"	"NNE"	"-9999.0"	"-9999.0"	"31.0"	"-0.6"	"8.1"	"13.0"	
"20130310"	"Overcast"	"11"	"54"	"28.9"	"-1.7"	"0"	"0"	"-9999"	"-9999"	"73"	"cloudy"	"METAR KBOS 101554Z 08007KT 10SM OVC020 03/M02 A3041 RMK AO2 SLP297 T00281017"	"-9999.00"	"-9999.00"	"30.41"	"1029.7"	"0"	"0"	"37.0"	"2.8"	"0"	"0"	"10.0"	"16.1"	"80"	"East"	"-9999.0"	"-9999.0"	"31.0"	"-0.6"	"8.1"	"13.0"	
"20130310"	"Overcast"	"12"	"54"	"28.9"	"-1.7"	"0"	"0"	"-9999"	"-9999"	"73"	"cloudy"	"METAR KBOS 101654Z 06006KT 10SM OVC022 03/M02 A3040 RMK AO2 SLP295 T00281017"	"-9999.00"	"-9999.00"	"30.40"	"1029.5"	"0"	"0"	"37.0"	"2.8"	"0"	"0"	"10.0"	"16.1"	"60"	"ENE"	"-9999.0"	"-9999.0"	"31.6"	"-0.2"	"6.9"	"11.1"	
"20130310"	"Mostly Cloudy"	"13"	"54"	"28.9"	"-1.7"	"0"	"0"	"-9999"	"-9999"	"73"	"mostlycloudy"	"METAR KBOS 101754Z 10007KT 10SM BKN022 03/M02 A3039 RMK AO2 SLP289 T00281017 10028 20000 58010"	"-9999.00"	"-9999.00"	"30.39"	"1028.9"	"0"	"0"	"37.0"	"2.8"	"0"	"0"	"10.0"	"16.1"	"100"	"East"	"-9999.0"	"-9999.0"	"31.0"	"-0.6"	"8.1"	"13.0"	
"20130310"	"Mostly Cloudy"	"14"	"54"	"28.9"	"-1.7"	"0"	"0"	"-9999"	"-9999"	"73"	"mostlycloudy"	"METAR KBOS 101854Z 10005KT 10SM BKN022 BKN220 03/M02 A3038 RMK AO2 SLP285 T00281017"	"-9999.00"	"-9999.00"	"30.38"	"1028.5"	"0"	"0"	"37.0"	"2.8"	"0"	"0"	"10.0"	"16.1"	"100"	"East"	"-9999.0"	"-9999.0"	"32.4"	"0.2"	"5.8"	"9.3"	
"20130310"	"Scattered Clouds"	"15"	"04"	"28.4"	"-2.0"	"0"	"0"	"-9999"	"-9999"	"70"	"partlycloudy"	"SPECI KBOS 101904Z 10006KT 10SM SCT022 SCT220 03/M02 A3037 RMK AO2"	"-9999.00"	"-9999.00"	"30.37"	"1028.3"	"0"	"0"	"37.4"	"3.0"	"0"	"0"	"10.0"	"16.1"	"100"	"East"	"-9999.0"	"-9999.0"	"32.1"	"0.0"	"6.9"	"11.1"	
"20130310"	"Mostly Cloudy"	"15"	"54"	"28.9"	"-1.7"	"0"	"0"	"-9999"	"-9999"	"73"	"mostlycloudy"	"METAR KBOS 101954Z 13006KT 10SM SCT019 BKN250 03/M02 A3037 RMK AO2 SLP281 T00281017"	"-9999.00"	"-9999.00"	"30.36"	"1028.1"	"0"	"0"	"37.0"	"2.8"	"0"	"0"	"10.0"	"16.1"	"130"	"SE"	"-9999.0"	"-9999.0"	"31.6"	"-0.2"	"6.9"	"11.1"	
"20130310"	"Mostly Cloudy"	"16"	"06"	"30.2"	"-1.0"	"0"	"0"	"-9999"	"-9999"	"75"	"mostlycloudy"	"SPECI KBOS 102006Z 13008KT 10SM BKN019 03/M01 A3037 RMK AO2"	"-9999.00"	"-9999.00"	"30.37"	"1028.3"	"0"	"0"	"37.4"	"3.0"	"0"	"0"	"10.0"	"16.1"	"130"	"SE"	"-9999.0"	"-9999.0"	"30.8"	"-0.7"	"9.2"	"14.8"	
"20130310"	"Scattered Clouds"	"16"	"48"	"28.4"	"-2.0"	"0"	"0"	"-9999"	"-9999"	"70"	"partlycloudy"	"SPECI KBOS 102048Z 09005KT 10SM SCT019 SCT220 03/M02 A3036 RMK AO2"	"-9999.00"	"-9999.00"	"30.36"	"1028.0"	"0"	"0"	"37.4"	"3.0"	"0"	"0"	"10.0"	"16.1"	"90"	"East"	"-9999.0"	"-9999.0"	"32.8"	"0.5"	"5.8"	"9.3"	
"20130310"	"Scattered Clouds"	"16"	"54"	"28.9"	"-1.7"	"0"	"0"	"-9999"	"-9999"	"73"	"partlycloudy"	"METAR KBOS 102054Z VRB04KT 10SM SCT019 SCT220 03/M02 A3036 RMK AO2 SLP281 T00281017 56004"	"-9999.00"	"-9999.00"	"30.36"	"1028.1"	"0"	"0"	"37.0"	"2.8"	"0"	"0"	"10.0"	"16.1"	"0"	"Variable"	"-9999.0"	"-9999.0"	"33.3"	"0.7"	"4.6"	"7.4"	
"20130310"	"Scattered Clouds"	"17"	"54"	"28.0"	"-2.2"	"0"	"0"	"-9999"	"-9999"	"73"	"partlycloudy"	"METAR KBOS 102154Z 10007KT 10SM FEW019 SCT250 02/M02 A3035 RMK AO2 SLP277 T00221022"	"-9999.00"	"-9999.00"	"30.35"	"1027.7"	"0"	"0"	"36.0"	"2.2"	"0"	"0"	"10.0"	"16.1"	"100"	"East"	"-9999.0"	"-9999.0"	"29.6"	"-1.3"	"8.1"	"13.0"	
"20130310"	"Partly Cloudy"	"18"	"54"	"28.9"	"-1.7"	"0"	"0"	"-9999"	"-9999"	"76"	"partlycloudy"	"METAR KBOS 102254Z 11009KT 10SM FEW120 02/M02 A3036 RMK AO2 SLP278 T00221017"	"-9999.00"	"-9999.00"	"30.35"	"1027.8"	"0"	"0"	"36.0"	"2.2"	"0"	"0"	"10.0"	"16.1"	"110"	"ESE"	"-9999.0"	"-9999.0"	"28.5"	"-2.0"	"10.4"	"16.7"	
"20130310"	"Mostly Cloudy"	"19"	"54"	"30.0"	"-1.1"	"0"	"0"	"-9999"	"-9999"	"79"	"mostlycloudy"	"METAR KBOS 102354Z 13010KT 10SM BKN200 02/M01 A3036 RMK AO2 SLP279 T00221011 10028 20022 55002"	"-9999.00"	"-9999.00"	"30.36"	"1027.9"	"0"	"0"	"36.0"	"2.2"	"0"	"0"	"10.0"	"16.1"	"130"	"SE"	"-9999.0"	"-9999.0"	"28.0"	"-2.2"	"11.5"	"18.5"	
"20130310"	"Scattered Clouds"	"20"	"54"	"30.0"	"-1.1"	"0"	"0"	"-9999"	"-9999"	"79"	"partlycloudy"	"METAR KBOS 110054Z 14008KT 10SM SCT200 SCT250 02/M01 A3036 RMK AO2 SLP279 T00221011"	"-9999.00"	"-9999.00"	"30.36"	"1027.9"	"0"	"0"	"36.0"	"2.2"	"0"	"0"	"10.0"	"16.1"	"140"	"SE"	"-9999.0"	"-9999.0"	"29.0"	"-1.6"	"9.2"	"14.8"	
"20130310"	"Scattered Clouds"	"21"	"54"	"30.0"	"-1.1"	"0"	"0"	"-9999"	"-9999"	"82"	"partlycloudy"	"METAR KBOS 110154Z 15009KT 10SM SCT140 SCT250 02/M01 A3034 RMK AO2 SLP275 T00171011"	"-9999.00"	"-9999.00"	"30.35"	"1027.5"	"0"	"0"	"35.1"	"1.7"	"0"	"0"	"10.0"	"16.1"	"150"	"SSE"	"-9999.0"	"-9999.0"	"27.4"	"-2.6"	"10.4"	"16.7"	
"20130310"	"Mostly Cloudy"	"22"	"54"	"30.0"	"-1.1"	"0"	"0"	"-9999"	"-9999"	"82"	"mostlycloudy"	"METAR KBOS 110254Z 18008KT 10SM BKN140 BKN250 02/M01 A3034 RMK AO2 SLP272 T00171011 58007"	"-9999.00"	"-9999.00"	"30.34"	"1027.2"	"0"	"0"	"35.1"	"1.7"	"0"	"0"	"10.0"	"16.1"	"180"	"South"	"-9999.0"	"-9999.0"	"27.9"	"-2.3"	"9.2"	"14.8"	
"20130310"	"Mostly Cloudy"	"23"	"30"	"30.2"	"-1.0"	"0"	"0"	"-9999"	"-9999"	"81"	"mostlycloudy"	"SPECI KBOS 110330Z 19008KT 10SM BKN016 BKN120 02/M01 A3034 RMK AO2"	"-9999.00"	"-9999.00"	"30.34"	"1027.3"	"0"	"0"	"35.6"	"2.0"	"0"	"0"	"10.0"	"16.1"	"190"	"South"	"-9999.0"	"-9999.0"	"28.6"	"-1.9"	"9.2"	"14.8"	
"20130310"	"Overcast"	"23"	"41"	"30.2"	"-1.0"	"0"	"0"	"-9999"	"-9999"	"81"	"cloudy"	"SPECI KBOS 110341Z 20007KT 10SM OVC014 02/M01 A3034 RMK AO2"	"-9999.00"	"-9999.00"	"30.34"	"1027.3"	"0"	"0"	"35.6"	"2.0"	"0"	"0"	"10.0"	"16.1"	"200"	"SSW"	"-9999.0"	"-9999.0"	"29.2"	"-1.5"	"8.1"	"13.0"	
"20130310"	"Overcast"	"23"	"54"	"30.0"	"-1.1"	"0"	"0"	"-9999"	"-9999"	"82"	"cloudy"	"METAR KBOS 110354Z 20007KT 10SM OVC014 02/M01 A3033 RMK AO2 SLP271 T00171011"	"-9999.00"	"-9999.00"	"30.33"	"1027.1"	"0"	"0"	"35.1"	"1.7"	"0"	"0"	"10.0"	"16.1"	"200"	"SSW"	"-9999.0"	"-9999.0"	"28.6"	"-1.9"	"8.1"	"13.0"	
"20130310"	"Overcast"	"00"	"12"	"30.2"	"-1.0"	"0"	"0"	"-9999"	"-9999"	"81"	"cloudy"	"SPECI KBOS 110412Z 20005KT 10SM OVC016 02/M01 A3033 RMK AO2"	"-9999.00"	"-9999.00"	"30.33"	"1027.0"	"0"	"0"	"35.6"	"2.0"	"0"	"0"	"10.0"	"16.1"	"200"	"SSW"	"-9999.0"	"-9999.0"	"30.7"	"-0.7"	"5.8"	"9.3"	
"20130310"	"Overcast"	"00"	"54"	"30.9"	"-0.6"	"0"	"0"	"-9999"	"-9999"	"85"	"cloudy"	"METAR KBOS 110454Z 20007KT 10SM OVC016 02/M01 A3033 RMK AO2 SLP269 T00171006 400281022"	"-9999.00"	"-9999.00"	"30.33"	"1026.9"	"0"	"0"	"35.1"	"1.7"	"0"	"0"	"10.0"	"16.1"	"200"	"SSW"	"-9999.0"	"-9999.0"	"28.6"	"-1.9"	"8.1"	"13.0"	
"20130309"	"Partly Cloudy"	"00"	"54"	"21.0"	"-6.1"	"0"	"0"	"-9999"	"-9999"	"52"	"partlycloudy"	"METAR KBOS 090554Z 01011KT 10SM FEW110 03/M06 A3015 RMK AO2 SLP210 T00281061 10056 20022 53006"	"-9999.00"	"-9999.00"	"30.15"	"1021.0"	"0"	"0"	"37.0"	"2.8"	"0"	"0"	"10.0"	"16.1"	"10"	"North"	"-9999.0"	"-9999.0"	"28.9"	"-1.7"	"12.7"	"20.4"	
"20130309"	"Partly Cloudy"	"01"	"54"	"21.0"	"-6.1"	"0"	"0"	"-9999"	"-9999"	"57"	"partlycloudy"	"METAR KBOS 090654Z 01012KT 10SM FEW100 02/M06 A3015 RMK AO2 SLP209 T00171061"	"-9999.00"	"-9999.00"	"30.15"	"1020.9"	"0"	"0"	"35.1"	"1.7"	"0"	"0"	"10.0"	"16.1"	"10"	"North"	"-9999.0"	"-9999.0"	"25.9"	"-3.4"	"13.8"	"22.2"	
"20130309"	"Partly Cloudy"	"02"	"54"	"21.0"	"-6.1"	"0"	"0"	"-9999"	"-9999"	"57"	"partlycloudy"	"METAR KBOS 090754Z 01011KT 10SM FEW100 02/M06 A3015 RMK AO2 SLP208 T00171061"	"-9999.00"	"-9999.00"	"30.15"	"1020.8"	"0"	"0"	"35.1"	"1.7"	"0"	"0"	"10.0"	"16.1"	"10"	"North"	"-9999.0"	"-9999.0"	"26.4"	"-3.1"	"12.7"	"20.4"	
"20130309"	"Partly Cloudy"	"03"	"54"	"19.9"	"-6.7"	"0"	"0"	"-9999"	"-9999"	"59"	"partlycloudy"	"METAR KBOS 090854Z 01011KT 10SM FEW100 01/M07 A3016 RMK AO2 SLP211 T00061067 53001"	"-9999.00"	"-9999.00"	"30.16"	"1021.1"	"0"	"0"	"33.1"	"0.6"	"0"	"0"	"10.0"	"16.1"	"10"	"North"	"-9999.0"	"-9999.0"	"23.9"	"-4.5"	"12.7"	"20.4"	
"20130309"	"Clear"	"04"	"54"	"19.9"	"-6.7"	"0"	"0"	"-9999"	"-9999"	"59"	"clear"	"METAR KBOS 090954Z 01011KT 10SM CLR 01/M07 A3018 RMK AO2 SLP218 T00061067"	"-9999.00"	"-9999.00"	"30.18"	"1021.8"	"0"	"0"	"33.1"	"0.6"	"0"	"0"	"10.0"	"16.1"	"10"	"North"	"-9999.0"	"-9999.0"	"23.9"	"-4.5"	"12.7"	"20.4"	
"20130309"	"Clear"	"05"	"54"	"19.9"	"-6.7"	"0"	"0"	"-9999"	"-9999"	"64"	"clear"	"METAR KBOS 091054Z 01013KT 10SM CLR M01/M07 A3020 RMK AO2 SLP225 T10061067"	"-9999.00"	"-9999.00"	"30.20"	"1022.5"	"0"	"0"	"30.9"	"-0.6"	"0"	"0"	"10.0"	"16.1"	"10"	"North"	"-9999.0"	"-9999.0"	"20.2"	"-6.5"	"15.0"	"24.1"	
"20130309"	"Clear"	"06"	"54"	"21.0"	"-6.1"	"0"	"0"	"-9999"	"-9999"	"64"	"clear"	"METAR KBOS 091154Z 01010KT 10SM CLR 00/M06 A3022 RMK AO2 SLP233 70020 T00001061 10028 21006 53021"	"-9999.00"	"-9999.00"	"30.22"	"1023.3"	"0"	"0"	"32.0"	"0.0"	"0"	"0"	"10.0"	"16.1"	"10"	"North"	"-9999.0"	"-9999.0"	"23.0"	"-5.0"	"11.5"	"18.5"	
"20130309"	"Clear"	"07"	"54"	"21.9"	"-5.6"	"0"	"0"	"-9999"	"-9999"	"61"	"clear"	"METAR KBOS 091254Z 01007KT 10SM CLR 01/M06 A3025 RMK AO2 SLP242 T00111056"	"-9999.00"	"-9999.00"	"30.25"	"1024.2"	"0"	"0"	"34.0"	"1.1"	"0"	"0"	"10.0"	"16.1"	"10"	"North"	"-9999.0"	"-9999.0"	"27.2"	"-2.6"	"8.1"	"13.0"	
"20130309"	"Clear"	"08"	"54"	"26.1"	"-3.3"	"0"	"0"	"-9999"	"-9999"	"67"	"clear"	"METAR KBOS 091354Z 03015KT 10SM CLR 02/M03 A3025 RMK AO2 SLP242 T00221033"	"-9999.00"	"-9999.00"	"30.25"	"1024.2"	"0"	"0"	"36.0"	"2.2"	"0"	"0"	"10.0"	"16.1"	"30"	"NNE"	"-9999.0"	"-9999.0"	"26.0"	"-3.4"	"17.3"	"27.8"	
"20130309"	"Clear"	"09"	"54"	"27.0"	"-2.8"	"0"	"0"	"-9999"	"-9999"	"67"	"clear"	"METAR KBOS 091454Z 03010KT 10SM CLR 03/M03 A3026 RMK AO2 SLP247 T00281028 51014 $"	"-9999.00"	"-9999.00"	"30.26"	"1024.7"	"0"	"0"	"37.0"	"2.8"	"0"	"0"	"10.0"	"16.1"	"30"	"NNE"	"-9999.0"	"-9999.0"	"29.3"	"-1.5"	"11.5"	"18.5"	
"20130309"	"Clear"	"10"	"54"	"27.0"	"-2.8"	"0"	"0"	"-9999"	"-9999"	"67"	"clear"	"METAR KBOS 091554Z 04013KT 10SM CLR 03/M03 A3027 RMK AO2 SLP249 T00281028"	"-9999.00"	"-9999.00"	"30.27"	"1024.9"	"0"	"0"	"37.0"	"2.8"	"0"	"0"	"10.0"	"16.1"	"40"	"NE"	"-9999.0"	"-9999.0"	"28.1"	"-2.2"	"15.0"	"24.1"	
"20130309"	"Partly Cloudy"	"11"	"54"	"26.1"	"-3.3"	"0"	"0"	"-9999"	"-9999"	"62"	"partlycloudy"	"METAR KBOS 091654Z 04012KT 10SM FEW100 03/M03 A3027 RMK AO2 SLP251 T00331033"	"-9999.00"	"-9999.00"	"30.27"	"1025.1"	"0"	"0"	"37.9"	"3.3"	"0"	"0"	"10.0"	"16.1"	"40"	"NE"	"-9999.0"	"-9999.0"	"29.6"	"-1.3"	"13.8"	"22.2"	
"20130309"	"Partly Cloudy"	"12"	"54"	"28.0"	"-2.2"	"0"	"0"	"-9999"	"-9999"	"70"	"partlycloudy"	"METAR KBOS 091754Z 07011KT 10SM FEW110 03/M02 A3027 RMK AO2 SLP249 T00281022 10033 20000 50003"	"-9999.00"	"-9999.00"	"30.27"	"1024.9"	"0"	"0"	"37.0"	"2.8"	"0"	"0"	"10.0"	"16.1"	"70"	"ENE"	"-9999.0"	"-9999.0"	"28.9"	"-1.7"	"12.7"	"20.4"	
"20130309"	"Partly Cloudy"	"13"	"54"	"28.9"	"-1.7"	"0"	"0"	"-9999"	"-9999"	"73"	"partlycloudy"	"METAR KBOS 091854Z 08013KT 10SM FEW020 03/M02 A3026 RMK AO2 SLP247 T00281017"	"-9999.00"	"-9999.00"	"30.26"	"1024.7"	"0"	"0"	"37.0"	"2.8"	"0"	"0"	"10.0"	"16.1"	"80"	"East"	"-9999.0"	"-9999.0"	"28.1"	"-2.2"	"15.0"	"24.1"	
"20130309"	"Partly Cloudy"	"14"	"54"	"28.9"	"-1.7"	"0"	"0"	"-9999"	"-9999"	"73"	"partlycloudy"	"METAR KBOS 091954Z 08011KT 10SM FEW020 03/M02 A3026 RMK AO2 SLP248 T00281017"	"-9999.00"	"-9999.00"	"30.27"	"1024.8"	"0"	"0"	"37.0"	"2.8"	"0"	"0"	"10.0"	"16.1"	"80"	"East"	"-9999.0"	"-9999.0"	"28.9"	"-1.7"	"12.7"	"20.4"	
"20130309"	"Partly Cloudy"	"15"	"54"	"28.9"	"-1.7"	"0"	"0"	"-9999"	"-9999"	"73"	"partlycloudy"	"METAR KBOS 092054Z 08011KT 10SM FEW020 03/M02 A3027 RMK AO2 SLP251 T00281017 53002"	"-9999.00"	"-9999.00"	"30.27"	"1025.1"	"0"	"0"	"37.0"	"2.8"	"0"	"0"	"10.0"	"16.1"	"80"	"East"	"-9999.0"	"-9999.0"	"28.9"	"-1.7"	"12.7"	"20.4"	
"20130309"	"Clear"	"16"	"54"	"28.9"	"-1.7"	"0"	"0"	"-9999"	"-9999"	"73"	"clear"	"METAR KBOS 092154Z 09008KT 10SM CLR 03/M02 A3029 RMK AO2 SLP257 T00281017"	"-9999.00"	"-9999.00"	"30.29"	"1025.7"	"0"	"0"	"37.0"	"2.8"	"0"	"0"	"10.0"	"16.1"	"90"	"East"	"-9999.0"	"-9999.0"	"30.4"	"-0.9"	"9.2"	"14.8"	
"20130309"	"Partly Cloudy"	"17"	"54"	"28.9"	"-1.7"	"0"	"0"	"-9999"	"-9999"	"76"	"partlycloudy"	"METAR KBOS 092254Z 07006KT 10SM FEW300 02/M02 A3032 RMK AO2 SLP265 T00221017"	"-9999.00"	"-9999.00"	"30.32"	"1026.5"	"0"	"0"	"36.0"	"2.2"	"0"	"0"	"10.0"	"16.1"	"70"	"ENE"	"-9999.0"	"-9999.0"	"30.3"	"-0.9"	"6.9"	"11.1"	
"20130309"	"Clear"	"18"	"54"	"28.9"	"-1.7"	"0"	"0"	"-9999"	"-9999"	"78"	"clear"	"METAR KBOS 092354Z 08007KT 10SM CLR 02/M02 A3032 RMK AO2 SLP268 T00171017 10033 20017 51017"	"-9999.00"	"-9999.00"	"30.32"	"1026.8"	"0"	"0"	"35.1"	"1.7"	"0"	"0"	"10.0"	"16.1"	"80"	"East"	"-9999.0"	"-9999.0"	"28.6"	"-1.9"	"8.1"	"13.0"	
"20130309"	"Clear"	"19"	"54"	"30.0"	"-1.1"	"0"	"0"	"-9999"	"-9999"	"82"	"clear"	"METAR KBOS 100054Z 06007KT 10SM CLR 02/M01 A3033 RMK AO2 SLP269 T00171011"	"-9999.00"	"-9999.00"	"30.33"	"1026.9"	"0"	"0"	"35.1"	"1.7"	"0"	"0"	"10.0"	"16.1"	"60"	"ENE"	"-9999.0"	"-9999.0"	"28.6"	"-1.9"	"8.1"	"13.0"	
"20130309"	"Clear"	"20"	"54"	"28.9"	"-1.7"	"0"	"0"	"-9999"	"-9999"	"82"	"clear"	"METAR KBOS 100154Z 05004KT 10SM CLR 01/M02 A3034 RMK AO2 SLP274 T00111017"	"-9999.00"	"-9999.00"	"30.34"	"1027.4"	"0"	"0"	"34.0"	"1.1"	"0"	"0"	"10.0"	"16.1"	"50"	"NE"	"-9999.0"	"-9999.0"	"29.8"	"-1.2"	"4.6"	"7.4"	
"20130309"	"Partly Cloudy"	"21"	"54"	"28.9"	"-1.7"	"0"	"0"	"-9999"	"-9999"	"78"	"partlycloudy"	"METAR KBOS 100254Z 34005KT 10SM FEW010 02/M02 A3036 RMK AO2 SLP280 T00171017 53012"	"-9999.00"	"-9999.00"	"30.36"	"1028.0"	"0"	"0"	"35.1"	"1.7"	"0"	"0"	"10.0"	"16.1"	"340"	"NNW"	"-9999.0"	"-9999.0"	"30.1"	"-1.1"	"5.8"	"9.3"	
"20130309"	"Partly Cloudy"	"22"	"54"	"27.0"	"-2.8"	"0"	"0"	"-9999"	"-9999"	"82"	"partlycloudy"	"METAR KBOS 100354Z 36005KT 10SM FEW010 00/M03 A3035 RMK AO2 SLP275 T00001028"	"-9999.00"	"-9999.00"	"30.35"	"1027.5"	"0"	"0"	"32.0"	"0.0"	"0"	"0"	"10.0"	"16.1"	"360"	"North"	"-9999.0"	"-9999.0"	"26.4"	"-3.1"	"5.8"	"9.3"	
"20130309"	"Partly Cloudy"	"23"	"54"	"28.0"	"-2.2"	"0"	"0"	"-9999"	"-9999"	"82"	"partlycloudy"	"METAR KBOS 100454Z 34006KT 10SM FEW010 01/M02 A3036 RMK AO2 SLP278 T00061022 400331006"	"-9999.00"	"-9999.00"	"30.35"	"1027.8"	"0"	"0"	"33.1"	"0.6"	"0"	"0"	"10.0"	"16.1"	"340"	"NNW"	"-9999.0"	"-9999.0"	"26.9"	"-2.8"	"6.9"	"11.1"	
"20130308"	"Light Snow"	"00"	"54"	"28.9"	"-1.7"	"0"	"0"	"-9999"	"-9999"	"100"	"snow"	"METAR KBOS 080554Z 36014KT 1SM R04R/5000V6000FT -SN BR BKN008 OVC014 M02/M02 A2998 RMK AO2 SLP150 P0002 60005 T10171017 11006 21017 58009"	"0.02"	"0.5"	"29.98"	"1015.0"	"0"	"1"	"28.9"	"-1.7"	"0"	"0"	"1.0"	"1.6"	"360"	"North"	"-9999.0"	"-9999.0"	"17.3"	"-8.2"	"16.1"	"25.9"	
"20130308"	"Light Snow"	"01"	"35"	"28.4"	"-2.0"	"0"	"0"	"-9999"	"-9999"	"100"	"snow"	"SPECI KBOS 080635Z 36014KT 3/4SM R04R/5500VP6000FT -SN BR VV009 M02/M02 A2997 RMK AO2 TWR VIS 1 P0001"	"0.01"	"0.3"	"29.97"	"1014.8"	"0"	"1"	"28.4"	"-2.0"	"0"	"0"	"0.8"	"1.2"	"360"	"North"	"-9999.0"	"-9999.0"	"16.6"	"-8.6"	"16.1"	"25.9"	
"20130308"	"Light Snow"	"01"	"52"	"28.4"	"-2.0"	"0"	"0"	"-9999"	"-9999"	"100"	"snow"	"SPECI KBOS 080652Z 01016G22KT 1SM R04R/6000VP6000FT -SN BR VV009 M02/M02 A2996 RMK AO2 P0002"	"0.02"	"0.5"	"29.96"	"1014.4"	"0"	"1"	"28.4"	"-2.0"	"0"	"0"	"1.0"	"1.6"	"10"	"North"	"25.3"	"40.7"	"15.8"	"-9.0"	"18.4"	"29.6"	
"20130308"	"Light Snow"	"01"	"54"	"28.0"	"-2.2"	"0"	"0"	"-9999"	"-9999"	"96"	"snow"	"METAR KBOS 080654Z 01015G22KT 1SM R04R/P6000FT -SN BR VV009 M02/M02 A2996 RMK AO2 SLP145 P0002 T10171022"	"0.02"	"0.5"	"29.96"	"1014.5"	"0"	"1"	"28.9"	"-1.7"	"0"	"0"	"1.0"	"1.6"	"10"	"North"	"25.3"	"40.7"	"16.9"	"-8.4"	"17.3"	"27.8"	
"20130308"	"Light Snow"	"02"	"03"	"28.4"	"-2.0"	"0"	"0"	"-9999"	"-9999"	"100"	"snow"	"SPECI KBOS 080703Z 01015G22KT 1SM R04R/P6000FT -SN BR OVC010 M02/M02 A2996 RMK AO2 P0000"	"0.00"	"0.0"	"29.96"	"1014.4"	"0"	"1"	"28.4"	"-2.0"	"0"	"0"	"1.0"	"1.6"	"10"	"North"	"25.3"	"40.7"	"16.2"	"-8.8"	"17.3"	"27.8"	
"20130308"	"Light Snow"	"02"	"54"	"28.0"	"-2.2"	"0"	"0"	"-9999"	"-9999"	"96"	"snow"	"METAR KBOS 080754Z 01017G23KT 1SM -SN BR OVC014 M02/M02 A2994 RMK AO2 SFC VIS 1 3/4 SLP139 P0001 T10171022"	"0.01"	"0.3"	"29.94"	"1013.9"	"0"	"1"	"28.9"	"-1.7"	"0"	"0"	"1.0"	"1.6"	"10"	"North"	"26.5"	"42.6"	"16.1"	"-8.8"	"19.6"	"31.5"	
"20130308"	"Light Snow"	"03"	"54"	"28.0"	"-2.2"	"0"	"0"	"-9999"	"-9999"	"96"	"snow"	"METAR KBOS 080854Z 01016G22KT 1SM R04R/P6000FT -SN BR VV009 M02/M02 A2994 RMK AO2 SLP138 P0001 60004 T10171022 58006"	"0.01"	"0.3"	"29.94"	"1013.8"	"0"	"1"	"28.9"	"-1.7"	"0"	"0"	"1.0"	"1.6"	"10"	"North"	"25.3"	"40.7"	"16.5"	"-8.6"	"18.4"	"29.6"	
"20130308"	"Light Snow"	"04"	"01"	"28.4"	"-2.0"	"0"	"0"	"-9999"	"-9999"	"100"	"snow"	"SPECI KBOS 080901Z 01015G22KT 3/4SM R04R/6000VP6000FT -SN BR VV009 M02/M02 A2994 RMK AO2 TWR VIS 1 P0000"	"0.00"	"0.0"	"29.94"	"1013.8"	"0"	"1"	"28.4"	"-2.0"	"0"	"0"	"0.8"	"1.2"	"10"	"North"	"25.3"	"40.7"	"16.2"	"-8.8"	"17.3"	"27.8"	
"20130308"	"Light Snow"	"04"	"14"	"28.4"	"-2.0"	"0"	"0"	"-9999"	"-9999"	"100"	"snow"	"SPECI KBOS 080914Z 01017G24KT 1SM R04R/6000VP6000FT -SN BR VV010 M02/M02 A2994 RMK AO2 P0001"	"0.01"	"0.3"	"29.94"	"1013.8"	"0"	"1"	"28.4"	"-2.0"	"0"	"0"	"1.0"	"1.6"	"10"	"North"	"27.6"	"44.4"	"15.4"	"-9.2"	"19.6"	"31.5"	
"20130308"	"Light Snow"	"04"	"54"	"28.0"	"-2.2"	"0"	"0"	"-9999"	"-9999"	"96"	"snow"	"METAR KBOS 080954Z 01016G21KT 1SM R04R/P6000FT -SN BR VV011 M02/M02 A2994 RMK AO2 SLP137 P0002 T10171022"	"0.02"	"0.5"	"29.94"	"1013.7"	"0"	"1"	"28.9"	"-1.7"	"0"	"0"	"1.0"	"1.6"	"10"	"North"	"24.2"	"38.9"	"16.5"	"-8.6"	"18.4"	"29.6"	
"20130308"	"Light Snow"	"05"	"14"	"28.4"	"-2.0"	"0"	"0"	"-9999"	"-9999"	"100"	"snow"	"SPECI KBOS 081014Z 01014KT 3/4SM R04R/P6000FT -SN BR VV010 M02/M02 A2994 RMK AO2 TWR VIS 1 P0001"	"0.01"	"0.3"	"29.94"	"1013.8"	"0"	"1"	"28.4"	"-2.0"	"0"	"0"	"0.8"	"1.2"	"10"	"North"	"-9999.0"	"-9999.0"	"16.6"	"-8.6"	"16.1"	"25.9"	
"20130308"	"Light Snow"	"05"	"21"	"28.4"	"-2.0"	"0"	"0"	"-9999"	"-9999"	"100"	"snow"	"SPECI KBOS 081021Z 01015G20KT 3/4SM R04R/P6000FT -SN BR VV009 M02/M02 A2995 RMK AO2 TWR VIS 1 P0001"	"0.01"	"0.3"	"29.95"	"1014.1"	"0"	"1"	"28.4"	"-2.0"	"0"	"0"	"0.8"	"1.2"	"10"	"North"	"23.0"	"37.0"	"16.2"	"-8.8"	"17.3"	"27.8"	
"20130308"	"Light Snow"	"05"	"54"	"28.0"	"-2.2"	"0"	"0"	"-9999"	"-9999"	"100"	"snow"	"METAR KBOS 081054Z 01013KT 3/4SM R04R/4000VP6000FT -SN BR VV007 M02/M02 A2995 RMK AO2 TWR VIS 1 SLP139 P0003 T10221022"	"0.03"	"0.8"	"29.94"	"1013.9"	"0"	"1"	"28.0"	"-2.2"	"0"	"0"	"0.8"	"1.2"	"10"	"North"	"-9999.0"	"-9999.0"	"16.5"	"-8.6"	"15.0"	"24.1"	
"20130308"	"Heavy Snow"	"06"	"54"	"28.0"	"-2.2"	"1"	"0"	"-9999"	"-9999"	"100"	"snow"	"METAR KBOS 081154Z 36016G22KT 1/4SM R04R/2400V3500FT +SN FZFG VV005 M02/M02 A2996 RMK AO2 TWR VIS 1/2 SLP144 P0005 60014 70024 T10221022 11017 21022 53006"	"0.05"	"1.3"	"29.96"	"1014.4"	"0"	"1"	"28.0"	"-2.2"	"0"	"0"	"0.2"	"0.4"	"360"	"North"	"25.3"	"40.7"	"15.3"	"-9.3"	"18.4"	"29.6"	
"20130308"	"Heavy Snow"	"07"	"54"	"28.0"	"-2.2"	"1"	"0"	"-9999"	"-9999"	"100"	"snow"	"METAR KBOS 081254Z 01014KT 1/4SM R04R/2400V3500FT +SN FZFG VV006 M02/M02 A2997 RMK AO2 TWR VIS 1/2 SLP147 P0004 T10221022"	"0.04"	"1.0"	"29.97"	"1014.7"	"0"	"1"	"28.0"	"-2.2"	"0"	"0"	"0.2"	"0.4"	"10"	"North"	"-9999.0"	"-9999.0"	"16.1"	"-8.8"	"16.1"	"25.9"	
"20130308"	"Light Snow"	"08"	"54"	"27.0"	"-2.8"	"0"	"0"	"-9999"	"-9999"	"96"	"snow"	"METAR KBOS 081354Z 01016G24KT 1/2SM R04R/3000V5500FT -SN BR BKN009 OVC014 M02/M03 A2996 RMK AO2 SFC VIS 3/4 SLP145 P0003 T10221028"	"0.03"	"0.8"	"29.96"	"1014.5"	"0"	"1"	"28.0"	"-2.2"	"0"	"0"	"0.5"	"0.8"	"10"	"North"	"27.6"	"44.4"	"15.3"	"-9.3"	"18.4"	"29.6"	
"20130308"	"Snow"	"09"	"54"	"27.0"	"-2.8"	"1"	"0"	"-9999"	"-9999"	"96"	"snow"	"METAR KBOS 081454Z 36018G23KT 1/2SM R04R/2400V4000FT SN BLSN FZFG OVC009 M02/M03 A2997 RMK AO2 SLP148 P0002 60009 T10221028 53004"	"0.02"	"0.5"	"29.97"	"1014.8"	"0"	"1"	"28.0"	"-2.2"	"0"	"0"	"0.5"	"0.8"	"360"	"North"	"26.5"	"42.6"	"14.6"	"-9.7"	"20.7"	"33.3"	
"20130308"	"Snow"	"10"	"07"	"26.6"	"-3.0"	"1"	"0"	"-9999"	"-9999"	"93"	"snow"	"SPECI KBOS 081507Z 01012G21KT 1/2SM R04R/2600V5000FT SN BLSN FZFG BKN011 OVC015 M02/M03 A2998 RMK AO2 P0001"	"0.01"	"0.3"	"29.98"	"1015.1"	"0"	"1"	"28.4"	"-2.0"	"0"	"0"	"0.5"	"0.8"	"10"	"North"	"24.2"	"38.9"	"17.5"	"-8.1"	"13.8"	"22.2"	
"20130308"	"Snow"	"10"	"32"	"26.6"	"-3.0"	"1"	"0"	"-9999"	"-9999"	"93"	"snow"	"SPECI KBOS 081532Z 36013G22KT 1/2SM R04R/2600V3500FT SN BLSN FZFG BKN009 OVC014 M02/M03 A2999 RMK AO2 P0002"	"0.02"	"0.5"	"29.99"	"1015.5"	"0"	"1"	"28.4"	"-2.0"	"0"	"0"	"0.5"	"0.8"	"360"	"North"	"25.3"	"40.7"	"17.0"	"-8.3"	"15.0"	"24.1"	
"20130308"	"Snow"	"10"	"54"	"27.0"	"-2.8"	"1"	"0"	"-9999"	"-9999"	"96"	"snow"	"METAR KBOS 081554Z 36013G20KT 1/2SM R04R/2000V3500FT SN FZFG BKN008 OVC013 M02/M03 A2999 RMK AO2 SLP155 P0004 T10221028"	"0.04"	"1.0"	"29.99"	"1015.5"	"0"	"1"	"28.0"	"-2.2"	"0"	"0"	"0.5"	"0.8"	"360"	"North"	"23.0"	"37.0"	"16.5"	"-8.6"	"15.0"	"24.1"	
"20130308"	"Snow"	"11"	"04"	"26.6"	"-3.0"	"1"	"0"	"-9999"	"-9999"	"93"	"snow"	"SPECI KBOS 081604Z 36016G23KT 1/2SM R04R/2400V4000FT SN FZFG OVC010 M02/M03 A2999 RMK AO2 P0000"	"0.00"	"0.0"	"29.99"	"1015.5"	"0"	"1"	"28.4"	"-2.0"	"0"	"0"	"0.5"	"0.8"	"360"	"North"	"26.5"	"42.6"	"15.8"	"-9.0"	"18.4"	"29.6"	
"20130308"	"Snow"	"11"	"54"	"28.0"	"-2.2"	"1"	"0"	"-9999"	"-9999"	"96"	"snow"	"METAR KBOS 081654Z 01016G22KT 1/2SM R04R/2400V3500FT SN FZFG VV009 M02/M02 A3001 RMK AO2 SLP161 P0003 T10171022"	"0.03"	"0.8"	"30.01"	"1016.1"	"0"	"1"	"28.9"	"-1.7"	"0"	"0"	"0.5"	"0.8"	"10"	"North"	"25.3"	"40.7"	"16.5"	"-8.6"	"18.4"	"29.6"	
"20130308"	"Snow"	"12"	"25"	"28.4"	"-2.0"	"1"	"0"	"-9999"	"-9999"	"100"	"snow"	"SPECI KBOS 081725Z 01017G23KT 1/2SM R04R/3000V4000FT SN FZFG OVC010 M02/M02 A3001 RMK AO2 P0001"	"0.01"	"0.3"	"30.01"	"1016.1"	"0"	"1"	"28.4"	"-2.0"	"0"	"0"	"0.5"	"0.8"	"10"	"North"	"26.5"	"42.6"	"15.4"	"-9.2"	"19.6"	"31.5"	
"20130308"	"Snow"	"12"	"54"	"28.9"	"-1.7"	"1"	"0"	"-9999"	"-9999"	"96"	"snow"	"METAR KBOS 081754Z 01015G21KT 1/2SM R04R/2600V3500FT SN BLSN FZFG BKN010 OVC015 M01/M02 A3000 RMK AO2 SLP158 P0002 60018 T10111017 11011 21022 50010"	"0.02"	"0.5"	"30.00"	"1015.8"	"0"	"1"	"30.0"	"-1.1"	"0"	"0"	"0.5"	"0.8"	"10"	"North"	"24.2"	"38.9"	"18.3"	"-7.6"	"17.3"	"27.8"	
"20130308"	"Light Snow"	"13"	"37"	"30.2"	"-1.0"	"0"	"0"	"-9999"	"-9999"	"100"	"snow"	"SPECI KBOS 081837Z 01018KT 1/2SM R04R/3500VP6000FT -SN BR FEW008 OVC015 M01/M01 A3000 RMK AO2 SFC VIS 3/4 P0002"	"0.02"	"0.5"	"30.00"	"1015.8"	"0"	"1"	"30.2"	"-1.0"	"0"	"0"	"0.5"	"0.8"	"10"	"North"	"-9999.0"	"-9999.0"	"17.4"	"-8.1"	"20.7"	"33.3"	
"20130308"	"Light Snow"	"13"	"51"	"28.4"	"-2.0"	"0"	"0"	"-9999"	"-9999"	"87"	"snow"	"SPECI KBOS 081851Z 01020G29KT 1 1/2SM -SN BR FEW014 SCT021 OVC035 00/M02 A3000 RMK AO2 PK WND 01029/1849 SFC VIS 5 CIG 023 E P0002"	"0.02"	"0.5"	"30.00"	"1015.8"	"0"	"1"	"32.0"	"0.0"	"0"	"0"	"1.5"	"2.4"	"10"	"North"	"33.4"	"53.7"	"19.2"	"-7.1"	"23.0"	"37.0"	
"20130308"	"Light Snow"	"13"	"54"	"28.0"	"-2.2"	"0"	"0"	"-9999"	"-9999"	"82"	"snow"	"METAR KBOS 081854Z 02022G30KT 1 1/2SM -SN SCT023 OVC035 01/M02 A3000 RMK AO2 PK WND 03030/1852 SFC VIS 6 CIG 023 E SLP158 P0002 T00061022"	"0.02"	"0.5"	"30.00"	"1015.8"	"0"	"1"	"33.1"	"0.6"	"0"	"0"	"1.5"	"2.4"	"20"	"NNE"	"34.5"	"55.6"	"20.1"	"-6.6"	"25.3"	"40.7"	
"20130308"	"Light Snow"	"14"	"24"	"28.4"	"-2.0"	"0"	"0"	"-9999"	"-9999"	"81"	"snow"	"SPECI KBOS 081924Z 03021G34KT 1 1/2SM R04R/5000VP6000FT -SN BKN025 OVC033 01/M02 A3001 RMK AO2 PK WND 03037/1859 SFC VIS 1 3/4 P0000"	"0.00"	"0.0"	"30.01"	"1016.1"	"0"	"1"	"33.8"	"1.0"	"0"	"0"	"1.5"	"2.4"	"30"	"NNE"	"39.1"	"63.0"	"21.3"	"-5.9"	"24.2"	"38.9"	
"20130308"	"Light Snow"	"14"	"54"	"30.9"	"-0.6"	"0"	"0"	"-9999"	"-9999"	"85"	"snow"	"METAR KBOS 081954Z 02023G31KT 1 1/2SM -SN BR BKN032 OVC040 02/M01 A3001 RMK AO2 PK WND 02040/1942 SFC VIS 4 SLP161 P0000 T00171006"	"0.00"	"0.0"	"30.01"	"1016.1"	"0"	"1"	"35.1"	"1.7"	"0"	"0"	"1.5"	"2.4"	"20"	"NNE"	"35.7"	"57.4"	"22.5"	"-5.3"	"26.5"	"42.6"	
"20130308"	"Light Snow"	"15"	"20"	"26.6"	"-3.0"	"0"	"0"	"-9999"	"-9999"	"70"	"snow"	"SPECI KBOS 082020Z 02030G40KT 1 1/2SM -SN BKN026 OVC036 02/M03 A3002 RMK AO2 PK WND 04040/2013 SFC VIS 4 P0000"	"0.00"	"0.0"	"30.02"	"1016.5"	"0"	"1"	"35.6"	"2.0"	"0"	"0"	"1.5"	"2.4"	"20"	"NNE"	"46.0"	"74.1"	"21.7"	"-5.7"	"34.5"	"55.6"	
"20130308"	"Light Snow"	"15"	"54"	"27.0"	"-2.8"	"0"	"0"	"-9999"	"-9999"	"67"	"snow"	"METAR KBOS 082054Z 03031G42KT 3SM -SN BKN024 OVC037 03/M03 A3003 RMK AO2 PK WND 04042/2054 SFC VIS 5 SLP169 P0000 60002 T00281028 53011"	"0.00"	"0.0"	"30.03"	"1016.9"	"0"	"1"	"37.0"	"2.8"	"0"	"0"	"3.0"	"4.8"	"30"	"NNE"	"48.3"	"77.8"	"23.5"	"-4.7"	"35.7"	"57.4"	
"20130308"	"Overcast"	"16"	"47"	"26.6"	"-3.0"	"0"	"0"	"-9999"	"-9999"	"61"	"cloudy"	"SPECI KBOS 082147Z 03023G33KT 10SM BKN033 BKN045 OVC055 04/M03 A3005 RMK AO2 PK WND 04038/2121 RAB32E36SNE32 P0000"	"0.00"	"0.0"	"30.05"	"1017.5"	"0"	"0"	"39.2"	"4.0"	"0"	"0"	"10.0"	"16.1"	"30"	"NNE"	"38.0"	"61.1"	"28.0"	"-2.2"	"26.5"	"42.6"	
"20130308"	"Overcast"	"16"	"54"	"25.0"	"-3.9"	"0"	"0"	"-9999"	"-9999"	"57"	"cloudy"	"METAR KBOS 082154Z 03017G33KT 10SM BKN035 OVC055 04/M04 A3006 RMK AO2 PK WND 04038/2121 RAB32E36SNE32 SLP177 P0000 T00391039"	"0.00"	"0.0"	"30.06"	"1017.7"	"0"	"0"	"39.0"	"3.9"	"0"	"0"	"10.0"	"16.1"	"30"	"NNE"	"38.0"	"61.1"	"29.3"	"-1.5"	"19.6"	"31.5"	
"20130308"	"Overcast"	"17"	"54"	"25.0"	"-3.9"	"0"	"0"	"-9999"	"-9999"	"55"	"cloudy"	"METAR KBOS 082254Z 02013KT 10SM FEW035 BKN050 OVC070 04/M04 A3008 RMK AO2 PK WND 03027/2217 SLP185 T00441039"	"-9999.00"	"-9999.00"	"30.08"	"1018.5"	"0"	"0"	"39.9"	"4.4"	"0"	"0"	"10.0"	"16.1"	"20"	"NNE"	"-9999.0"	"-9999.0"	"31.8"	"-0.1"	"15.0"	"24.1"	
"20130308"	"Mostly Cloudy"	"18"	"54"	"24.1"	"-4.4"	"0"	"0"	"-9999"	"-9999"	"51"	"mostlycloudy"	"METAR KBOS 082354Z 01012KT 10SM FEW050 BKN090 05/M04 A3009 RMK AO2 SLP190 60002 T00501044 10050 21011 51021"	"-9999.00"	"-9999.00"	"30.09"	"1019.0"	"0"	"0"	"41.0"	"5.0"	"0"	"0"	"10.0"	"16.1"	"10"	"North"	"-9999.0"	"-9999.0"	"33.5"	"0.8"	"13.8"	"22.2"	
"20130308"	"Mostly Cloudy"	"19"	"54"	"23.0"	"-5.0"	"0"	"0"	"-9999"	"-9999"	"49"	"mostlycloudy"	"METAR KBOS 090054Z 01013KT 10SM FEW050 BKN110 05/M05 A3010 RMK AO2 SLP193 T00501050"	"-9999.00"	"-9999.00"	"30.10"	"1019.3"	"0"	"0"	"41.0"	"5.0"	"0"	"0"	"10.0"	"16.1"	"10"	"North"	"-9999.0"	"-9999.0"	"33.1"	"0.6"	"15.0"	"24.1"	
"20130308"	"Partly Cloudy"	"20"	"54"	"21.0"	"-6.1"	"0"	"0"	"-9999"	"-9999"	"45"	"partlycloudy"	"METAR KBOS 090154Z 35013KT 10SM FEW110 05/M06 A3012 RMK AO2 SLP198 T00501061"	"-9999.00"	"-9999.00"	"30.12"	"1019.8"	"0"	"0"	"41.0"	"5.0"	"0"	"0"	"10.0"	"16.1"	"350"	"North"	"-9999.0"	"-9999.0"	"33.1"	"0.6"	"15.0"	"24.1"	
"20130308"	"Partly Cloudy"	"21"	"54"	"21.9"	"-5.6"	"0"	"0"	"-9999"	"-9999"	"50"	"partlycloudy"	"METAR KBOS 090254Z 01016KT 10SM FEW110 04/M06 A3014 RMK AO2 PK WND 03028/0238 SLP204 T00391056 53014"	"-9999.00"	"-9999.00"	"30.14"	"1020.4"	"0"	"0"	"39.0"	"3.9"	"0"	"0"	"10.0"	"16.1"	"10"	"North"	"-9999.0"	"-9999.0"	"29.6"	"-1.3"	"18.4"	"29.6"	
"20130308"	"Partly Cloudy"	"22"	"54"	"21.9"	"-5.6"	"0"	"0"	"-9999"	"-9999"	"53"	"partlycloudy"	"METAR KBOS 090354Z 36012G18KT 10SM FEW100 03/M06 A3014 RMK AO2 SLP206 T00331056"	"-9999.00"	"-9999.00"	"30.14"	"1020.6"	"0"	"0"	"37.9"	"3.3"	"0"	"0"	"10.0"	"16.1"	"360"	"North"	"20.7"	"33.3"	"29.6"	"-1.3"	"13.8"	"22.2"	
"20130308"	"Partly Cloudy"	"23"	"54"	"21.0"	"-6.1"	"0"	"0"	"-9999"	"-9999"	"52"	"partlycloudy"	"METAR KBOS 090454Z 36011KT 10SM FEW100 03/M06 A3014 RMK AO2 SLP206 T00281061 400561022"	"-9999.00"	"-9999.00"	"30.14"	"1020.6"	"0"	"0"	"37.0"	"2.8"	"0"	"0"	"10.0"	"16.1"	"360"	"North"	"-9999.0"	"-9999.0"	"28.9"	"-1.7"	"12.7"	"20.4"	
"20130307"	"Overcast"	"00"	"54"	"28.9"	"-1.7"	"0"	"0"	"-9999"	"-9999"	"76"	"cloudy"	"METAR KBOS 070554Z 05026G34KT 10SM OVC027 02/M02 A3005 RMK AO2 PK WND 05038/0504 SLP176 60000 T00221017 10033 20017 56007"	"-9999.00"	"-9999.00"	"30.05"	"1017.6"	"0"	"0"	"36.0"	"2.2"	"0"	"0"	"10.0"	"16.1"	"50"	"NE"	"39.1"	"63.0"	"23.0"	"-5.0"	"29.9"	"48.2"	
"20130307"	"Overcast"	"01"	"54"	"28.0"	"-2.2"	"0"	"0"	"-9999"	"-9999"	"73"	"cloudy"	"METAR KBOS 070654Z 04020G32KT 10SM OVC028 02/M02 A3003 RMK AO2 PK WND 06035/0557 SLP166 T00221022"	"-9999.00"	"-9999.00"	"30.02"	"1016.6"	"0"	"0"	"36.0"	"2.2"	"0"	"0"	"10.0"	"16.1"	"40"	"NE"	"36.8"	"59.3"	"24.4"	"-4.2"	"23.0"	"37.0"	
"20130307"	"Light Rain"	"02"	"54"	"28.9"	"-1.7"	"0"	"0"	"-9999"	"-9999"	"76"	"rain"	"METAR KBOS 070754Z 04027G35KT 6SM -RA OVC024 02/M02 A3001 RMK AO2 PK WND 04036/0703 SLP162 P0000 T00221017"	"0.00"	"0.0"	"30.01"	"1016.2"	"1"	"0"	"36.0"	"2.2"	"0"	"0"	"6.0"	"9.7"	"40"	"NE"	"40.3"	"64.8"	"22.8"	"-5.1"	"31.1"	"50.0"	
"20130307"	"Light Snow"	"03"	"51"	"28.4"	"-2.0"	"0"	"0"	"-9999"	"-9999"	"81"	"snow"	"SPECI KBOS 070851Z 03028G34KT 1SM -SN FEW010 OVC015 01/M02 A3001 RMK AO2 PK WND 04038/0836 SFC VIS 1 3/4 RAE49SNB49 P0000"	"0.00"	"0.0"	"30.01"	"1016.1"	"0"	"1"	"33.8"	"1.0"	"0"	"0"	"1.0"	"1.6"	"30"	"NNE"	"39.1"	"63.0"	"19.6"	"-6.9"	"32.2"	"51.9"	
"20130307"	"Light Snow"	"03"	"52"	"28.9"	"-1.7"	"0"	"0"	"-9999"	"-9999"	"82"	"snow"	"METAR KBOS 070852Z 03025G33KT 1SM -SN BLSN FEW010 OVC015 01/M02 A3001 RMK AO2 PK WND 04038/0836 SFC VIS 1 1/2 RAE49SNB49 SLP162 P0000 60000 T00111017 55013"	"0.00"	"0.0"	"30.01"	"1016.2"	"0"	"1"	"34.0"	"1.1"	"0"	"0"	"1.0"	"1.6"	"30"	"NNE"	"38.0"	"61.1"	"20.5"	"-6.4"	"28.8"	"46.3"	
"20130307"	"Light Snow"	"04"	"34"	"30.2"	"-1.0"	"0"	"0"	"-9999"	"-9999"	"87"	"snow"	"SPECI KBOS 070934Z 02023G28KT 1SM -SN BLSN BKN009 OVC015 01/M01 A3001 RMK AO2 PK WND 03030/0910 SFC VIS 2 1/2 P0002"	"0.02"	"0.5"	"30.01"	"1016.1"	"0"	"1"	"33.8"	"1.0"	"0"	"0"	"1.0"	"1.6"	"20"	"NNE"	"32.2"	"51.9"	"20.8"	"-6.2"	"26.5"	"42.6"	
"20130307"	"Light Snow"	"04"	"36"	"30.2"	"-1.0"	"0"	"0"	"-9999"	"-9999"	"87"	"snow"	"SPECI KBOS 070936Z 02021G28KT 1SM R04R/P6000FT -SN BLSN OVC011 01/M01 A3001 RMK AO2 PK WND 03030/0910 TWR VIS 2 P0002"	"0.02"	"0.5"	"30.01"	"1016.1"	"0"	"1"	"33.8"	"1.0"	"0"	"0"	"1.0"	"1.6"	"20"	"NNE"	"32.2"	"51.9"	"21.3"	"-5.9"	"24.2"	"38.9"	
"20130307"	"Light Snow"	"04"	"54"	"30.0"	"-1.1"	"0"	"0"	"-9999"	"-9999"	"89"	"snow"	"METAR KBOS 070954Z 02020G30KT 1 1/2SM -SN BLSN OVC011 01/M01 A3001 RMK AO2 PK WND 02030/0952 TWR VIS 2 SLP161 P0002 T00061011"	"0.02"	"0.5"	"30.01"	"1016.1"	"0"	"1"	"33.1"	"0.6"	"0"	"0"	"1.5"	"2.4"	"20"	"NNE"	"34.5"	"55.6"	"20.6"	"-6.3"	"23.0"	"37.0"	
"20130307"	"Light Snow"	"05"	"54"	"30.0"	"-1.1"	"0"	"0"	"-9999"	"-9999"	"89"	"snow"	"METAR KBOS 071054Z 02024G32KT 1 1/2SM -SN BLSN OVC013 01/M01 A3002 RMK AO2 PK WND 02033/1030 TWR VIS 2 SLP165 P0000 T00061011"	"0.00"	"0.0"	"30.02"	"1016.5"	"0"	"1"	"33.1"	"0.6"	"0"	"0"	"1.5"	"2.4"	"20"	"NNE"	"36.8"	"59.3"	"19.6"	"-6.9"	"27.6"	"44.4"	
"20130307"	"Light Snow"	"06"	"22"	"30.2"	"-1.0"	"0"	"0"	"-9999"	"-9999"	"87"	"snow"	"SPECI KBOS 071122Z 02025G34KT 1/2SM R04R/5000VP6000FT -SN BLSN OVC011 01/M01 A3002 RMK AO2 PK WND 01034/1121 SFC VIS 1 1/4 P0000"	"0.00"	"0.0"	"30.02"	"1016.5"	"0"	"1"	"33.8"	"1.0"	"0"	"0"	"0.5"	"0.8"	"20"	"NNE"	"39.1"	"63.0"	"20.3"	"-6.5"	"28.8"	"46.3"	
"20130307"	"Light Snow"	"06"	"39"	"30.2"	"-1.0"	"0"	"0"	"-9999"	"-9999"	"93"	"snow"	"SPECI KBOS 071139Z 02025G32KT 1/2SM R04R/3000V4000FT -SN BLSN BR BKN009 OVC012 00/M01 A3002 RMK AO2 PK WND 01034/1121 SFC VIS 3/4 P0000"	"0.00"	"0.0"	"30.02"	"1016.5"	"0"	"1"	"32.0"	"0.0"	"0"	"0"	"0.5"	"0.8"	"20"	"NNE"	"36.8"	"59.3"	"17.9"	"-7.9"	"28.8"	"46.3"	
"20130307"	"Snow"	"06"	"54"	"28.9"	"-1.7"	"1"	"0"	"-9999"	"-9999"	"88"	"snow"	"METAR KBOS 071154Z 02023G31KT 1/2SM R04R/3000V3500FT SN BLSN FG OVC007 00/M02 A3003 RMK AO2 PK WND 01034/1121 SLP167 P0001 60003 70005 T00001017 10028 20000 53004"	"0.01"	"0.3"	"30.03"	"1016.7"	"0"	"1"	"32.0"	"0.0"	"0"	"0"	"0.5"	"0.8"	"20"	"NNE"	"35.7"	"57.4"	"18.4"	"-7.6"	"26.5"	"42.6"	
"20130307"	"Snow"	"07"	"37"	"30.2"	"-1.0"	"1"	"0"	"-9999"	"-9999"	"93"	"snow"	"SPECI KBOS 071237Z 02025G32KT 1/2SM R04R/3500V4000FT SN BLSN FG OVC010 00/M01 A3003 RMK AO2 PK WND 02034/1214 P0000"	"0.00"	"0.0"	"30.03"	"1016.8"	"0"	"1"	"32.0"	"0.0"	"0"	"0"	"0.5"	"0.8"	"20"	"NNE"	"36.8"	"59.3"	"17.9"	"-7.9"	"28.8"	"46.3"	
"20130307"	"Snow"	"07"	"54"	"30.0"	"-1.1"	"1"	"0"	"-9999"	"-9999"	"92"	"snow"	"METAR KBOS 071254Z 02024G32KT 1/2SM R04R/2400V3000FT SN BLSN FG VV008 00/M01 A3003 RMK AO2 PK WND 02034/1214 SLP168 P0000 T00001011"	"0.00"	"0.0"	"30.03"	"1016.8"	"0"	"1"	"32.0"	"0.0"	"0"	"0"	"0.5"	"0.8"	"20"	"NNE"	"36.8"	"59.3"	"18.1"	"-7.7"	"27.6"	"44.4"	
"20130307"	"Light Snow"	"08"	"30"	"30.2"	"-1.0"	"0"	"0"	"-9999"	"-9999"	"87"	"snow"	"SPECI KBOS 071330Z 02023G28KT 1/2SM R04R/4500VP6000FT -SN BLSN BR OVC011 01/M01 A3003 RMK AO2 PK WND 02033/1313 SFC VIS 1 1/4 P0000"	"0.00"	"0.0"	"30.03"	"1016.8"	"0"	"1"	"33.8"	"1.0"	"0"	"0"	"0.5"	"0.8"	"20"	"NNE"	"32.2"	"51.9"	"20.8"	"-6.2"	"26.5"	"42.6"	
"20130307"	"Light Snow"	"08"	"54"	"30.9"	"-0.6"	"0"	"0"	"-9999"	"-9999"	"92"	"snow"	"METAR KBOS 071354Z 02024G31KT 1/2SM R04R/3000V4000FT -SN BLSN BR BKN011 OVC015 01/M01 A3002 RMK AO2 PK WND 02033/1344 SFC VIS 3/4 SLP165 P0001 T00061006"	"0.01"	"0.3"	"30.02"	"1016.5"	"0"	"1"	"33.1"	"0.6"	"0"	"0"	"0.5"	"0.8"	"20"	"NNE"	"35.7"	"57.4"	"19.6"	"-6.9"	"27.6"	"44.4"	
"20130307"	"Light Snow"	"09"	"08"	"30.2"	"-1.0"	"0"	"0"	"-9999"	"-9999"	"87"	"snow"	"SPECI KBOS 071408Z 02023G33KT 1/2SM R04R/2600V4500FT -SN BLSN BR BKN009 OVC013 01/M01 A3002 RMK AO2 PK WND 02033/1400 SFC VIS 3/4 P0000"	"0.00"	"0.0"	"30.02"	"1016.5"	"0"	"1"	"33.8"	"1.0"	"0"	"0"	"0.5"	"0.8"	"20"	"NNE"	"38.0"	"61.1"	"20.8"	"-6.2"	"26.5"	"42.6"	
"20130307"	"Light Snow"	"09"	"40"	"32.0"	"0.0"	"0"	"0"	"-9999"	"-9999"	"93"	"snow"	"SPECI KBOS 071440Z 02024G32KT 1/2SM R04R/3500VP6000FT -SN BLSN BR OVC011 01/00 A3002 RMK AO2 PK WND 03034/1411 SFC VIS 1 1/4 CIG 007 E P0000"	"0.00"	"0.0"	"30.02"	"1016.5"	"0"	"1"	"33.8"	"1.0"	"0"	"0"	"0.5"	"0.8"	"20"	"NNE"	"36.8"	"59.3"	"20.5"	"-6.4"	"27.6"	"44.4"	
"20130307"	"Light Snow"	"09"	"54"	"32.0"	"0.0"	"0"	"0"	"-9999"	"-9999"	"96"	"snow"	"METAR KBOS 071454Z 03026G31KT 1/2SM R04R/4000V6000FT -SN BLSN BR SCT008 OVC011 01/00 A3001 RMK AO2 PK WND 03034/1411 SFC VIS 1 SLP163 P0000 60001 T00060000 58004"	"0.00"	"0.0"	"30.01"	"1016.3"	"0"	"1"	"33.1"	"0.6"	"0"	"0"	"0.5"	"0.8"	"30"	"NNE"	"35.7"	"57.4"	"19.1"	"-7.2"	"29.9"	"48.2"	
"20130307"	"Light Snow"	"10"	"30"	"32.0"	"0.0"	"0"	"0"	"-9999"	"-9999"	"93"	"snow"	"SPECI KBOS 071530Z 02024G32KT 1/2SM R04R/3500V5500FT -SN BLSN BR OVC009 01/00 A3001 RMK AO2 PK WND 02038/1504 SFC VIS 1 P0001"	"0.01"	"0.3"	"30.01"	"1016.1"	"0"	"1"	"33.8"	"1.0"	"0"	"0"	"0.5"	"0.8"	"20"	"NNE"	"36.8"	"59.3"	"20.5"	"-6.4"	"27.6"	"44.4"	
"20130307"	"Light Snow"	"10"	"54"	"32.0"	"0.0"	"0"	"0"	"-9999"	"-9999"	"96"	"snow"	"METAR KBOS 071554Z 02024G34KT 1/2SM R04R/3500VP6000FT -SN BR BKN009 OVC014 01/00 A3002 RMK AO2 PK WND 02038/1504 SFC VIS 1 SLP163 P0001 T00060000"	"0.01"	"0.3"	"30.01"	"1016.3"	"0"	"1"	"33.1"	"0.6"	"0"	"0"	"0.5"	"0.8"	"20"	"NNE"	"39.1"	"63.0"	"19.6"	"-6.9"	"27.6"	"44.4"	
"20130307"	"Light Snow"	"11"	"02"	"32.0"	"0.0"	"0"	"0"	"-9999"	"-9999"	"93"	"snow"	"SPECI KBOS 071602Z 02023G32KT 1/2SM R04R/4500VP6000FT -SN BR OVC012 01/00 A3001 RMK AO2 PK WND 02032/1556 SFC VIS 1 1/4 P0000"	"0.00"	"0.0"	"30.01"	"1016.1"	"0"	"1"	"33.8"	"1.0"	"0"	"0"	"0.5"	"0.8"	"20"	"NNE"	"36.8"	"59.3"	"20.8"	"-6.2"	"26.5"	"42.6"	
"20130307"	"Light Snow"	"11"	"54"	"32.0"	"0.0"	"0"	"0"	"-9999"	"-9999"	"96"	"snow"	"METAR KBOS 071654Z 02024G33KT 1/2SM R04R/4500VP6000FT -SN BR BKN010 OVC014 01/00 A3002 RMK AO2 PK WND 03037/1628 SFC VIS 1 1/4 SLP164 P0000 T00060000"	"0.00"	"0.0"	"30.02"	"1016.4"	"0"	"1"	"33.1"	"0.6"	"0"	"0"	"0.5"	"0.8"	"20"	"NNE"	"38.0"	"61.1"	"19.6"	"-6.9"	"27.6"	"44.4"	
"20130307"	"Light Snow"	"12"	"44"	"33.8"	"1.0"	"0"	"0"	"-9999"	"-9999"	"100"	"snow"	"SPECI KBOS 071744Z 02020G34KT 1/2SM R04R/4500VP6000FT -SN BR BKN009 OVC014 01/01 A3002 RMK AO2 PK WND 02036/1703 SFC VIS 1 1/4 P0000"	"0.00"	"0.0"	"30.02"	"1016.5"	"0"	"1"	"33.8"	"1.0"	"0"	"0"	"0.5"	"0.8"	"20"	"NNE"	"39.1"	"63.0"	"21.6"	"-5.8"	"23.0"	"37.0"	
"20130307"	"Light Snow"	"12"	"54"	"32.0"	"0.0"	"0"	"0"	"-9999"	"-9999"	"96"	"snow"	"METAR KBOS 071754Z 02024G31KT 1/2SM R04R/4500VP6000FT -SN BR BKN011 OVC015 01/00 A3001 RMK AO2 PK WND 02036/1703 SFC VIS 1 SLP163 P0001 60003 T00060000 10006 20000 50000"	"0.01"	"0.3"	"30.01"	"1016.3"	"0"	"1"	"33.1"	"0.6"	"0"	"0"	"0.5"	"0.8"	"20"	"NNE"	"35.7"	"57.4"	"19.6"	"-6.9"	"27.6"	"44.4"	
"20130307"	"Light Snow"	"13"	"16"	"32.0"	"0.0"	"0"	"0"	"-9999"	"-9999"	"93"	"snow"	"SPECI KBOS 071816Z 02022G32KT 1/2SM R04R/3000V5000FT -SN BR BKN009 OVC015 01/00 A3002 RMK AO2 PK WND 02032/1810 SFC VIS 3/4 P0000"	"0.00"	"0.0"	"30.02"	"1016.5"	"0"	"1"	"33.8"	"1.0"	"0"	"0"	"0.5"	"0.8"	"20"	"NNE"	"36.8"	"59.3"	"21.0"	"-6.1"	"25.3"	"40.7"	
"20130307"	"Snow"	"13"	"54"	"32.0"	"0.0"	"1"	"0"	"-9999"	"-9999"	"100"	"snow"	"METAR KBOS 071854Z 02020G29KT 1/2SM R04R/2600V4000FT SN FG BKN009 OVC012 00/00 A3002 RMK AO2 PK WND 02032/1810 SLP164 P0000 T00000000"	"0.00"	"0.0"	"30.02"	"1016.4"	"0"	"1"	"32.0"	"0.0"	"0"	"0"	"0.5"	"0.8"	"20"	"NNE"	"33.4"	"53.7"	"19.2"	"-7.1"	"23.0"	"37.0"	
"20130307"	"Light Snow"	"14"	"54"	"30.9"	"-0.6"	"0"	"0"	"-9999"	"-9999"	"96"	"snow"	"METAR KBOS 071954Z 02024G32KT 1/2SM R04R/3000V4000FT -SN BR BKN009 OVC014 00/M01 A3002 RMK AO2 PK WND 02033/1934 SFC VIS 3/4 SLP164 P0001 T00001006"	"0.01"	"0.3"	"30.02"	"1016.4"	"0"	"1"	"32.0"	"0.0"	"0"	"0"	"0.5"	"0.8"	"20"	"NNE"	"36.8"	"59.3"	"18.1"	"-7.7"	"27.6"	"44.4"	
"20130307"	"Snow"	"15"	"17"	"30.2"	"-1.0"	"1"	"0"	"-9999"	"-9999"	"100"	"snow"	"SPECI KBOS 072017Z 02021G29KT 1/2SM R04R/3000V4000FT SN FZFG FEW009 OVC012 M01/M01 A3002 RMK AO2 PK WND 01030/2000 P0000"	"0.00"	"0.0"	"30.02"	"1016.5"	"0"	"1"	"30.2"	"-1.0"	"0"	"0"	"0.5"	"0.8"	"20"	"NNE"	"33.4"	"53.7"	"16.5"	"-8.6"	"24.2"	"38.9"	
"20130307"	"Light Snow"	"15"	"54"	"30.0"	"-1.1"	"0"	"0"	"-9999"	"-9999"	"96"	"snow"	"METAR KBOS 072054Z 02020G32KT 1/2SM R04R/4000V5000FT -SN BR FEW009 OVC012 M01/M01 A3002 RMK AO2 PK WND 01035/2037 SFC VIS 3/4 SLP165 P0000 60001 T10061011 53002"	"0.00"	"0.0"	"30.02"	"1016.5"	"0"	"1"	"30.9"	"-0.6"	"0"	"0"	"0.5"	"0.8"	"20"	"NNE"	"36.8"	"59.3"	"17.8"	"-7.9"	"23.0"	"37.0"	
"20130307"	"Light Snow"	"16"	"54"	"30.0"	"-1.1"	"0"	"0"	"-9999"	"-9999"	"96"	"snow"	"METAR KBOS 072154Z 36016G25KT 1/2SM R04R/6000VP6000FT -SN BR BKN012 OVC020 M01/M01 A3003 RMK AO2 PK WND 02028/2134 SFC VIS 1 SLP167 P0000 T10061011"	"0.00"	"0.0"	"30.03"	"1016.7"	"0"	"1"	"30.9"	"-0.6"	"0"	"0"	"0.5"	"0.8"	"360"	"North"	"28.8"	"46.3"	"19.1"	"-7.2"	"18.4"	"29.6"	
"20130307"	"Light Snow"	"17"	"29"	"28.4"	"-2.0"	"0"	"0"	"-9999"	"-9999"	"93"	"snow"	"SPECI KBOS 072229Z 01016KT 1/2SM R04R/P6000FT -SN BR FEW012 OVC015 M01/M02 A3004 RMK AO2 PK WND 36027/2203 SFC VIS 1 P0000"	"0.00"	"0.0"	"30.04"	"1017.2"	"0"	"1"	"30.2"	"-1.0"	"0"	"0"	"0.5"	"0.8"	"10"	"North"	"-9999.0"	"-9999.0"	"18.1"	"-7.7"	"18.4"	"29.6"	
"20130307"	"Light Snow"	"17"	"42"	"28.4"	"-2.0"	"0"	"0"	"-9999"	"-9999"	"93"	"snow"	"SPECI KBOS 072242Z 01018G22KT 1/2SM R04R/P6000FT -SN BR FEW010 BKN014 OVC020 M01/M02 A3004 RMK AO2 PK WND 36027/2203 SFC VIS 1 P0000"	"0.00"	"0.0"	"30.04"	"1017.2"	"0"	"1"	"30.2"	"-1.0"	"0"	"0"	"0.5"	"0.8"	"10"	"North"	"25.3"	"40.7"	"17.4"	"-8.1"	"20.7"	"33.3"	
"20130307"	"Light Snow"	"17"	"54"	"28.0"	"-2.2"	"0"	"0"	"-9999"	"-9999"	"89"	"snow"	"METAR KBOS 072254Z 36016G24KT 1/2SM R04R/P6000FT -SN BR FEW010 OVC014 M01/M02 A3004 RMK AO2 PK WND 36027/2203 SFC VIS 1 SLP170 P0000 T10061022"	"0.00"	"0.0"	"30.04"	"1017.0"	"0"	"1"	"30.9"	"-0.6"	"0"	"0"	"0.5"	"0.8"	"360"	"North"	"27.6"	"44.4"	"19.1"	"-7.2"	"18.4"	"29.6"	
"20130307"	"Light Snow"	"18"	"54"	"28.9"	"-1.7"	"0"	"0"	"-9999"	"-9999"	"96"	"snow"	"METAR KBOS 072354Z 36017G23KT 1/2SM R04R/P6000FT -SN BR FEW010 BKN014 OVC019 M01/M02 A3003 RMK AO2 SFC VIS 1 SLP168 P0001 60002 T10111017 10006 21011 50003"	"0.01"	"0.3"	"30.03"	"1016.8"	"0"	"1"	"30.0"	"-1.1"	"0"	"0"	"0.5"	"0.8"	"360"	"North"	"26.5"	"42.6"	"17.5"	"-8.0"	"19.6"	"31.5"	
"20130307"	"Light Snow"	"19"	"06"	"28.4"	"-2.0"	"0"	"0"	"-9999"	"-9999"	"93"	"snow"	"SPECI KBOS 080006Z 36017G23KT 1 1/2SM -SN BR FEW010 OVC016 M01/M02 A3003 RMK AO2 SFC VIS 1 3/4 P0000"	"0.00"	"0.0"	"30.03"	"1016.8"	"0"	"1"	"30.2"	"-1.0"	"0"	"0"	"1.5"	"2.4"	"360"	"North"	"26.5"	"42.6"	"17.8"	"-7.9"	"19.6"	"31.5"	
"20130307"	"Light Snow"	"19"	"54"	"28.0"	"-2.2"	"0"	"0"	"-9999"	"-9999"	"89"	"snow"	"METAR KBOS 080054Z 01015G23KT 1 1/2SM -SN BR FEW013 OVC018 M01/M02 A3002 RMK AO2 SFC VIS 2 SLP166 P0000 T10061022"	"0.00"	"0.0"	"30.02"	"1016.6"	"0"	"1"	"30.9"	"-0.6"	"0"	"0"	"1.5"	"2.4"	"10"	"North"	"26.5"	"42.6"	"19.4"	"-7.0"	"17.3"	"27.8"	
"20130307"	"Light Snow"	"20"	"54"	"28.9"	"-1.7"	"0"	"0"	"-9999"	"-9999"	"92"	"snow"	"METAR KBOS 080154Z 01015G21KT 1 1/2SM R04R/6000VP6000FT -SN BR OVC016 M01/M02 A3002 RMK AO2 SLP163 P0000 T10061017"	"0.00"	"0.0"	"30.01"	"1016.3"	"0"	"1"	"30.9"	"-0.6"	"0"	"0"	"1.5"	"2.4"	"10"	"North"	"24.2"	"38.9"	"19.4"	"-7.0"	"17.3"	"27.8"	
"20130307"	"Light Snow"	"21"	"17"	"28.4"	"-2.0"	"0"	"0"	"-9999"	"-9999"	"93"	"snow"	"SPECI KBOS 080217Z 01014G23KT 1 1/4SM R04R/6000VP6000FT -SN BR BKN014 OVC018 M01/M02 A3001 RMK AO2 TWR VIS 1 1/2 P0000"	"0.00"	"0.0"	"30.01"	"1016.1"	"0"	"1"	"30.2"	"-1.0"	"0"	"0"	"1.2"	"2.0"	"10"	"North"	"26.5"	"42.6"	"18.9"	"-7.3"	"16.1"	"25.9"	
"20130307"	"Light Snow"	"21"	"24"	"28.4"	"-2.0"	"0"	"0"	"-9999"	"-9999"	"93"	"snow"	"SPECI KBOS 080224Z 36013KT 1 1/4SM R04R/6000VP6000FT -SN BR SCT008 OVC014 M01/M02 A3001 RMK AO2 TWR VIS 1 1/2 P0000"	"0.00"	"0.0"	"30.01"	"1016.1"	"0"	"1"	"30.2"	"-1.0"	"0"	"0"	"1.2"	"2.0"	"360"	"North"	"-9999.0"	"-9999.0"	"19.3"	"-7.0"	"15.0"	"24.1"	
"20130307"	"Light Snow"	"21"	"46"	"28.4"	"-2.0"	"0"	"0"	"-9999"	"-9999"	"93"	"snow"	"SPECI KBOS 080246Z 01016G22KT 1 1/4SM -SN BR BKN008 OVC014 M01/M02 A3000 RMK AO2 TWR VIS 1 1/2 P0001"	"0.01"	"0.3"	"30.00"	"1015.8"	"0"	"1"	"30.2"	"-1.0"	"0"	"0"	"1.2"	"2.0"	"10"	"North"	"25.3"	"40.7"	"18.1"	"-7.7"	"18.4"	"29.6"	
"20130307"	"Light Snow"	"21"	"54"	"30.0"	"-1.1"	"0"	"0"	"-9999"	"-9999"	"96"	"snow"	"METAR KBOS 080254Z 01015G26KT 1 1/4SM -SN BR BKN008 OVC014 M01/M01 A3000 RMK AO2 PK WND 03026/0248 TWR VIS 1 1/2 SLP159 P0001 60001 T10061011 58009"	"0.01"	"0.3"	"30.00"	"1015.9"	"0"	"1"	"30.9"	"-0.6"	"0"	"0"	"1.2"	"2.0"	"10"	"North"	"29.9"	"48.2"	"19.4"	"-7.0"	"17.3"	"27.8"	
"20130307"	"Light Snow"	"22"	"54"	"30.0"	"-1.1"	"0"	"0"	"-9999"	"-9999"	"96"	"snow"	"METAR KBOS 080354Z 01016G20KT 1SM R04R/6000VP6000FT -SN BR BKN008 OVC014 M01/M01 A2999 RMK AO2 TWR VIS 1 1/2 SLP156 P0001 T10061011"	"0.01"	"0.3"	"29.99"	"1015.6"	"0"	"1"	"30.9"	"-0.6"	"0"	"0"	"1.0"	"1.6"	"10"	"North"	"23.0"	"37.0"	"19.1"	"-7.2"	"18.4"	"29.6"	
"20130307"	"Light Snow"	"23"	"54"	"28.9"	"-1.7"	"0"	"0"	"-9999"	"-9999"	"96"	"snow"	"METAR KBOS 080454Z 36013G20KT 1 1/2SM -SN BR BKN008 OVC014 M01/M02 A2999 RMK AO2 SLP153 P0001 T10111017 400281011"	"0.01"	"0.3"	"29.99"	"1015.3"	"0"	"1"	"30.0"	"-1.1"	"0"	"0"	"1.5"	"2.4"	"360"	"North"	"23.0"	"37.0"	"19.1"	"-7.2"	"15.0"	"24.1"	
"20130306"	"Light Rain"	"00"	"54"	"32.0"	"0.0"	"0"	"0"	"-9999"	"-9999"	"82"	"rain"	"METAR KBOS 060554Z 02010KT 10SM -RA BKN019 BKN028 OVC039 03/00 A3006 RMK AO2 RAB41UPB49E50 SLP177 P0000 60000 T00280000 10039 20022 50003"	"0.00"	"0.0"	"30.06"	"1017.7"	"1"	"0"	"37.0"	"2.8"	"0"	"0"	"10.0"	"16.1"	"20"	"NNE"	"-9999.0"	"-9999.0"	"29.3"	"-1.5"	"11.5"	"18.5"	
"20130306"	"Mostly Cloudy"	"01"	"43"	"33.8"	"1.0"	"0"	"0"	"-9999"	"-9999"	"93"	"mostlycloudy"	"SPECI KBOS 060643Z 02009KT 10SM SCT023 SCT029 BKN040 02/01 A3005 RMK AO2 RAE25 CIG 025 E P0000"	"0.00"	"0.0"	"30.05"	"1017.5"	"0"	"0"	"35.6"	"2.0"	"0"	"0"	"10.0"	"16.1"	"20"	"NNE"	"-9999.0"	"-9999.0"	"28.0"	"-2.2"	"10.4"	"16.7"	
"20130306"	"Mostly Cloudy"	"01"	"54"	"34.0"	"1.1"	"0"	"0"	"-9999"	"-9999"	"89"	"mostlycloudy"	"METAR KBOS 060654Z 03009KT 10SM SCT017 BKN024 BKN040 03/01 A3005 RMK AO2 RAE25 SLP176 P0000 T00280011"	"0.00"	"0.0"	"30.05"	"1017.6"	"0"	"0"	"37.0"	"2.8"	"0"	"0"	"10.0"	"16.1"	"30"	"NNE"	"-9999.0"	"-9999.0"	"29.8"	"-1.2"	"10.4"	"16.7"	
"20130306"	"Mostly Cloudy"	"02"	"54"	"34.0"	"1.1"	"0"	"0"	"-9999"	"-9999"	"86"	"mostlycloudy"	"METAR KBOS 060754Z 04013KT 10SM SCT017 BKN025 BKN038 03/01 A3005 RMK AO2 RAB0657E18 SLP174 P0000 T00330011"	"0.00"	"0.0"	"30.05"	"1017.4"	"0"	"0"	"37.9"	"3.3"	"0"	"0"	"10.0"	"16.1"	"40"	"NE"	"-9999.0"	"-9999.0"	"29.2"	"-1.5"	"15.0"	"24.1"	
"20130306"	"Overcast"	"03"	"52"	"33.8"	"1.0"	"0"	"0"	"-9999"	"-9999"	"87"	"cloudy"	"SPECI KBOS 060852Z 04011KT 10SM FEW016 BKN031 OVC046 03/01 A3006 RMK AO2"	"-9999.00"	"-9999.00"	"30.06"	"1017.8"	"0"	"0"	"37.4"	"3.0"	"0"	"0"	"10.0"	"16.1"	"40"	"NE"	"-9999.0"	"-9999.0"	"29.3"	"-1.5"	"12.7"	"20.4"	
"20130306"	"Light Rain"	"03"	"54"	"34.0"	"1.1"	"0"	"0"	"-9999"	"-9999"	"86"	"rain"	"METAR KBOS 060854Z 04012KT 9SM -RA SCT014 BKN023 OVC046 03/01 A3006 RMK AO2 RAB54 SLP179 P0000 60000 T00330011 53003"	"0.00"	"0.0"	"30.06"	"1017.9"	"1"	"0"	"37.9"	"3.3"	"0"	"0"	"9.0"	"14.5"	"40"	"NE"	"-9999.0"	"-9999.0"	"29.6"	"-1.3"	"13.8"	"22.2"	
"20130306"	"Rain"	"04"	"12"	"33.8"	"1.0"	"0"	"0"	"-9999"	"-9999"	"87"	"rain"	"SPECI KBOS 060912Z 06019G25KT 7SM RA BKN014 OVC022 03/01 A3006 RMK AO2 P0001"	"0.01"	"0.3"	"30.06"	"1017.8"	"1"	"0"	"37.4"	"3.0"	"0"	"0"	"7.0"	"11.3"	"60"	"ENE"	"28.8"	"46.3"	"26.6"	"-3.0"	"21.9"	"35.2"	
"20130306"	"Light Rain"	"04"	"54"	"34.0"	"1.1"	"0"	"0"	"-9999"	"-9999"	"86"	"rain"	"METAR KBOS 060954Z 07018KT 10SM -RA SCT014 BKN021 OVC045 03/01 A3007 RMK AO2 RAE33B49 SLP181 P0003 T00330011"	"0.03"	"0.8"	"30.07"	"1018.1"	"1"	"0"	"37.9"	"3.3"	"0"	"0"	"10.0"	"16.1"	"70"	"ENE"	"-9999.0"	"-9999.0"	"27.6"	"-2.4"	"20.7"	"33.3"	
"20130306"	"Overcast"	"05"	"38"	"33.8"	"1.0"	"0"	"0"	"-9999"	"-9999"	"81"	"cloudy"	"SPECI KBOS 061038Z 07019G25KT 10SM FEW016 BKN032 OVC045 04/01 A3006 RMK AO2 PK WND 06026/1008 RAE38 CIG 022 E P0000"	"0.00"	"0.0"	"30.06"	"1017.8"	"0"	"0"	"39.2"	"4.0"	"0"	"0"	"10.0"	"16.1"	"70"	"ENE"	"28.8"	"46.3"	"29.0"	"-1.7"	"21.9"	"35.2"	
"20130306"	"Overcast"	"05"	"54"	"34.0"	"1.1"	"0"	"0"	"-9999"	"-9999"	"82"	"cloudy"	"METAR KBOS 061054Z 07018G24KT 10SM FEW017 SCT023 OVC045 04/01 A3006 RMK AO2 PK WND 06026/1008 RAE38 CIG 031 E SLP180 P0000 T00390011"	"0.00"	"0.0"	"30.06"	"1018.0"	"0"	"0"	"39.0"	"3.9"	"0"	"0"	"10.0"	"16.1"	"70"	"ENE"	"27.6"	"44.4"	"29.0"	"-1.6"	"20.7"	"33.3"	
"20130306"	"Light Rain"	"06"	"04"	"33.8"	"1.0"	"0"	"0"	"-9999"	"-9999"	"87"	"rain"	"SPECI KBOS 061104Z 07021G27KT 10SM -RA SCT017 BKN022 OVC044 03/01 A3006 RMK AO2 PK WND 07027/1102 RAB03 P0000"	"0.00"	"0.0"	"30.06"	"1017.8"	"1"	"0"	"37.4"	"3.0"	"0"	"0"	"10.0"	"16.1"	"70"	"ENE"	"31.1"	"50.0"	"26.1"	"-3.3"	"24.2"	"38.9"	
"20130306"	"Light Rain"	"06"	"35"	"33.8"	"1.0"	"0"	"0"	"-9999"	"-9999"	"87"	"rain"	"SPECI KBOS 061135Z 08023G28KT 6SM -RA BR BKN012 BKN017 OVC025 03/01 A3007 RMK AO2 PK WND 07028/1132 RAB03 P0000"	"0.00"	"0.0"	"30.07"	"1018.2"	"1"	"0"	"37.4"	"3.0"	"0"	"0"	"6.0"	"9.7"	"80"	"East"	"32.2"	"51.9"	"25.6"	"-3.5"	"26.5"	"42.6"	
"20130306"	"Overcast"	"06"	"54"	"34.0"	"1.1"	"0"	"0"	"-9999"	"-9999"	"82"	"cloudy"	"METAR KBOS 061154Z 08020G27KT 10SM FEW012 BKN025 OVC035 04/01 A3008 RMK AO2 PK WND 07028/1132 RAB03E47 SLP186 P0000 60003 70003 T00390011 10039 20022 53006"	"0.00"	"0.0"	"30.08"	"1018.6"	"0"	"0"	"39.0"	"3.9"	"0"	"0"	"10.0"	"16.1"	"80"	"East"	"31.1"	"50.0"	"28.5"	"-1.9"	"23.0"	"37.0"	
"20130306"	"Light Rain"	"07"	"54"	"33.1"	"0.6"	"0"	"0"	"-9999"	"-9999"	"79"	"rain"	"METAR KBOS 061254Z 08020G30KT 10SM -RA FEW016 SCT023 OVC029 04/01 A3011 RMK AO2 PK WND 07032/1228 RAB00 SLP194 P0000 T00390006"	"0.00"	"0.0"	"30.11"	"1019.4"	"1"	"0"	"39.0"	"3.9"	"0"	"0"	"10.0"	"16.1"	"80"	"East"	"34.5"	"55.6"	"28.5"	"-1.9"	"23.0"	"37.0"	
"20130306"	"Light Rain"	"08"	"51"	"33.8"	"1.0"	"0"	"0"	"-9999"	"-9999"	"87"	"rain"	"SPECI KBOS 061351Z 08020G33KT 10SM -RA FEW016 SCT034 OVC041 03/01 A3010 RMK AO2 PK WND 07033/1342 RAE1255B25 P0000"	"0.00"	"0.0"	"30.10"	"1019.2"	"1"	"0"	"37.4"	"3.0"	"0"	"0"	"10.0"	"16.1"	"80"	"East"	"38.0"	"61.1"	"26.4"	"-3.1"	"23.0"	"37.0"	
"20130306"	"Light Rain"	"08"	"54"	"33.1"	"0.6"	"0"	"0"	"-9999"	"-9999"	"79"	"rain"	"METAR KBOS 061354Z 07018G25KT 10SM -RA FEW016 SCT034 OVC041 04/01 A3010 RMK AO2 PK WND 07033/1342 RAE1255B25 SLP193 P0000 T00390006"	"0.00"	"0.0"	"30.10"	"1019.3"	"1"	"0"	"39.0"	"3.9"	"0"	"0"	"10.0"	"16.1"	"70"	"ENE"	"28.8"	"46.3"	"29.0"	"-1.6"	"20.7"	"33.3"	
"20130306"	"Overcast"	"09"	"54"	"30.0"	"-1.1"	"0"	"0"	"-9999"	"-9999"	"70"	"cloudy"	"METAR KBOS 061454Z 08023G29KT 10SM FEW026 OVC032 04/M01 A3012 RMK AO2 PK WND 09032/1411 RAE1355 SLP199 60000 T00391011 53005"	"-9999.00"	"-9999.00"	"30.12"	"1019.9"	"0"	"0"	"39.0"	"3.9"	"0"	"0"	"10.0"	"16.1"	"80"	"East"	"33.4"	"53.7"	"27.8"	"-2.3"	"26.5"	"42.6"	
"20130306"	"Overcast"	"10"	"54"	"28.9"	"-1.7"	"0"	"0"	"-9999"	"-9999"	"67"	"cloudy"	"METAR KBOS 061554Z 07023KT 10SM OVC037 04/M02 A3010 RMK AO2 PK WND 06034/1538 SLP191 T00391017"	"-9999.00"	"-9999.00"	"30.10"	"1019.1"	"0"	"0"	"39.0"	"3.9"	"0"	"0"	"10.0"	"16.1"	"70"	"ENE"	"-9999.0"	"-9999.0"	"27.8"	"-2.3"	"26.5"	"42.6"	
"20130306"	"Overcast"	"11"	"54"	"32.0"	"0.0"	"0"	"0"	"-9999"	"-9999"	"76"	"cloudy"	"METAR KBOS 061654Z 06020G30KT 10SM OVC044 04/00 A3009 RMK AO2 PK WND 07031/1614 RAB18E29 SLP190 P0000 T00390000"	"0.00"	"0.0"	"30.09"	"1019.0"	"0"	"0"	"39.0"	"3.9"	"0"	"0"	"10.0"	"16.1"	"60"	"ENE"	"34.5"	"55.6"	"28.5"	"-1.9"	"23.0"	"37.0"	
"20130306"	"Overcast"	"12"	"43"	"33.8"	"1.0"	"0"	"0"	"-9999"	"-9999"	"81"	"cloudy"	"SPECI KBOS 061743Z 06026G32KT 10SM FEW019 BKN025 OVC046 04/01 A3009 RMK AO2 PK WND 06032/1742 RAB15E28 P0000"	"0.00"	"0.0"	"30.09"	"1018.8"	"0"	"0"	"39.2"	"4.0"	"0"	"0"	"10.0"	"16.1"	"60"	"ENE"	"36.8"	"59.3"	"27.4"	"-2.6"	"29.9"	"48.2"	
"20130306"	"Overcast"	"12"	"54"	"33.1"	"0.6"	"0"	"0"	"-9999"	"-9999"	"77"	"cloudy"	"METAR KBOS 061754Z 07021KT 10SM FEW017 BKN030 OVC049 04/01 A3009 RMK AO2 PK WND 06032/1742 RAB15E28 SLP189 P0000 60000 T00440006 10050 20033 56010"	"0.00"	"0.0"	"30.09"	"1018.9"	"0"	"0"	"39.9"	"4.4"	"0"	"0"	"10.0"	"16.1"	"70"	"ENE"	"-9999.0"	"-9999.0"	"29.5"	"-1.4"	"24.2"	"38.9"	
"20130306"	"Light Rain"	"13"	"35"	"33.8"	"1.0"	"0"	"0"	"-9999"	"-9999"	"87"	"rain"	"SPECI KBOS 061835Z 07025G35KT 7SM -RA FEW016 BKN029 OVC050 03/01 A3008 RMK AO2 PK WND 06035/1826 RAB28 P0000"	"0.00"	"0.0"	"30.08"	"1018.5"	"1"	"0"	"37.4"	"3.0"	"0"	"0"	"7.0"	"11.3"	"70"	"ENE"	"40.3"	"64.8"	"25.2"	"-3.8"	"28.8"	"46.3"	
"20130306"	"Light Rain"	"13"	"45"	"33.8"	"1.0"	"0"	"0"	"-9999"	"-9999"	"81"	"rain"	"SPECI KBOS 061845Z 06024G30KT 10SM -RA FEW015 BKN032 OVC050 04/01 A3008 RMK AO2 PK WND 06035/1826 RAB28 P0000"	"0.00"	"0.0"	"30.08"	"1018.5"	"1"	"0"	"39.2"	"4.0"	"0"	"0"	"10.0"	"16.1"	"60"	"ENE"	"34.5"	"55.6"	"27.8"	"-2.3"	"27.6"	"44.4"	
"20130306"	"Light Rain"	"13"	"54"	"33.1"	"0.6"	"0"	"0"	"-9999"	"-9999"	"83"	"rain"	"METAR KBOS 061854Z 07019G30KT 9SM -RA FEW015 BKN028 OVC055 03/01 A3008 RMK AO2 PK WND 06035/1826 RAB28 SLP184 P0000 T00330006"	"0.00"	"0.0"	"30.08"	"1018.4"	"1"	"0"	"37.9"	"3.3"	"0"	"0"	"9.0"	"14.5"	"70"	"ENE"	"34.5"	"55.6"	"27.3"	"-2.6"	"21.9"	"35.2"	
"20130306"	"Overcast"	"14"	"11"	"33.8"	"1.0"	"0"	"0"	"-9999"	"-9999"	"81"	"cloudy"	"SPECI KBOS 061911Z 07024G30KT 10SM FEW016 BKN037 OVC055 04/01 A3008 RMK AO2 PK WND 07032/1857 RAE11 CIG 028 E P0000"	"0.00"	"0.0"	"30.08"	"1018.5"	"0"	"0"	"39.2"	"4.0"	"0"	"0"	"10.0"	"16.1"	"70"	"ENE"	"34.5"	"55.6"	"27.8"	"-2.3"	"27.6"	"44.4"	
"20130306"	"Light Rain"	"14"	"36"	"33.8"	"1.0"	"0"	"0"	"-9999"	"-9999"	"87"	"rain"	"SPECI KBOS 061936Z 06024G29KT 5SM -RA BR FEW016 BKN024 OVC055 03/01 A3008 RMK AO2 PK WND 06033/1922 P0000"	"0.00"	"0.0"	"30.08"	"1018.5"	"1"	"0"	"37.4"	"3.0"	"0"	"0"	"5.0"	"8.0"	"60"	"ENE"	"33.4"	"53.7"	"25.4"	"-3.7"	"27.6"	"44.4"	
"20130306"	"Overcast"	"14"	"54"	"33.1"	"0.6"	"0"	"0"	"-9999"	"-9999"	"83"	"cloudy"	"METAR KBOS 061954Z 06023G35KT 10SM FEW015 BKN029 OVC045 03/01 A3008 RMK AO2 PK WND 06035/1948 RAE47 SLP184 P0000 T00330006"	"0.00"	"0.0"	"30.08"	"1018.4"	"0"	"0"	"37.9"	"3.3"	"0"	"0"	"10.0"	"16.1"	"60"	"ENE"	"40.3"	"64.8"	"26.3"	"-3.1"	"26.5"	"42.6"	
"20130306"	"Overcast"	"15"	"28"	"33.8"	"1.0"	"0"	"0"	"-9999"	"-9999"	"87"	"cloudy"	"SPECI KBOS 062028Z 06025G30KT 8SM FEW014 BKN032 OVC043 03/01 A3008 RMK AO2 PK WND 06030/2026 RAB08E26 P0000"	"0.00"	"0.0"	"30.08"	"1018.5"	"0"	"0"	"37.4"	"3.0"	"0"	"0"	"8.0"	"12.9"	"60"	"ENE"	"34.5"	"55.6"	"25.2"	"-3.8"	"28.8"	"46.3"	
"20130306"	"Light Rain"	"15"	"43"	"33.8"	"1.0"	"0"	"0"	"-9999"	"-9999"	"87"	"rain"	"SPECI KBOS 062043Z 07028G35KT 7SM -RA FEW014 BKN026 OVC043 03/01 A3008 RMK AO2 PK WND 06035/2043 RAB08SNB30E40 CIG 021 E P0000"	"0.00"	"0.0"	"30.08"	"1018.5"	"1"	"0"	"37.4"	"3.0"	"0"	"0"	"7.0"	"11.3"	"70"	"ENE"	"40.3"	"64.8"	"24.6"	"-4.1"	"32.2"	"51.9"	
"20130306"	"Light Snow"	"15"	"54"	"30.9"	"-0.6"	"0"	"0"	"-9999"	"-9999"	"82"	"snow"	"METAR KBOS 062054Z 06025G37KT 5SM -SN FEW014 BKN029 OVC043 02/M01 A3008 RMK AO2 PK WND 06037/2052 RAB08E54SNB30 SLP186 P0000 60000 T00221006 55003"	"0.00"	"0.0"	"30.08"	"1018.6"	"0"	"1"	"36.0"	"2.2"	"0"	"0"	"5.0"	"8.0"	"60"	"ENE"	"42.6"	"68.5"	"23.2"	"-4.9"	"28.8"	"46.3"	
"20130306"	"Overcast"	"16"	"47"	"32.0"	"0.0"	"0"	"0"	"-9999"	"-9999"	"81"	"cloudy"	"SPECI KBOS 062147Z 06021G31KT 8SM BR FEW014 BKN037 OVC045 03/00 A3009 RMK AO2 PK WND 06034/2129 RAB04E12B35E37SNE46 P0000"	"0.00"	"0.0"	"30.09"	"1018.8"	"0"	"0"	"37.4"	"3.0"	"0"	"0"	"8.0"	"12.9"	"60"	"ENE"	"35.7"	"57.4"	"26.1"	"-3.3"	"24.2"	"38.9"	
"20130306"	"Overcast"	"16"	"54"	"30.9"	"-0.6"	"0"	"0"	"-9999"	"-9999"	"82"	"cloudy"	"METAR KBOS 062154Z 06022G33KT 3SM BR FEW020 BKN031 OVC043 02/M01 A3009 RMK AO2 PK WND 06034/2129 RAB04E12B35E37SNE46 SLP188 P0000 T00221006"	"0.00"	"0.0"	"30.09"	"1018.8"	"0"	"0"	"36.0"	"2.2"	"0"	"0"	"3.0"	"4.8"	"60"	"ENE"	"38.0"	"61.1"	"23.9"	"-4.5"	"25.3"	"40.7"	
"20130306"	"Light Snow"	"17"	"54"	"32.0"	"0.0"	"0"	"0"	"-9999"	"-9999"	"86"	"snow"	"METAR KBOS 062254Z 06021G31KT 6SM -SNRA BR FEW013 BKN020 OVC045 02/00 A3009 RMK AO2 PK WND 06035/2239 SLP188 P0001 T00220000"	"0.01"	"0.3"	"30.09"	"1018.8"	"1"	"1"	"36.0"	"2.2"	"0"	"0"	"6.0"	"9.7"	"60"	"ENE"	"35.7"	"57.4"	"24.2"	"-4.3"	"24.2"	"38.9"	
"20130306"	"Light Snow"	"18"	"05"	"32.0"	"0.0"	"0"	"0"	"-9999"	"-9999"	"87"	"snow"	"SPECI KBOS 062305Z 06023G36KT 2 1/2SM -SNRA BR FEW014 BKN021 OVC050 02/00 A3009 RMK AO2 PK WND 05036/2258 SFC VIS 3 P0000"	"0.00"	"0.0"	"30.09"	"1018.8"	"1"	"1"	"35.6"	"2.0"	"0"	"0"	"2.5"	"4.0"	"60"	"ENE"	"41.4"	"66.7"	"23.2"	"-4.9"	"26.5"	"42.6"	
"20130306"	"Overcast"	"18"	"30"	"33.8"	"1.0"	"0"	"0"	"-9999"	"-9999"	"87"	"cloudy"	"SPECI KBOS 062330Z 05026G37KT 2 1/2SM BR FEW013 BKN040 OVC050 03/01 A3008 RMK AO2 PK WND 05037/2329 SFC VIS 6 RAE25SNE18 P0001"	"0.01"	"0.3"	"30.08"	"1018.5"	"0"	"0"	"37.4"	"3.0"	"0"	"0"	"2.5"	"4.0"	"50"	"NE"	"42.6"	"68.5"	"25.0"	"-3.9"	"29.9"	"48.2"	
"20130306"	"Overcast"	"18"	"39"	"32.0"	"0.0"	"0"	"0"	"-9999"	"-9999"	"81"	"cloudy"	"SPECI KBOS 062339Z 05028G37KT 7SM SCT015 OVC046 03/00 A3008 RMK AO2 PK WND 05037/2338 RAE25SNE18 P0001"	"0.01"	"0.3"	"30.08"	"1018.5"	"0"	"0"	"37.4"	"3.0"	"0"	"0"	"7.0"	"11.3"	"50"	"NE"	"42.6"	"68.5"	"24.6"	"-4.1"	"32.2"	"51.9"	
"20130306"	"Overcast"	"18"	"54"	"32.0"	"0.0"	"0"	"0"	"-9999"	"-9999"	"82"	"cloudy"	"METAR KBOS 062354Z 06019G32KT 10SM FEW015 SCT022 OVC044 03/00 A3009 RMK AO2 PK WND 05037/2338 RAE25SNE18 SLP188 P0001 60002 T00280000 10044 20017 51002"	"0.01"	"0.3"	"30.09"	"1018.8"	"0"	"0"	"37.0"	"2.8"	"0"	"0"	"10.0"	"16.1"	"60"	"ENE"	"36.8"	"59.3"	"26.2"	"-3.2"	"21.9"	"35.2"	
"20130306"	"Overcast"	"19"	"54"	"30.9"	"-0.6"	"0"	"0"	"-9999"	"-9999"	"79"	"cloudy"	"METAR KBOS 070054Z 07027G35KT 7SM FEW017 SCT038 OVC047 03/M01 A3009 RMK AO2 PK WND 05041/2358 RAB01E25B53E54SNB00E10 SLP189 P0000 T00281006"	"0.00"	"0.0"	"30.09"	"1018.9"	"0"	"0"	"37.0"	"2.8"	"0"	"0"	"7.0"	"11.3"	"70"	"ENE"	"40.3"	"64.8"	"24.3"	"-4.3"	"31.1"	"50.0"	
"20130306"	"Overcast"	"20"	"54"	"30.9"	"-0.6"	"0"	"0"	"-9999"	"-9999"	"79"	"cloudy"	"METAR KBOS 070154Z 05021G32KT 10SM R04R/0700VP6000FT FEW024 OVC043 03/M01 A3008 RMK AO2 PK WND 05038/0143 RAB00E35SNB0059E35 SLP185 P0000 T00281006"	"0.00"	"0.0"	"30.08"	"1018.5"	"0"	"0"	"37.0"	"2.8"	"0"	"0"	"10.0"	"16.1"	"50"	"NE"	"36.8"	"59.3"	"25.6"	"-3.5"	"24.2"	"38.9"	
"20130306"	"Light Rain"	"21"	"54"	"30.0"	"-1.1"	"0"	"0"	"-9999"	"-9999"	"82"	"rain"	"METAR KBOS 070254Z 05022G34KT 4SM -RA FEW021 OVC044 02/M01 A3007 RMK AO2 PK WND 05038/0213 SLP183 P0000 60000 T00171011 58005"	"0.00"	"0.0"	"30.07"	"1018.3"	"1"	"0"	"35.1"	"1.7"	"0"	"0"	"4.0"	"6.4"	"50"	"NE"	"39.1"	"63.0"	"22.7"	"-5.2"	"25.3"	"40.7"	
"20130306"	"Light Rain"	"22"	"54"	"30.0"	"-1.1"	"0"	"0"	"-9999"	"-9999"	"76"	"rain"	"METAR KBOS 070354Z 06028G36KT 10SM -RA FEW023 BKN029 OVC034 03/M01 A3006 RMK AO2 PK WND 05039/0326 SLP180 P0000 T00281011"	"0.00"	"0.0"	"30.06"	"1018.0"	"1"	"0"	"37.0"	"2.8"	"0"	"0"	"10.0"	"16.1"	"60"	"ENE"	"41.4"	"66.7"	"24.1"	"-4.4"	"32.2"	"51.9"	
"20130306"	"Overcast"	"23"	"54"	"28.9"	"-1.7"	"0"	"0"	"-9999"	"-9999"	"73"	"cloudy"	"METAR KBOS 070454Z 05024G32KT 10SM BKN025 OVC032 03/M02 A3006 RMK AO2 PK WND 05040/0421 RAE51UPB51E52 SLP178 P0000 T00281017 400500017"	"0.00"	"0.0"	"30.06"	"1017.8"	"0"	"0"	"37.0"	"2.8"	"0"	"0"	"10.0"	"16.1"	"50"	"NE"	"36.8"	"59.3"	"24.9"	"-3.9"	"27.6"	"44.4"	
"20130305"	"Overcast"	"00"	"54"	"21.0"	"-6.1"	"0"	"0"	"-9999"	"-9999"	"61"	"cloudy"	"METAR KBOS 050554Z 32016G24KT 10SM OVC047 01/M06 A2975 RMK AO2 PK WND 32027/0509 SLP074 60000 T00061061 10017 20006 53016"	"-9999.00"	"-9999.00"	"29.75"	"1007.4"	"0"	"0"	"33.1"	"0.6"	"0"	"0"	"10.0"	"16.1"	"320"	"NW"	"27.6"	"44.4"	"21.9"	"-5.6"	"18.4"	"29.6"	
"20130305"	"Overcast"	"02"	"54"	"19.9"	"-6.7"	"0"	"0"	"-9999"	"-9999"	"59"	"cloudy"	"METAR KBOS 050754Z 32013G19KT 10SM OVC049 01/M07 A2978 RMK AO2 PK WND 32028/0655 SLP084 T00061067"	"-9999.00"	"-9999.00"	"29.78"	"1008.4"	"0"	"0"	"33.1"	"0.6"	"0"	"0"	"10.0"	"16.1"	"320"	"NW"	"21.9"	"35.2"	"23.0"	"-5.0"	"15.0"	"24.1"	
"20130305"	"Clear"	"03"	"54"	"19.9"	"-6.7"	"0"	"0"	"-9999"	"-9999"	"61"	"clear"	"METAR KBOS 050854Z 32015G19KT 10SM CLR 00/M07 A2981 RMK AO2 SLP093 T00001067 53019"	"-9999.00"	"-9999.00"	"29.81"	"1009.3"	"0"	"0"	"32.0"	"0.0"	"0"	"0"	"10.0"	"16.1"	"320"	"NW"	"21.9"	"35.2"	"20.8"	"-6.2"	"17.3"	"27.8"	
"20130305"	"Overcast"	"04"	"54"	"21.0"	"-6.1"	"0"	"0"	"-9999"	"-9999"	"64"	"cloudy"	"METAR KBOS 050954Z 32013G19KT 10SM BKN042 OVC050 00/M06 A2984 RMK AO2 SLP103 T00001061"	"-9999.00"	"-9999.00"	"29.84"	"1010.3"	"0"	"0"	"32.0"	"0.0"	"0"	"0"	"10.0"	"16.1"	"320"	"NW"	"21.9"	"35.2"	"21.6"	"-5.8"	"15.0"	"24.1"	
"20130305"	"Overcast"	"05"	"54"	"21.0"	"-6.1"	"0"	"0"	"-9999"	"-9999"	"64"	"cloudy"	"METAR KBOS 051054Z 32014KT 10SM FEW036 OVC050 00/M06 A2986 RMK AO2 SLP111 T00001061"	"-9999.00"	"-9999.00"	"29.86"	"1011.1"	"0"	"0"	"32.0"	"0.0"	"0"	"0"	"10.0"	"16.1"	"320"	"NW"	"-9999.0"	"-9999.0"	"21.2"	"-6.0"	"16.1"	"25.9"	
"20130305"	"Overcast"	"06"	"54"	"21.0"	"-6.1"	"0"	"0"	"-9999"	"-9999"	"61"	"cloudy"	"METAR KBOS 051154Z 32013KT 10SM FEW035 OVC048 01/M06 A2988 RMK AO2 SLP119 BINOVC T00061061 10006 20000 51025"	"-9999.00"	"-9999.00"	"29.88"	"1011.9"	"0"	"0"	"33.1"	"0.6"	"0"	"0"	"10.0"	"16.1"	"320"	"NW"	"-9999.0"	"-9999.0"	"23.0"	"-5.0"	"15.0"	"24.1"	
"20130305"	"Mostly Cloudy"	"07"	"54"	"21.0"	"-6.1"	"0"	"0"	"-9999"	"-9999"	"59"	"mostlycloudy"	"METAR KBOS 051254Z 33012G18KT 10SM SCT048 BKN055 01/M06 A2991 RMK AO2 SLP128 T00111061"	"-9999.00"	"-9999.00"	"29.91"	"1012.8"	"0"	"0"	"34.0"	"1.1"	"0"	"0"	"10.0"	"16.1"	"330"	"NNW"	"20.7"	"33.3"	"24.6"	"-4.1"	"13.8"	"22.2"	
"20130305"	"Overcast"	"08"	"31"	"21.2"	"-6.0"	"0"	"0"	"-9999"	"-9999"	"56"	"cloudy"	"SPECI KBOS 051331Z 32011KT 10SM BKN028 OVC060 02/M06 A2992 RMK AO2"	"-9999.00"	"-9999.00"	"29.92"	"1013.1"	"0"	"0"	"35.6"	"2.0"	"0"	"0"	"10.0"	"16.1"	"320"	"NW"	"-9999.0"	"-9999.0"	"27.1"	"-2.7"	"12.7"	"20.4"	
"20130305"	"Mostly Cloudy"	"08"	"54"	"23.0"	"-5.0"	"0"	"0"	"-9999"	"-9999"	"59"	"mostlycloudy"	"METAR KBOS 051354Z 34011KT 10SM BKN028 BKN060 02/M05 A2993 RMK AO2 SLP135 T00221050"	"-9999.00"	"-9999.00"	"29.93"	"1013.5"	"0"	"0"	"36.0"	"2.2"	"0"	"0"	"10.0"	"16.1"	"340"	"NNW"	"-9999.0"	"-9999.0"	"27.5"	"-2.5"	"12.7"	"20.4"	
"20130305"	"Mostly Cloudy"	"09"	"54"	"25.0"	"-3.9"	"0"	"0"	"-9999"	"-9999"	"57"	"mostlycloudy"	"METAR KBOS 051454Z 34010G17KT 10SM BKN026 04/M04 A2994 RMK AO2 SLP138 T00391039 51019"	"-9999.00"	"-9999.00"	"29.94"	"1013.8"	"0"	"0"	"39.0"	"3.9"	"0"	"0"	"10.0"	"16.1"	"340"	"NNW"	"19.6"	"31.5"	"31.8"	"-0.1"	"11.5"	"18.5"	
"20130305"	"Mostly Cloudy"	"10"	"51"	"24.8"	"-4.0"	"0"	"0"	"-9999"	"-9999"	"56"	"mostlycloudy"	"SPECI KBOS 051551Z 35010KT 10SM BKN030 BKN037 04/M04 A2994 RMK AO2"	"-9999.00"	"-9999.00"	"29.94"	"1013.8"	"0"	"0"	"39.2"	"4.0"	"0"	"0"	"10.0"	"16.1"	"350"	"North"	"-9999.0"	"-9999.0"	"32.0"	"0.0"	"11.5"	"18.5"	
"20130305"	"Mostly Cloudy"	"10"	"54"	"26.1"	"-3.3"	"0"	"0"	"-9999"	"-9999"	"58"	"mostlycloudy"	"METAR KBOS 051554Z 01010KT 10SM BKN030 BKN037 04/M03 A2994 RMK AO2 SLP138 T00441033"	"-9999.00"	"-9999.00"	"29.94"	"1013.8"	"0"	"0"	"39.9"	"4.4"	"0"	"0"	"10.0"	"16.1"	"10"	"North"	"-9999.0"	"-9999.0"	"32.9"	"0.5"	"11.5"	"18.5"	
"20130305"	"Overcast"	"11"	"54"	"26.1"	"-3.3"	"0"	"0"	"-9999"	"-9999"	"53"	"cloudy"	"METAR KBOS 051654Z VRB05KT 10SM BKN032 OVC045 06/M03 A2995 RMK AO2 SLP143 T00561033"	"-9999.00"	"-9999.00"	"29.96"	"1014.3"	"0"	"0"	"42.1"	"5.6"	"0"	"0"	"10.0"	"16.1"	"0"	"Variable"	"-9999.0"	"-9999.0"	"38.4"	"3.6"	"5.8"	"9.3"	
"20130305"	"Overcast"	"12"	"54"	"28.0"	"-2.2"	"0"	"0"	"-9999"	"-9999"	"56"	"cloudy"	"METAR KBOS 051754Z 04005KT 10SM OVC036 06/M02 A2996 RMK AO2 SLP143 T00611022 10061 20006 53005"	"-9999.00"	"-9999.00"	"29.96"	"1014.3"	"0"	"0"	"43.0"	"6.1"	"0"	"0"	"10.0"	"16.1"	"40"	"NE"	"-9999.0"	"-9999.0"	"39.5"	"4.2"	"5.8"	"9.3"	
"20130305"	"Overcast"	"13"	"54"	"30.9"	"-0.6"	"0"	"0"	"-9999"	"-9999"	"67"	"cloudy"	"METAR KBOS 051854Z 08010KT 10SM OVC040 05/M01 A2997 RMK AO2 SLP148 T00501006"	"-9999.00"	"-9999.00"	"29.97"	"1014.8"	"0"	"0"	"41.0"	"5.0"	"0"	"0"	"10.0"	"16.1"	"80"	"East"	"-9999.0"	"-9999.0"	"34.3"	"1.3"	"11.5"	"18.5"	
"20130305"	"Overcast"	"14"	"54"	"32.0"	"0.0"	"0"	"0"	"-9999"	"-9999"	"67"	"cloudy"	"METAR KBOS 051954Z 07009KT 10SM FEW035 OVC050 06/00 A2998 RMK AO2 SLP152 T00560000"	"-9999.00"	"-9999.00"	"29.98"	"1015.2"	"0"	"0"	"42.1"	"5.6"	"0"	"0"	"10.0"	"16.1"	"70"	"ENE"	"-9999.0"	"-9999.0"	"36.1"	"2.3"	"10.4"	"16.7"	
"20130305"	"Mostly Cloudy"	"15"	"54"	"33.1"	"0.6"	"0"	"0"	"-9999"	"-9999"	"70"	"mostlycloudy"	"METAR KBOS 052054Z 06009KT 10SM FEW035 SCT049 BKN060 06/01 A3000 RMK AO2 SLP159 T00560006 53016"	"-9999.00"	"-9999.00"	"30.00"	"1015.9"	"0"	"0"	"42.1"	"5.6"	"0"	"0"	"10.0"	"16.1"	"60"	"ENE"	"-9999.0"	"-9999.0"	"36.1"	"2.3"	"10.4"	"16.7"	
"20130305"	"Mostly Cloudy"	"16"	"54"	"33.1"	"0.6"	"0"	"0"	"-9999"	"-9999"	"77"	"mostlycloudy"	"METAR KBOS 052154Z 09006KT 10SM FEW035 BKN055 04/01 A3002 RMK AO2 SLP166 T00440006"	"-9999.00"	"-9999.00"	"30.02"	"1016.6"	"0"	"0"	"39.9"	"4.4"	"0"	"0"	"10.0"	"16.1"	"90"	"East"	"-9999.0"	"-9999.0"	"35.1"	"1.7"	"6.9"	"11.1"	
"20130305"	"Mostly Cloudy"	"17"	"54"	"32.0"	"0.0"	"0"	"0"	"-9999"	"-9999"	"76"	"mostlycloudy"	"METAR KBOS 052254Z 07005KT 10SM FEW024 SCT045 BKN075 04/00 A3004 RMK AO2 SLP170 T00390000"	"-9999.00"	"-9999.00"	"30.04"	"1017.0"	"0"	"0"	"39.0"	"3.9"	"0"	"0"	"10.0"	"16.1"	"70"	"ENE"	"-9999.0"	"-9999.0"	"34.8"	"1.5"	"5.8"	"9.3"	
"20130305"	"Scattered Clouds"	"18"	"54"	"32.0"	"0.0"	"0"	"0"	"-9999"	"-9999"	"82"	"partlycloudy"	"METAR KBOS 052354Z 03004KT 10SM FEW025 SCT040 SCT080 03/00 A3004 RMK AO2 SLP172 T00280000 10061 20028 51013"	"-9999.00"	"-9999.00"	"30.04"	"1017.2"	"0"	"0"	"37.0"	"2.8"	"0"	"0"	"10.0"	"16.1"	"30"	"NNE"	"-9999.0"	"-9999.0"	"33.3"	"0.7"	"4.6"	"7.4"	
"20130305"	"Scattered Clouds"	"19"	"54"	"32.0"	"0.0"	"0"	"0"	"-9999"	"-9999"	"76"	"partlycloudy"	"METAR KBOS 060054Z 35003KT 10SM FEW024 SCT045 04/00 A3006 RMK AO2 SLP178 T00390000"	"-9999.00"	"-9999.00"	"30.06"	"1017.8"	"0"	"0"	"39.0"	"3.9"	"0"	"0"	"10.0"	"16.1"	"350"	"North"	"-9999.0"	"-9999.0"	"36.8"	"2.6"	"3.5"	"5.6"	
"20130305"	"Overcast"	"20"	"54"	"32.0"	"0.0"	"0"	"0"	"-9999"	"-9999"	"79"	"cloudy"	"METAR KBOS 060154Z 36003KT 10SM FEW033 BKN041 OVC075 03/00 A3005 RMK AO2 SLP175 T00330000"	"-9999.00"	"-9999.00"	"30.05"	"1017.5"	"0"	"0"	"37.9"	"3.3"	"0"	"0"	"10.0"	"16.1"	"360"	"North"	"-9999.0"	"-9999.0"	"35.5"	"2.0"	"3.5"	"5.6"	
"20130305"	"Overcast"	"21"	"54"	"32.0"	"0.0"	"0"	"0"	"-9999"	"-9999"	"76"	"cloudy"	"METAR KBOS 060254Z 35004KT 10SM FEW033 BKN043 OVC075 04/00 A3005 RMK AO2 SLP174 T00390000 50001"	"-9999.00"	"-9999.00"	"30.05"	"1017.4"	"0"	"0"	"39.0"	"3.9"	"0"	"0"	"10.0"	"16.1"	"350"	"North"	"-9999.0"	"-9999.0"	"35.7"	"2.0"	"4.6"	"7.4"	
"20130305"	"Overcast"	"22"	"54"	"32.0"	"0.0"	"0"	"0"	"-9999"	"-9999"	"76"	"cloudy"	"METAR KBOS 060354Z 35005KT 10SM SCT036 OVC047 04/00 A3007 RMK AO2 SLP180 T00390000"	"-9999.00"	"-9999.00"	"30.06"	"1018.0"	"0"	"0"	"39.0"	"3.9"	"0"	"0"	"10.0"	"16.1"	"350"	"North"	"-9999.0"	"-9999.0"	"34.8"	"1.5"	"5.8"	"9.3"	
"20130305"	"Light Rain"	"23"	"25"	"32.0"	"0.0"	"0"	"0"	"-9999"	"-9999"	"75"	"rain"	"SPECI KBOS 060425Z 36005KT 9SM -RA BKN025 OVC047 04/00 A3007 RMK AO2 RAB23 P0000"	"0.00"	"0.0"	"30.07"	"1018.2"	"1"	"0"	"39.2"	"4.0"	"0"	"0"	"9.0"	"14.5"	"360"	"North"	"-9999.0"	"-9999.0"	"35.0"	"1.7"	"5.8"	"9.3"	
"20130305"	"Overcast"	"23"	"54"	"30.9"	"-0.6"	"0"	"0"	"-9999"	"-9999"	"76"	"cloudy"	"METAR KBOS 060454Z 36006KT 10SM FEW019 BKN025 OVC040 03/M01 A3006 RMK AO2 RAB23E36 SLP179 P0000 T00331006 400610000"	"0.00"	"0.0"	"30.06"	"1017.9"	"0"	"0"	"37.9"	"3.3"	"0"	"0"	"10.0"	"16.1"	"360"	"North"	"-9999.0"	"-9999.0"	"32.7"	"0.4"	"6.9"	"11.1"	
"20130304"	"Mostly Cloudy"	"00"	"54"	"24.1"	"-4.4"	"0"	"0"	"-9999"	"-9999"	"67"	"mostlycloudy"	"METAR KBOS 040554Z 31010KT 10SM BKN120 01/M04 A2960 RMK AO2 SLP021 60000 T00111044 10028 20011 55002"	"-9999.00"	"-9999.00"	"29.60"	"1002.1"	"0"	"0"	"34.0"	"1.1"	"0"	"0"	"10.0"	"16.1"	"310"	"NW"	"-9999.0"	"-9999.0"	"25.5"	"-3.6"	"11.5"	"18.5"	
"20130304"	"Overcast"	"01"	"54"	"24.1"	"-4.4"	"0"	"0"	"-9999"	"-9999"	"67"	"cloudy"	"METAR KBOS 040654Z 30014G17KT 10SM FEW120 OVC150 01/M04 A2960 RMK AO2 SLP022 T00111044"	"-9999.00"	"-9999.00"	"29.60"	"1002.2"	"0"	"0"	"34.0"	"1.1"	"0"	"0"	"10.0"	"16.1"	"300"	"WNW"	"19.6"	"31.5"	"23.8"	"-4.6"	"16.1"	"25.9"	
"20130304"	"Mostly Cloudy"	"02"	"54"	"23.0"	"-5.0"	"0"	"0"	"-9999"	"-9999"	"66"	"mostlycloudy"	"METAR KBOS 040754Z 31015G21KT 10SM FEW055 BKN200 01/M05 A2960 RMK AO2 SLP021 T00061050"	"-9999.00"	"-9999.00"	"29.60"	"1002.1"	"0"	"0"	"33.1"	"0.6"	"0"	"0"	"10.0"	"16.1"	"310"	"NW"	"24.2"	"38.9"	"22.2"	"-5.4"	"17.3"	"27.8"	
"20130304"	"Scattered Clouds"	"03"	"54"	"21.9"	"-5.6"	"0"	"0"	"-9999"	"-9999"	"66"	"partlycloudy"	"METAR KBOS 040854Z 29015G22KT 9SM SCT070 00/M06 A2960 RMK AO2 SLP023 T00001056 53002"	"-9999.00"	"-9999.00"	"29.60"	"1002.3"	"0"	"0"	"32.0"	"0.0"	"0"	"0"	"9.0"	"14.5"	"290"	"WNW"	"25.3"	"40.7"	"20.8"	"-6.2"	"17.3"	"27.8"	
"20130304"	"Partly Cloudy"	"04"	"54"	"21.9"	"-5.6"	"0"	"0"	"-9999"	"-9999"	"66"	"partlycloudy"	"METAR KBOS 040954Z 29014KT 9SM FEW110 00/M06 A2961 RMK AO2 SLP026 T00001056"	"-9999.00"	"-9999.00"	"29.61"	"1002.6"	"0"	"0"	"32.0"	"0.0"	"0"	"0"	"9.0"	"14.5"	"290"	"WNW"	"-9999.0"	"-9999.0"	"21.2"	"-6.0"	"16.1"	"25.9"	
"20130304"	"Scattered Clouds"	"05"	"54"	"21.0"	"-6.1"	"0"	"0"	"-9999"	"-9999"	"67"	"partlycloudy"	"METAR KBOS 041054Z 29016G21KT 9SM FEW110 SCT220 SCT250 M01/M06 A2961 RMK AO2 SLP027 T10061061"	"-9999.00"	"-9999.00"	"29.61"	"1002.7"	"0"	"0"	"30.9"	"-0.6"	"0"	"0"	"9.0"	"14.5"	"290"	"WNW"	"24.2"	"38.9"	"19.1"	"-7.2"	"18.4"	"29.6"	
"20130304"	"Scattered Clouds"	"06"	"54"	"19.9"	"-6.7"	"0"	"0"	"-9999"	"-9999"	"64"	"partlycloudy"	"METAR KBOS 041154Z 28014G21KT 7SM FEW120 SCT200 SCT250 M01/M07 A2963 RMK AO2 SLP031 T10061067 10011 21006 53008"	"-9999.00"	"-9999.00"	"29.62"	"1003.1"	"0"	"0"	"30.9"	"-0.6"	"0"	"0"	"7.0"	"11.3"	"280"	"West"	"24.2"	"38.9"	"19.8"	"-6.8"	"16.1"	"25.9"	
"20130304"	"Scattered Clouds"	"07"	"54"	"19.9"	"-6.7"	"0"	"0"	"-9999"	"-9999"	"61"	"partlycloudy"	"METAR KBOS 041254Z 30014G23KT 10SM FEW050 SCT120 SCT250 00/M07 A2963 RMK AO2 PK WND 30026/1241 SLP033 T00001067"	"-9999.00"	"-9999.00"	"29.63"	"1003.3"	"0"	"0"	"32.0"	"0.0"	"0"	"0"	"10.0"	"16.1"	"300"	"WNW"	"26.5"	"42.6"	"21.2"	"-6.0"	"16.1"	"25.9"	
"20130304"	"Scattered Clouds"	"08"	"54"	"19.9"	"-6.7"	"0"	"0"	"-9999"	"-9999"	"56"	"partlycloudy"	"METAR KBOS 041354Z COR 29017G24KT 10SM FEW045 SCT120 SCT250 01/M07 A2962 RMK AO2 SLP029 T00111067"	"-9999.00"	"-9999.00"	"29.62"	"1002.9"	"0"	"0"	"34.0"	"1.1"	"0"	"0"	"10.0"	"16.1"	"290"	"WNW"	"27.6"	"44.4"	"22.7"	"-5.2"	"19.6"	"31.5"	
"20130304"	"Mostly Cloudy"	"09"	"54"	"19.9"	"-6.7"	"0"	"0"	"-9999"	"-9999"	"50"	"mostlycloudy"	"METAR KBOS 041454Z 31017G25KT 10SM FEW045 SCT120 BKN250 03/M07 A2961 RMK AO2 PK WND 30027/1411 SLP025 T00281067 58006"	"-9999.00"	"-9999.00"	"29.61"	"1002.5"	"0"	"0"	"37.0"	"2.8"	"0"	"0"	"10.0"	"16.1"	"310"	"NW"	"28.8"	"46.3"	"26.7"	"-2.9"	"19.6"	"31.5"	
"20130304"	"Mostly Cloudy"	"10"	"54"	"19.9"	"-6.7"	"0"	"0"	"-9999"	"-9999"	"48"	"mostlycloudy"	"METAR KBOS 041554Z 32016G25KT 10SM FEW045 SCT120 BKN250 03/M07 A2960 RMK AO2 PK WND 32028/1503 SLP023 T00331067"	"-9999.00"	"-9999.00"	"29.60"	"1002.3"	"0"	"0"	"37.9"	"3.3"	"0"	"0"	"10.0"	"16.1"	"320"	"NW"	"28.8"	"46.3"	"28.2"	"-2.1"	"18.4"	"29.6"	
"20130304"	"Mostly Cloudy"	"11"	"54"	"19.9"	"-6.7"	"0"	"0"	"-9999"	"-9999"	"46"	"mostlycloudy"	"METAR KBOS 041654Z 30020G24KT 10SM FEW040 SCT140 BKN200 04/M07 A2959 RMK AO2 PK WND 33027/1644 SLP020 T00391067"	"-9999.00"	"-9999.00"	"29.59"	"1002.0"	"0"	"0"	"39.0"	"3.9"	"0"	"0"	"10.0"	"16.1"	"300"	"WNW"	"27.6"	"44.4"	"28.5"	"-1.9"	"23.0"	"37.0"	
"20130304"	"Mostly Cloudy"	"12"	"54"	"21.0"	"-6.1"	"0"	"0"	"-9999"	"-9999"	"45"	"mostlycloudy"	"METAR KBOS 041754Z 30016G26KT 10SM SCT060 BKN140 BKN200 05/M06 A2958 RMK AO2 PK WND 28026/1752 SLP017 T00501061 10050 21006 58009"	"-9999.00"	"-9999.00"	"29.58"	"1001.7"	"0"	"0"	"41.0"	"5.0"	"0"	"0"	"10.0"	"16.1"	"300"	"WNW"	"29.9"	"48.2"	"32.2"	"0.1"	"18.4"	"29.6"	
"20130304"	"Mostly Cloudy"	"13"	"54"	"21.0"	"-6.1"	"0"	"0"	"-9999"	"-9999"	"47"	"mostlycloudy"	"METAR KBOS 041854Z 29016G23KT 10SM SCT055 BKN140 BKN200 04/M06 A2958 RMK AO2 SLP015 T00441061"	"-9999.00"	"-9999.00"	"29.58"	"1001.5"	"0"	"0"	"39.9"	"4.4"	"0"	"0"	"10.0"	"16.1"	"290"	"WNW"	"26.5"	"42.6"	"30.8"	"-0.7"	"18.4"	"29.6"	
"20130304"	"Mostly Cloudy"	"14"	"54"	"21.9"	"-5.6"	"0"	"0"	"-9999"	"-9999"	"50"	"mostlycloudy"	"METAR KBOS 041954Z 30016G27KT 10SM FEW042 SCT060 SCT095 BKN240 04/M06 A2958 RMK AO2 PK WND 28028/1938 SLP017 T00391056"	"-9999.00"	"-9999.00"	"29.58"	"1001.7"	"0"	"0"	"39.0"	"3.9"	"0"	"0"	"10.0"	"16.1"	"300"	"WNW"	"31.1"	"50.0"	"29.6"	"-1.3"	"18.4"	"29.6"	
"20130304"	"Mostly Cloudy"	"15"	"54"	"23.0"	"-5.0"	"0"	"0"	"-9999"	"-9999"	"53"	"mostlycloudy"	"METAR KBOS 042054Z 32016G23KT 10SM SCT049 SCT060 BKN100 BKN240 04/M05 A2959 RMK AO2 PK WND 33028/2027 SLP019 T00391050 53003"	"-9999.00"	"-9999.00"	"29.59"	"1001.9"	"0"	"0"	"39.0"	"3.9"	"0"	"0"	"10.0"	"16.1"	"320"	"NW"	"26.5"	"42.6"	"29.6"	"-1.3"	"18.4"	"29.6"	
"20130304"	"Overcast"	"16"	"54"	"24.1"	"-4.4"	"0"	"0"	"-9999"	"-9999"	"59"	"cloudy"	"METAR KBOS 042154Z 31016G25KT 10SM FEW038 BKN048 OVC240 03/M04 A2961 RMK AO2 PK WND 30026/2128 SLP027 T00281044"	"-9999.00"	"-9999.00"	"29.61"	"1002.7"	"0"	"0"	"37.0"	"2.8"	"0"	"0"	"10.0"	"16.1"	"310"	"NW"	"28.8"	"46.3"	"27.0"	"-2.8"	"18.4"	"29.6"	
"20130304"	"Overcast"	"17"	"54"	"25.0"	"-3.9"	"0"	"0"	"-9999"	"-9999"	"62"	"cloudy"	"METAR KBOS 042254Z 30014G21KT 10SM SCT030 BKN042 BKN075 OVC240 03/M04 A2964 RMK AO2 PK WND 33026/2203 SLP038 T00281039"	"-9999.00"	"-9999.00"	"29.65"	"1003.8"	"0"	"0"	"37.0"	"2.8"	"0"	"0"	"10.0"	"16.1"	"300"	"WNW"	"24.2"	"38.9"	"27.7"	"-2.4"	"16.1"	"25.9"	
"20130304"	"Light Snow"	"18"	"23"	"24.8"	"-4.0"	"0"	"0"	"-9999"	"-9999"	"65"	"snow"	"SPECI KBOS 042323Z 31016G24KT 2SM -SN SCT030 OVC037 02/M04 A2966 RMK AO2 SNB13 P0000"	"0.00"	"0.0"	"29.66"	"1004.3"	"0"	"1"	"35.6"	"2.0"	"0"	"0"	"2.0"	"3.2"	"310"	"NW"	"27.6"	"44.4"	"25.2"	"-3.8"	"18.4"	"29.6"	
"20130304"	"Light Snow"	"18"	"54"	"26.1"	"-3.3"	"0"	"0"	"-9999"	"-9999"	"73"	"snow"	"METAR KBOS 042354Z 32015G23KT 2SM -SN OVC029 01/M03 A2967 RMK AO2 SNB13 SLP046 P0000 60000 T00111033 10050 20011 53027"	"0.00"	"0.0"	"29.67"	"1004.6"	"0"	"1"	"34.0"	"1.1"	"0"	"0"	"2.0"	"3.2"	"320"	"NW"	"26.5"	"42.6"	"23.4"	"-4.8"	"17.3"	"27.8"	
"20130304"	"Light Snow"	"19"	"11"	"26.6"	"-3.0"	"0"	"0"	"-9999"	"-9999"	"75"	"snow"	"SPECI KBOS 050011Z 32010G22KT 2SM -SN SCT027 OVC033 01/M03 A2967 RMK AO2 P0000"	"0.00"	"0.0"	"29.67"	"1004.6"	"0"	"1"	"33.8"	"1.0"	"0"	"0"	"2.0"	"3.2"	"320"	"NW"	"25.3"	"40.7"	"25.3"	"-3.7"	"11.5"	"18.5"	
"20130304"	"Light Snow"	"19"	"21"	"26.6"	"-3.0"	"0"	"0"	"-9999"	"-9999"	"75"	"snow"	"SPECI KBOS 050021Z 31015G22KT 5SM -SN SCT027 BKN035 OVC070 01/M03 A2968 RMK AO2 P0000"	"0.00"	"0.0"	"29.68"	"1005.0"	"0"	"1"	"33.8"	"1.0"	"0"	"0"	"5.0"	"8.0"	"310"	"NW"	"25.3"	"40.7"	"23.2"	"-4.9"	"17.3"	"27.8"	
"20130304"	"Light Snow"	"19"	"54"	"26.1"	"-3.3"	"0"	"0"	"-9999"	"-9999"	"73"	"snow"	"METAR KBOS 050054Z 30014G19KT 10SM -SN FEW021 SCT045 OVC075 01/M03 A2968 RMK AO2 SNE25B52 SLP048 P0000 T00111033"	"0.00"	"0.0"	"29.68"	"1004.8"	"0"	"1"	"34.0"	"1.1"	"0"	"0"	"10.0"	"16.1"	"300"	"WNW"	"21.9"	"35.2"	"23.8"	"-4.6"	"16.1"	"25.9"	
"20130304"	"Overcast"	"20"	"54"	"24.1"	"-4.4"	"0"	"0"	"-9999"	"-9999"	"64"	"cloudy"	"METAR KBOS 050154Z 32013G21KT 10SM FEW022 BKN043 OVC080 02/M04 A2969 RMK AO2 SNE47 SLP055 P0000 T00171044"	"0.00"	"0.0"	"29.70"	"1005.5"	"0"	"0"	"35.1"	"1.7"	"0"	"0"	"10.0"	"16.1"	"320"	"NW"	"24.2"	"38.9"	"25.5"	"-3.6"	"15.0"	"24.1"	
"20130304"	"Mostly Cloudy"	"21"	"54"	"21.9"	"-5.6"	"0"	"0"	"-9999"	"-9999"	"61"	"mostlycloudy"	"METAR KBOS 050254Z 31014G21KT 10SM FEW023 BKN045 BKN065 01/M06 A2971 RMK AO2 PK WND 32026/0216 SLP058 60000 T00111056 53012"	"-9999.00"	"-9999.00"	"29.70"	"1005.8"	"0"	"0"	"34.0"	"1.1"	"0"	"0"	"10.0"	"16.1"	"310"	"NW"	"24.2"	"38.9"	"23.8"	"-4.6"	"16.1"	"25.9"	
"20130304"	"Overcast"	"22"	"54"	"21.0"	"-6.1"	"0"	"0"	"-9999"	"-9999"	"61"	"cloudy"	"METAR KBOS 050354Z 32014G25KT 10SM SCT050 OVC085 01/M06 A2972 RMK AO2 SLP063 T00061061"	"-9999.00"	"-9999.00"	"29.72"	"1006.3"	"0"	"0"	"33.1"	"0.6"	"0"	"0"	"10.0"	"16.1"	"320"	"NW"	"28.8"	"46.3"	"22.6"	"-5.2"	"16.1"	"25.9"	
"20130304"	"Mostly Cloudy"	"23"	"54"	"21.0"	"-6.1"	"0"	"0"	"-9999"	"-9999"	"61"	"mostlycloudy"	"METAR KBOS 050454Z 32019G24KT 10SM BKN049 01/M06 A2973 RMK AO2 PK WND 32026/0402 SLP067 T00061061 400501006"	"-9999.00"	"-9999.00"	"29.73"	"1006.7"	"0"	"0"	"33.1"	"0.6"	"0"	"0"	"10.0"	"16.1"	"320"	"NW"	"27.6"	"44.4"	"20.9"	"-6.2"	"21.9"	"35.2"	
"20130303"	"Overcast"	"00"	"19"	"24.8"	"-4.0"	"0"	"0"	"-9999"	"-9999"	"65"	"cloudy"	"SPECI KBOS 030519Z 32010KT 10SM BKN023 BKN031 OVC043 02/M04 A2965 RMK AO2"	"-9999.00"	"-9999.00"	"29.65"	"1003.9"	"0"	"0"	"35.6"	"2.0"	"0"	"0"	"10.0"	"16.1"	"320"	"NW"	"-9999.0"	"-9999.0"	"27.5"	"-2.5"	"11.5"	"18.5"	
"20130303"	"Light Snow"	"00"	"54"	"24.1"	"-4.4"	"0"	"0"	"-9999"	"-9999"	"64"	"snow"	"METAR KBOS 030554Z 31007KT 9SM -SN BKN023 OVC031 02/M04 A2965 RMK AO2 SNB46 SLP038 P0000 60000 T00171044 10050 20017 55004"	"0.00"	"0.0"	"29.65"	"1003.8"	"0"	"1"	"35.1"	"1.7"	"0"	"0"	"9.0"	"14.5"	"310"	"NW"	"-9999.0"	"-9999.0"	"28.6"	"-1.9"	"8.1"	"13.0"	
"20130303"	"Overcast"	"01"	"54"	"24.1"	"-4.4"	"0"	"0"	"-9999"	"-9999"	"64"	"cloudy"	"METAR KBOS 030654Z 30007KT 10SM BKN023 OVC030 02/M04 A2964 RMK AO2 SNE08 SLP036 P0000 T00171044"	"0.00"	"0.0"	"29.64"	"1003.6"	"0"	"0"	"35.1"	"1.7"	"0"	"0"	"10.0"	"16.1"	"300"	"WNW"	"-9999.0"	"-9999.0"	"28.6"	"-1.9"	"8.1"	"13.0"	
"20130303"	"Overcast"	"02"	"54"	"24.1"	"-4.4"	"0"	"0"	"-9999"	"-9999"	"67"	"cloudy"	"METAR KBOS 030754Z 29008KT 10SM BKN023 OVC030 01/M04 A2963 RMK AO2 SLP032 T00111044"	"-9999.00"	"-9999.00"	"29.63"	"1003.2"	"0"	"0"	"34.0"	"1.1"	"0"	"0"	"10.0"	"16.1"	"290"	"WNW"	"-9999.0"	"-9999.0"	"26.6"	"-3.0"	"9.2"	"14.8"	
"20130303"	"Overcast"	"03"	"54"	"24.1"	"-4.4"	"0"	"0"	"-9999"	"-9999"	"67"	"cloudy"	"METAR KBOS 030854Z 32009KT 10SM BKN022 BKN030 OVC045 01/M04 A2963 RMK AO2 SLP031 60000 T00111044 56007"	"-9999.00"	"-9999.00"	"29.62"	"1003.1"	"0"	"0"	"34.0"	"1.1"	"0"	"0"	"10.0"	"16.1"	"320"	"NW"	"-9999.0"	"-9999.0"	"26.0"	"-3.3"	"10.4"	"16.7"	
"20130303"	"Overcast"	"04"	"15"	"24.8"	"-4.0"	"0"	"0"	"-9999"	"-9999"	"70"	"cloudy"	"SPECI KBOS 030915Z 32008KT 10SM FEW022 BKN030 OVC047 01/M04 A2963 RMK AO2"	"-9999.00"	"-9999.00"	"29.63"	"1003.3"	"0"	"0"	"33.8"	"1.0"	"0"	"0"	"10.0"	"16.1"	"320"	"NW"	"-9999.0"	"-9999.0"	"26.4"	"-3.1"	"9.2"	"14.8"	
"20130303"	"Overcast"	"04"	"54"	"23.0"	"-5.0"	"0"	"0"	"-9999"	"-9999"	"66"	"cloudy"	"METAR KBOS 030954Z 31008KT 10SM FEW023 SCT030 OVC047 01/M05 A2963 RMK AO2 SLP031 T00061050"	"-9999.00"	"-9999.00"	"29.62"	"1003.1"	"0"	"0"	"33.1"	"0.6"	"0"	"0"	"10.0"	"16.1"	"310"	"NW"	"-9999.0"	"-9999.0"	"25.5"	"-3.6"	"9.2"	"14.8"	
"20130303"	"Overcast"	"05"	"54"	"23.0"	"-5.0"	"0"	"0"	"-9999"	"-9999"	"66"	"cloudy"	"METAR KBOS 031054Z 30008KT 10SM SCT022 OVC040 01/M05 A2963 RMK AO2 SLP033 T00061050"	"-9999.00"	"-9999.00"	"29.63"	"1003.3"	"0"	"0"	"33.1"	"0.6"	"0"	"0"	"10.0"	"16.1"	"300"	"WNW"	"-9999.0"	"-9999.0"	"25.5"	"-3.6"	"9.2"	"14.8"	
"20130303"	"Overcast"	"06"	"22"	"23.0"	"-5.0"	"0"	"0"	"-9999"	"-9999"	"65"	"cloudy"	"SPECI KBOS 031122Z 31007KT 10SM BKN022 BKN042 OVC070 01/M05 A2963 RMK AO2"	"-9999.00"	"-9999.00"	"29.63"	"1003.3"	"0"	"0"	"33.8"	"1.0"	"0"	"0"	"10.0"	"16.1"	"310"	"NW"	"-9999.0"	"-9999.0"	"27.0"	"-2.8"	"8.1"	"13.0"	
"20130303"	"Overcast"	"06"	"54"	"24.1"	"-4.4"	"0"	"0"	"-9999"	"-9999"	"70"	"cloudy"	"METAR KBOS 031154Z 32009KT 10SM BKN023 BKN044 OVC070 01/M04 A2964 RMK AO2 SLP036 60000 T00061044 10017 20006 53005"	"-9999.00"	"-9999.00"	"29.64"	"1003.6"	"0"	"0"	"33.1"	"0.6"	"0"	"0"	"10.0"	"16.1"	"320"	"NW"	"-9999.0"	"-9999.0"	"24.9"	"-3.9"	"10.4"	"16.7"	
"20130303"	"Light Snow"	"07"	"54"	"24.1"	"-4.4"	"0"	"0"	"-9999"	"-9999"	"67"	"snow"	"METAR KBOS 031254Z 31006KT 9SM -SN BKN023 BKN049 OVC070 01/M04 A2964 RMK AO2 SLP036 SNB06 P0000 T00111044"	"0.00"	"0.0"	"29.64"	"1003.6"	"0"	"1"	"34.0"	"1.1"	"0"	"0"	"9.0"	"14.5"	"310"	"NW"	"-9999.0"	"-9999.0"	"28.0"	"-2.2"	"6.9"	"11.1"	
"20130303"	"Light Drizzle"	"08"	"25"	"24.8"	"-4.0"	"0"	"0"	"-9999"	"-9999"	"70"	"rain"	"SPECI KBOS 031325Z COR 32007KT 10SM -DZ SCT022 SCT035 OVC045 01/M04 A2964 RMK AO2 SNE20DZB20 P0000"	"0.00"	"0.0"	"29.64"	"1003.6"	"0"	"0"	"33.8"	"1.0"	"0"	"0"	"10.0"	"16.1"	"320"	"NW"	"-9999.0"	"-9999.0"	"27.0"	"-2.8"	"8.1"	"13.0"	
"20130303"	"Overcast"	"08"	"43"	"24.8"	"-4.0"	"0"	"0"	"-9999"	"-9999"	"70"	"cloudy"	"SPECI KBOS 031343Z 29009KT 10SM BKN022 BKN035 OVC050 01/M04 A2964 RMK AO2 SNE20DZB20E32 P0000 $"	"0.00"	"0.0"	"29.64"	"1003.6"	"0"	"0"	"33.8"	"1.0"	"0"	"0"	"10.0"	"16.1"	"290"	"WNW"	"-9999.0"	"-9999.0"	"25.8"	"-3.4"	"10.4"	"16.7"	
"20130303"	"Overcast"	"08"	"54"	"25.0"	"-3.9"	"0"	"0"	"-9999"	"-9999"	"70"	"cloudy"	"METAR KBOS 031354Z COR 30008KT 10SM BKN025 BKN055 OVC080 01/M04 A2964 RMK AO2 SLP035 SNE20DZB20E32 CIG 023V030 P0000 T00111039 $"	"0.00"	"0.0"	"29.64"	"1003.5"	"0"	"0"	"34.0"	"1.1"	"0"	"0"	"10.0"	"16.1"	"300"	"WNW"	"-9999.0"	"-9999.0"	"26.6"	"-3.0"	"9.2"	"14.8"	
"20130303"	"Overcast"	"09"	"25"	"26.6"	"-3.0"	"0"	"0"	"-9999"	"-9999"	"70"	"cloudy"	"SPECI KBOS 031425Z 31009KT 10SM SCT023 BKN050 OVC080 02/M03 A2963 RMK AO2 $"	"-9999.00"	"-9999.00"	"29.63"	"1003.3"	"0"	"0"	"35.6"	"2.0"	"0"	"0"	"10.0"	"16.1"	"310"	"NW"	"-9999.0"	"-9999.0"	"28.0"	"-2.2"	"10.4"	"16.7"	
"20130303"	"Overcast"	"09"	"36"	"26.6"	"-3.0"	"0"	"0"	"-9999"	"-9999"	"70"	"cloudy"	"SPECI KBOS 031436Z 30009KT 10SM BKN025 BKN055 OVC075 02/M03 A2963 RMK AO2 $"	"-9999.00"	"-9999.00"	"29.63"	"1003.3"	"0"	"0"	"35.6"	"2.0"	"0"	"0"	"10.0"	"16.1"	"300"	"WNW"	"-9999.0"	"-9999.0"	"28.0"	"-2.2"	"10.4"	"16.7"	
"20130303"	"Mostly Cloudy"	"09"	"54"	"27.0"	"-2.8"	"0"	"0"	"-9999"	"-9999"	"67"	"mostlycloudy"	"METAR KBOS 031454Z 31008KT 10SM SCT024 BKN050 BKN080 BKN250 03/M03 A2962 RMK AO2 SLP030 60000 T00281028 58006 $"	"-9999.00"	"-9999.00"	"29.62"	"1003.0"	"0"	"0"	"37.0"	"2.8"	"0"	"0"	"10.0"	"16.1"	"310"	"NW"	"-9999.0"	"-9999.0"	"30.4"	"-0.9"	"9.2"	"14.8"	
"20130303"	"Light Snow"	"10"	"14"	"26.6"	"-3.0"	"0"	"0"	"-9999"	"-9999"	"65"	"snow"	"SPECI KBOS 031514Z 31006KT 10SM -SN BKN023 BKN035 BKN050 03/M03 A2962 RMK AO2 SNB1455 P0000 $"	"0.00"	"0.0"	"29.62"	"1002.9"	"0"	"1"	"37.4"	"3.0"	"0"	"0"	"10.0"	"16.1"	"310"	"NW"	"-9999.0"	"-9999.0"	"32.1"	"0.0"	"6.9"	"11.1"	
"20130303"	"Mostly Cloudy"	"10"	"54"	"28.9"	"-1.7"	"0"	"0"	"-9999"	"-9999"	"70"	"mostlycloudy"	"METAR KBOS 031554Z VRB04KT 10SM BKN022 BKN048 BKN080 03/M02 A2961 RMK AO2 SLP027 SNB1455E45 P0000 T00331017 $"	"0.00"	"0.0"	"29.61"	"1002.7"	"0"	"0"	"37.9"	"3.3"	"0"	"0"	"10.0"	"16.1"	"0"	"Variable"	"-9999.0"	"-9999.0"	"34.4"	"1.3"	"4.6"	"7.4"	
"20130303"	"Mostly Cloudy"	"11"	"54"	"30.0"	"-1.1"	"0"	"0"	"-9999"	"-9999"	"65"	"mostlycloudy"	"METAR KBOS 031654Z 28007KT 10SM BKN022 BKN050 BKN250 05/M01 A2960 RMK AO2 SLP023 T00501011 $"	"-9999.00"	"-9999.00"	"29.60"	"1002.3"	"0"	"0"	"41.0"	"5.0"	"0"	"0"	"10.0"	"16.1"	"280"	"West"	"-9999.0"	"-9999.0"	"35.8"	"2.1"	"8.1"	"13.0"	
"20130303"	"Mostly Cloudy"	"12"	"48"	"28.4"	"-2.0"	"0"	"0"	"-9999"	"-9999"	"65"	"mostlycloudy"	"SPECI KBOS 031748Z 35006KT 10SM SCT022 SCT049 BKN070 BKN250 04/M02 A2958 RMK AO2 $"	"-9999.00"	"-9999.00"	"29.58"	"1001.6"	"0"	"0"	"39.2"	"4.0"	"0"	"0"	"10.0"	"16.1"	"350"	"North"	"-9999.0"	"-9999.0"	"34.2"	"1.2"	"6.9"	"11.1"	
"20130303"	"Mostly Cloudy"	"12"	"54"	"28.9"	"-1.7"	"0"	"0"	"-9999"	"-9999"	"62"	"mostlycloudy"	"METAR KBOS 031754Z 28006KT 10SM BKN026 BKN050 BKN070 05/M02 A2958 RMK AO2 SLP016 CIG 023V028 60000 T00501017 10050 20006 56011 $"	"-9999.00"	"-9999.00"	"29.58"	"1001.6"	"0"	"0"	"41.0"	"5.0"	"0"	"0"	"10.0"	"16.1"	"280"	"West"	"-9999.0"	"-9999.0"	"36.4"	"2.5"	"6.9"	"11.1"	
"20130303"	"Mostly Cloudy"	"13"	"54"	"30.0"	"-1.1"	"0"	"0"	"-9999"	"-9999"	"62"	"mostlycloudy"	"METAR KBOS 031854Z 33006KT 10SM SCT025 BKN035 BKN060 06/M01 A2957 RMK AO2 SLP011 T00561011"	"-9999.00"	"-9999.00"	"29.57"	"1001.1"	"0"	"0"	"42.1"	"5.6"	"0"	"0"	"10.0"	"16.1"	"330"	"NNW"	"-9999.0"	"-9999.0"	"37.7"	"3.2"	"6.9"	"11.1"	
"20130303"	"Overcast"	"14"	"54"	"28.9"	"-1.7"	"0"	"0"	"-9999"	"-9999"	"60"	"cloudy"	"METAR KBOS 031954Z 32009KT 10SM FEW028 SCT047 BKN065 OVC250 06/M02 A2956 RMK AO2 SLP011 T00561017"	"-9999.00"	"-9999.00"	"29.57"	"1001.1"	"0"	"0"	"42.1"	"5.6"	"0"	"0"	"10.0"	"16.1"	"320"	"NW"	"-9999.0"	"-9999.0"	"36.1"	"2.3"	"10.4"	"16.7"	
"20130303"	"Overcast"	"15"	"27"	"28.4"	"-2.0"	"0"	"0"	"-9999"	"-9999"	"61"	"cloudy"	"SPECI KBOS 032027Z 32008KT 10SM BKN028 OVC049 05/M02 A2957 RMK AO2"	"-9999.00"	"-9999.00"	"29.57"	"1001.2"	"0"	"0"	"41.0"	"5.0"	"0"	"0"	"10.0"	"16.1"	"320"	"NW"	"-9999.0"	"-9999.0"	"35.2"	"1.8"	"9.2"	"14.8"	
"20130303"	"Overcast"	"15"	"37"	"28.4"	"-2.0"	"0"	"0"	"-9999"	"-9999"	"61"	"cloudy"	"SPECI KBOS 032037Z 32008KT 10SM BKN030 OVC049 05/M02 A2957 RMK AO2"	"-9999.00"	"-9999.00"	"29.57"	"1001.2"	"0"	"0"	"41.0"	"5.0"	"0"	"0"	"10.0"	"16.1"	"320"	"NW"	"-9999.0"	"-9999.0"	"35.2"	"1.8"	"9.2"	"14.8"	
"20130303"	"Overcast"	"15"	"54"	"28.9"	"-1.7"	"0"	"0"	"-9999"	"-9999"	"62"	"cloudy"	"METAR KBOS 032054Z 34008KT 10SM BKN030 BKN044 OVC050 05/M02 A2957 RMK AO2 SLP011 T00501017 55005"	"-9999.00"	"-9999.00"	"29.57"	"1001.1"	"0"	"0"	"41.0"	"5.0"	"0"	"0"	"10.0"	"16.1"	"340"	"NNW"	"-9999.0"	"-9999.0"	"35.2"	"1.8"	"9.2"	"14.8"	
"20130303"	"Overcast"	"16"	"54"	"28.9"	"-1.7"	"0"	"0"	"-9999"	"-9999"	"65"	"cloudy"	"METAR KBOS 032154Z 30006KT 10SM FEW024 BKN060 OVC200 04/M02 A2957 RMK AO2 SLP014 T00441017"	"-9999.00"	"-9999.00"	"29.57"	"1001.4"	"0"	"0"	"39.9"	"4.4"	"0"	"0"	"10.0"	"16.1"	"300"	"WNW"	"-9999.0"	"-9999.0"	"35.1"	"1.7"	"6.9"	"11.1"	
"20130303"	"Light Rain"	"17"	"41"	"30.2"	"-1.0"	"0"	"0"	"-9999"	"-9999"	"75"	"rain"	"SPECI KBOS 032241Z 29010KT 10SM -RA BKN020 BKN043 OVC050 03/M01 A2958 RMK AO2 RAB22 P0000"	"0.00"	"0.0"	"29.58"	"1001.6"	"1"	"0"	"37.4"	"3.0"	"0"	"0"	"10.0"	"16.1"	"290"	"WNW"	"-9999.0"	"-9999.0"	"29.8"	"-1.2"	"11.5"	"18.5"	
"20130303"	"Light Rain"	"17"	"54"	"30.9"	"-0.6"	"0"	"0"	"-9999"	"-9999"	"76"	"rain"	"METAR KBOS 032254Z 28008KT 10SM -RA BKN018 BKN024 OVC045 03/M01 A2959 RMK AO2 RAB22 SLP019 P0000 T00331006"	"0.00"	"0.0"	"29.59"	"1001.9"	"1"	"0"	"37.9"	"3.3"	"0"	"0"	"10.0"	"16.1"	"280"	"West"	"-9999.0"	"-9999.0"	"31.5"	"-0.3"	"9.2"	"14.8"	
"20130303"	"Overcast"	"18"	"15"	"30.2"	"-1.0"	"0"	"0"	"-9999"	"-9999"	"75"	"cloudy"	"SPECI KBOS 032315Z 28009KT 8SM UP FEW020 OVC049 03/M01 A2959 RMK AO2 RAE2257UPB13 P0000"	"0.00"	"0.0"	"29.59"	"1001.9"	"0"	"0"	"37.4"	"3.0"	"0"	"0"	"8.0"	"12.9"	"280"	"West"	"-9999.0"	"-9999.0"	"30.3"	"-1.0"	"10.4"	"16.7"	
"20130303"	"Overcast"	"18"	"54"	"30.0"	"-1.1"	"0"	"0"	"-9999"	"-9999"	"76"	"cloudy"	"METAR KBOS 032354Z 28011KT 8SM FEW021 OVC047 03/M01 A2959 RMK AO2 RAE2257B26E35UPB13E16 SLP021 P0000 60000 T00281011 10061 20028 51010"	"0.00"	"0.0"	"29.60"	"1002.1"	"0"	"0"	"37.0"	"2.8"	"0"	"0"	"8.0"	"12.9"	"280"	"West"	"-9999.0"	"-9999.0"	"28.9"	"-1.7"	"12.7"	"20.4"	
"20130303"	"Overcast"	"19"	"54"	"30.0"	"-1.1"	"0"	"0"	"-9999"	"-9999"	"79"	"cloudy"	"METAR KBOS 040054Z 30008KT 10SM FEW016 BKN055 OVC065 02/M01 A2960 RMK AO2 SLP023 T00221011"	"-9999.00"	"-9999.00"	"29.60"	"1002.3"	"0"	"0"	"36.0"	"2.2"	"0"	"0"	"10.0"	"16.1"	"300"	"WNW"	"-9999.0"	"-9999.0"	"29.0"	"-1.6"	"9.2"	"14.8"	
"20130303"	"Overcast"	"20"	"54"	"30.0"	"-1.1"	"0"	"0"	"-9999"	"-9999"	"82"	"cloudy"	"METAR KBOS 040154Z 29010KT 9SM FEW016 BKN065 OVC090 02/M01 A2961 RMK AO2 SLP025 T00171011"	"-9999.00"	"-9999.00"	"29.61"	"1002.5"	"0"	"0"	"35.1"	"1.7"	"0"	"0"	"9.0"	"14.5"	"290"	"WNW"	"-9999.0"	"-9999.0"	"26.9"	"-2.9"	"11.5"	"18.5"	
"20130303"	"Light Snow"	"21"	"54"	"30.0"	"-1.1"	"0"	"0"	"-9999"	"-9999"	"82"	"snow"	"METAR KBOS 040254Z 29007KT 8SM -SN FEW030 OVC038 02/M01 A2960 RMK AO2 SNB06 SLP023 P0000 60000 T00171011 50002"	"0.00"	"0.0"	"29.60"	"1002.3"	"0"	"1"	"35.1"	"1.7"	"0"	"0"	"8.0"	"12.9"	"290"	"WNW"	"-9999.0"	"-9999.0"	"28.6"	"-1.9"	"8.1"	"13.0"	
"20130303"	"Overcast"	"22"	"54"	"28.0"	"-2.2"	"0"	"0"	"-9999"	"-9999"	"73"	"cloudy"	"METAR KBOS 040354Z 31010KT 10SM OVC042 02/M02 A2960 RMK AO2 SNE39 SLP021 P0000 T00221022"	"0.00"	"0.0"	"29.60"	"1002.1"	"0"	"0"	"36.0"	"2.2"	"0"	"0"	"10.0"	"16.1"	"310"	"NW"	"-9999.0"	"-9999.0"	"28.0"	"-2.2"	"11.5"	"18.5"	
"20130303"	"Overcast"	"23"	"54"	"24.1"	"-4.4"	"0"	"0"	"-9999"	"-9999"	"64"	"cloudy"	"METAR KBOS 040454Z 30009KT 10SM FEW044 BKN075 OVC110 02/M04 A2959 RMK AO2 CIG 060 E SLP020 T00171044 400610006"	"-9999.00"	"-9999.00"	"29.59"	"1002.0"	"0"	"0"	"35.1"	"1.7"	"0"	"0"	"10.0"	"16.1"	"300"	"WNW"	"-9999.0"	"-9999.0"	"27.4"	"-2.6"	"10.4"	"16.7"	
"20130302"	"Overcast"	"00"	"54"	"26.1"	"-3.3"	"0"	"0"	"-9999"	"-9999"	"67"	"cloudy"	"METAR KBOS 020554Z 30008KT 10SM OVC041 02/M03 A2967 RMK AO2 SLP048 T00221033 10039 20022 58001"	"-9999.00"	"-9999.00"	"29.68"	"1004.8"	"0"	"0"	"36.0"	"2.2"	"0"	"0"	"10.0"	"16.1"	"300"	"WNW"	"-9999.0"	"-9999.0"	"29.0"	"-1.6"	"9.2"	"14.8"	
"20130302"	"Overcast"	"01"	"54"	"26.1"	"-3.3"	"0"	"0"	"-9999"	"-9999"	"67"	"cloudy"	"METAR KBOS 020654Z 30010KT 10SM OVC043 02/M03 A2966 RMK AO2 SLP045 T00221033"	"-9999.00"	"-9999.00"	"29.67"	"1004.5"	"0"	"0"	"36.0"	"2.2"	"0"	"0"	"10.0"	"16.1"	"300"	"WNW"	"-9999.0"	"-9999.0"	"28.0"	"-2.2"	"11.5"	"18.5"	
"20130302"	"Overcast"	"02"	"54"	"26.1"	"-3.3"	"0"	"0"	"-9999"	"-9999"	"70"	"cloudy"	"METAR KBOS 020754Z 30011KT 10SM OVC041 02/M03 A2966 RMK AO2 SLP044 T00171033"	"-9999.00"	"-9999.00"	"29.66"	"1004.4"	"0"	"0"	"35.1"	"1.7"	"0"	"0"	"10.0"	"16.1"	"300"	"WNW"	"-9999.0"	"-9999.0"	"26.4"	"-3.1"	"12.7"	"20.4"	
"20130302"	"Overcast"	"03"	"54"	"25.0"	"-3.9"	"0"	"0"	"-9999"	"-9999"	"67"	"cloudy"	"METAR KBOS 020854Z 30009G17KT 10SM OVC045 02/M04 A2966 RMK AO2 SLP044 T00171039 56004"	"-9999.00"	"-9999.00"	"29.66"	"1004.4"	"0"	"0"	"35.1"	"1.7"	"0"	"0"	"10.0"	"16.1"	"300"	"WNW"	"19.6"	"31.5"	"27.4"	"-2.6"	"10.4"	"16.7"	
"20130302"	"Overcast"	"04"	"54"	"25.0"	"-3.9"	"0"	"0"	"-9999"	"-9999"	"67"	"cloudy"	"METAR KBOS 020954Z 31008KT 10SM OVC049 02/M04 A2967 RMK AO2 SLP046 T00171039"	"-9999.00"	"-9999.00"	"29.67"	"1004.6"	"0"	"0"	"35.1"	"1.7"	"0"	"0"	"10.0"	"16.1"	"310"	"NW"	"-9999.0"	"-9999.0"	"27.9"	"-2.3"	"9.2"	"14.8"	
"20130302"	"Mostly Cloudy"	"05"	"54"	"25.0"	"-3.9"	"0"	"0"	"-9999"	"-9999"	"70"	"mostlycloudy"	"METAR KBOS 021054Z 31008KT 10SM SCT049 BKN220 01/M04 A2967 RMK AO2 SLP045 T00111039"	"-9999.00"	"-9999.00"	"29.67"	"1004.5"	"0"	"0"	"34.0"	"1.1"	"0"	"0"	"10.0"	"16.1"	"310"	"NW"	"-9999.0"	"-9999.0"	"26.6"	"-3.0"	"9.2"	"14.8"	
"20130302"	"Scattered Clouds"	"06"	"54"	"24.1"	"-4.4"	"0"	"0"	"-9999"	"-9999"	"67"	"partlycloudy"	"METAR KBOS 021154Z 30009KT 10SM FEW045 SCT150 SCT220 01/M04 A2967 RMK AO2 SLP047 T00111044 10022 20011 52004"	"-9999.00"	"-9999.00"	"29.67"	"1004.7"	"0"	"0"	"34.0"	"1.1"	"0"	"0"	"10.0"	"16.1"	"300"	"WNW"	"-9999.0"	"-9999.0"	"26.0"	"-3.3"	"10.4"	"16.7"	
"20130302"	"Scattered Clouds"	"07"	"54"	"25.0"	"-3.9"	"0"	"0"	"-9999"	"-9999"	"64"	"partlycloudy"	"METAR KBOS 021254Z COR 32011KT 10SM FEW045 SCT220 02/M04 A2967 RMK AO2 SLP046 T00221039"	"-9999.00"	"-9999.00"	"29.67"	"1004.6"	"0"	"0"	"36.0"	"2.2"	"0"	"0"	"10.0"	"16.1"	"320"	"NW"	"-9999.0"	"-9999.0"	"27.5"	"-2.5"	"12.7"	"20.4"	
"20130302"	"Scattered Clouds"	"08"	"54"	"25.0"	"-3.9"	"0"	"0"	"-9999"	"-9999"	"60"	"partlycloudy"	"METAR KBOS 021354Z 31009KT 10SM FEW040 SCT150 SCT220 03/M04 A2967 RMK AO2 SLP048 T00331039"	"-9999.00"	"-9999.00"	"29.68"	"1004.8"	"0"	"0"	"37.9"	"3.3"	"0"	"0"	"10.0"	"16.1"	"310"	"NW"	"-9999.0"	"-9999.0"	"30.9"	"-0.6"	"10.4"	"16.7"	
"20130302"	"Mostly Cloudy"	"09"	"54"	"25.0"	"-3.9"	"0"	"0"	"-9999"	"-9999"	"60"	"mostlycloudy"	"METAR KBOS 021454Z 33007KT 10SM SCT032 BKN150 03/M04 A2967 RMK AO2 SLP048 T00331039 53001"	"-9999.00"	"-9999.00"	"29.68"	"1004.8"	"0"	"0"	"37.9"	"3.3"	"0"	"0"	"10.0"	"16.1"	"330"	"NNW"	"-9999.0"	"-9999.0"	"32.1"	"0.0"	"8.1"	"13.0"	
"20130302"	"Mostly Cloudy"	"10"	"54"	"25.0"	"-3.9"	"0"	"0"	"-9999"	"-9999"	"57"	"mostlycloudy"	"METAR KBOS 021554Z 34006KT 10SM BKN032 04/M04 A2967 RMK AO2 SLP045 T00391039"	"-9999.00"	"-9999.00"	"29.67"	"1004.5"	"0"	"0"	"39.0"	"3.9"	"0"	"0"	"10.0"	"16.1"	"340"	"NNW"	"-9999.0"	"-9999.0"	"34.0"	"1.1"	"6.9"	"11.1"	
"20130302"	"Mostly Cloudy"	"11"	"54"	"26.1"	"-3.3"	"0"	"0"	"-9999"	"-9999"	"55"	"mostlycloudy"	"METAR KBOS 021654Z 34004KT 10SM BKN034 BKN050 05/M03 A2965 RMK AO2 SLP041 T00501033"	"-9999.00"	"-9999.00"	"29.65"	"1004.1"	"0"	"0"	"41.0"	"5.0"	"0"	"0"	"10.0"	"16.1"	"340"	"NNW"	"-9999.0"	"-9999.0"	"38.0"	"3.3"	"4.6"	"7.4"	
"20130302"	"Mostly Cloudy"	"12"	"54"	"28.9"	"-1.7"	"0"	"0"	"-9999"	"-9999"	"65"	"mostlycloudy"	"METAR KBOS 021754Z 14007KT 10SM FEW030 BKN035 BKN150 04/M02 A2963 RMK AO2 SLP034 T00441017 10056 20011 58014"	"-9999.00"	"-9999.00"	"29.63"	"1003.4"	"0"	"0"	"39.9"	"4.4"	"0"	"0"	"10.0"	"16.1"	"140"	"SE"	"-9999.0"	"-9999.0"	"34.5"	"1.4"	"8.1"	"13.0"	
"20130302"	"Mostly Cloudy"	"13"	"54"	"28.0"	"-2.2"	"0"	"0"	"-9999"	"-9999"	"65"	"mostlycloudy"	"METAR KBOS 021854Z 13008KT 10SM FEW030 BKN037 04/M02 A2963 RMK AO2 SLP034 T00391022"	"-9999.00"	"-9999.00"	"29.63"	"1003.4"	"0"	"0"	"39.0"	"3.9"	"0"	"0"	"10.0"	"16.1"	"130"	"SE"	"-9999.0"	"-9999.0"	"32.8"	"0.4"	"9.2"	"14.8"	
"20130302"	"Mostly Cloudy"	"14"	"54"	"28.0"	"-2.2"	"0"	"0"	"-9999"	"-9999"	"65"	"mostlycloudy"	"METAR KBOS 021954Z 12007KT 10SM BKN037 04/M02 A2963 RMK AO2 SLP034 T00391022"	"-9999.00"	"-9999.00"	"29.63"	"1003.4"	"0"	"0"	"39.0"	"3.9"	"0"	"0"	"10.0"	"16.1"	"120"	"ESE"	"-9999.0"	"-9999.0"	"33.4"	"0.8"	"8.1"	"13.0"	
"20130302"	"Overcast"	"15"	"54"	"28.9"	"-1.7"	"0"	"0"	"-9999"	"-9999"	"67"	"cloudy"	"METAR KBOS 022054Z 16004KT 10SM BKN037 OVC050 04/M02 A2963 RMK AO2 SLP032 T00391017 58002"	"-9999.00"	"-9999.00"	"29.63"	"1003.2"	"0"	"0"	"39.0"	"3.9"	"0"	"0"	"10.0"	"16.1"	"160"	"SSE"	"-9999.0"	"-9999.0"	"35.7"	"2.0"	"4.6"	"7.4"	
"20130302"	"Overcast"	"16"	"54"	"28.0"	"-2.2"	"0"	"0"	"-9999"	"-9999"	"60"	"cloudy"	"METAR KBOS 022154Z 24003KT 10SM SCT037 OVC044 05/M02 A2963 RMK AO2 SLP032 T00501022 $"	"-9999.00"	"-9999.00"	"29.63"	"1003.2"	"0"	"0"	"41.0"	"5.0"	"0"	"0"	"10.0"	"16.1"	"240"	"WSW"	"-9999.0"	"-9999.0"	"39.0"	"3.9"	"3.5"	"5.6"	
"20130302"	"Overcast"	"17"	"54"	"27.0"	"-2.8"	"0"	"0"	"-9999"	"-9999"	"57"	"cloudy"	"METAR KBOS 022254Z 28006KT 10SM FEW035 BKN042 OVC050 05/M03 A2964 RMK AO2 SLP036 T00501028"	"-9999.00"	"-9999.00"	"29.64"	"1003.6"	"0"	"0"	"41.0"	"5.0"	"0"	"0"	"10.0"	"16.1"	"280"	"West"	"-9999.0"	"-9999.0"	"36.4"	"2.5"	"6.9"	"11.1"	
"20130302"	"Overcast"	"18"	"54"	"26.1"	"-3.3"	"0"	"0"	"-9999"	"-9999"	"58"	"cloudy"	"METAR KBOS 022354Z 29009KT 10SM FEW035 OVC042 04/M03 A2965 RMK AO2 SLP040 T00441033 10050 20033 53008"	"-9999.00"	"-9999.00"	"29.65"	"1004.0"	"0"	"0"	"39.9"	"4.4"	"0"	"0"	"10.0"	"16.1"	"290"	"WNW"	"-9999.0"	"-9999.0"	"33.4"	"0.8"	"10.4"	"16.7"	
"20130302"	"Overcast"	"19"	"54"	"25.0"	"-3.9"	"0"	"0"	"-9999"	"-9999"	"57"	"cloudy"	"METAR KBOS 030054Z 33008G14KT 10SM FEW037 OVC045 04/M04 A2966 RMK AO2 SLP042 T00391039"	"-9999.00"	"-9999.00"	"29.66"	"1004.2"	"0"	"0"	"39.0"	"3.9"	"0"	"0"	"10.0"	"16.1"	"330"	"NNW"	"16.1"	"25.9"	"32.8"	"0.4"	"9.2"	"14.8"	
"20130302"	"Overcast"	"20"	"54"	"24.1"	"-4.4"	"0"	"0"	"-9999"	"-9999"	"57"	"cloudy"	"METAR KBOS 030154Z 32011G16KT 10SM SCT037 OVC045 03/M04 A2966 RMK AO2 SLP044 T00331044"	"-9999.00"	"-9999.00"	"29.66"	"1004.4"	"0"	"0"	"37.9"	"3.3"	"0"	"0"	"10.0"	"16.1"	"320"	"NW"	"18.4"	"29.6"	"30.0"	"-1.1"	"12.7"	"20.4"	
"20130302"	"Overcast"	"21"	"54"	"23.0"	"-5.0"	"0"	"0"	"-9999"	"-9999"	"57"	"cloudy"	"METAR KBOS 030254Z 33008KT 10SM FEW037 OVC045 03/M05 A2966 RMK AO2 SLP042 T00281050 50002"	"-9999.00"	"-9999.00"	"29.66"	"1004.2"	"0"	"0"	"37.0"	"2.8"	"0"	"0"	"10.0"	"16.1"	"330"	"NNW"	"-9999.0"	"-9999.0"	"30.4"	"-0.9"	"9.2"	"14.8"	
"20130302"	"Overcast"	"22"	"54"	"24.1"	"-4.4"	"0"	"0"	"-9999"	"-9999"	"59"	"cloudy"	"METAR KBOS 030354Z 31008KT 10SM FEW035 OVC043 03/M04 A2965 RMK AO2 SLP039 T00281044"	"-9999.00"	"-9999.00"	"29.65"	"1003.9"	"0"	"0"	"37.0"	"2.8"	"0"	"0"	"10.0"	"16.1"	"310"	"NW"	"-9999.0"	"-9999.0"	"30.4"	"-0.9"	"9.2"	"14.8"	
"20130302"	"Overcast"	"23"	"54"	"24.1"	"-4.4"	"0"	"0"	"-9999"	"-9999"	"62"	"cloudy"	"METAR KBOS 030454Z 32009KT 10SM SCT023 OVC043 02/M04 A2964 RMK AO2 SLP037 T00221044 400560011"	"-9999.00"	"-9999.00"	"29.64"	"1003.7"	"0"	"0"	"36.0"	"2.2"	"0"	"0"	"10.0"	"16.1"	"320"	"NW"	"-9999.0"	"-9999.0"	"28.5"	"-2.0"	"10.4"	"16.7"	
"20130301"	"Overcast"	"00"	"36"	"33.8"	"1.0"	"0"	"0"	"-9999"	"-9999"	"87"	"cloudy"	"SPECI KBOS 010536Z 01006KT 10SM BKN009 OVC020 03/01 A2954 RMK AO2 $"	"-9999.00"	"-9999.00"	"29.54"	"1000.2"	"0"	"0"	"37.4"	"3.0"	"0"	"0"	"10.0"	"16.1"	"10"	"North"	"-9999.0"	"-9999.0"	"32.1"	"0.0"	"6.9"	"11.1"	
"20130301"	"Overcast"	"00"	"54"	"34.0"	"1.1"	"0"	"0"	"-9999"	"-9999"	"89"	"cloudy"	"METAR KBOS 010554Z 01006KT 10SM OVC009 03/01 A2954 RMK AO2 SLP002 T00280011 10056 20028 55001 $"	"-9999.00"	"-9999.00"	"29.54"	"1000.2"	"0"	"0"	"37.0"	"2.8"	"0"	"0"	"10.0"	"16.1"	"10"	"North"	"-9999.0"	"-9999.0"	"31.6"	"-0.2"	"6.9"	"11.1"	
"20130301"	"Overcast"	"01"	"54"	"33.1"	"0.6"	"0"	"0"	"-9999"	"-9999"	"89"	"cloudy"	"METAR KBOS 010654Z 36007KT 10SM BKN009 BKN016 OVC032 02/01 A2954 RMK AO2 SLP004 T00220006 $"	"-9999.00"	"-9999.00"	"29.55"	"1000.4"	"0"	"0"	"36.0"	"2.2"	"0"	"0"	"10.0"	"16.1"	"360"	"North"	"-9999.0"	"-9999.0"	"29.6"	"-1.3"	"8.1"	"13.0"	
"20130301"	"Overcast"	"02"	"16"	"32.0"	"0.0"	"0"	"0"	"-9999"	"-9999"	"87"	"cloudy"	"SPECI KBOS 010716Z 01006KT 10SM BKN013 BKN018 OVC032 02/00 A2954 RMK AO2 $"	"-9999.00"	"-9999.00"	"29.54"	"1000.2"	"0"	"0"	"35.6"	"2.0"	"0"	"0"	"10.0"	"16.1"	"10"	"North"	"-9999.0"	"-9999.0"	"29.9"	"-1.2"	"6.9"	"11.1"	
"20130301"	"Overcast"	"02"	"54"	"32.0"	"0.0"	"0"	"0"	"-9999"	"-9999"	"89"	"cloudy"	"METAR KBOS 010754Z 36008KT 10SM OVC011 02/00 A2954 RMK AO2 SLP003 T00170000 $"	"-9999.00"	"-9999.00"	"29.54"	"1000.3"	"0"	"0"	"35.1"	"1.7"	"0"	"0"	"10.0"	"16.1"	"360"	"North"	"-9999.0"	"-9999.0"	"27.9"	"-2.3"	"9.2"	"14.8"	
"20130301"	"Overcast"	"03"	"26"	"32.0"	"0.0"	"0"	"0"	"-9999"	"-9999"	"87"	"cloudy"	"SPECI KBOS 010826Z 35008KT 10SM SCT011 OVC022 02/00 A2955 RMK AO2 $"	"-9999.00"	"-9999.00"	"29.55"	"1000.6"	"0"	"0"	"35.6"	"2.0"	"0"	"0"	"10.0"	"16.1"	"350"	"North"	"-9999.0"	"-9999.0"	"28.6"	"-1.9"	"9.2"	"14.8"	
"20130301"	"Overcast"	"03"	"54"	"30.9"	"-0.6"	"0"	"0"	"-9999"	"-9999"	"85"	"cloudy"	"METAR KBOS 010854Z 36005KT 10SM OVC022 02/M01 A2955 RMK AO2 SLP007 T00171006 53005 $"	"-9999.00"	"-9999.00"	"29.55"	"1000.7"	"0"	"0"	"35.1"	"1.7"	"0"	"0"	"10.0"	"16.1"	"360"	"North"	"-9999.0"	"-9999.0"	"30.1"	"-1.1"	"5.8"	"9.3"	
"20130301"	"Overcast"	"04"	"54"	"30.9"	"-0.6"	"0"	"0"	"-9999"	"-9999"	"82"	"cloudy"	"METAR KBOS 010954Z 35004KT 10SM OVC026 02/M01 A2956 RMK AO2 SLP010 T00221006 $"	"-9999.00"	"-9999.00"	"29.56"	"1001.0"	"0"	"0"	"36.0"	"2.2"	"0"	"0"	"10.0"	"16.1"	"350"	"North"	"-9999.0"	"-9999.0"	"32.1"	"0.0"	"4.6"	"7.4"	
"20130301"	"Overcast"	"05"	"54"	"30.0"	"-1.1"	"0"	"0"	"-9999"	"-9999"	"82"	"cloudy"	"METAR KBOS 011054Z 36006KT 10SM OVC023 02/M01 A2957 RMK AO2 SLP013 T00171011 $"	"-9999.00"	"-9999.00"	"29.57"	"1001.3"	"0"	"0"	"35.1"	"1.7"	"0"	"0"	"10.0"	"16.1"	"360"	"North"	"-9999.0"	"-9999.0"	"29.3"	"-1.5"	"6.9"	"11.1"	
"20130301"	"Mostly Cloudy"	"06"	"54"	"30.0"	"-1.1"	"0"	"0"	"-9999"	"-9999"	"82"	"mostlycloudy"	"METAR KBOS 011154Z 36005KT 10SM BKN025 02/M01 A2958 RMK AO2 SLP016 T00171011 10028 20011 53009"	"-9999.00"	"-9999.00"	"29.58"	"1001.6"	"0"	"0"	"35.1"	"1.7"	"0"	"0"	"10.0"	"16.1"	"360"	"North"	"-9999.0"	"-9999.0"	"30.1"	"-1.1"	"5.8"	"9.3"	
"20130301"	"Mostly Cloudy"	"07"	"54"	"30.9"	"-0.6"	"0"	"0"	"-9999"	"-9999"	"82"	"mostlycloudy"	"METAR KBOS 011254Z 32003KT 10SM SCT015 BKN022 BKN230 02/M01 A2960 RMK AO2 SLP024 T00221006"	"-9999.00"	"-9999.00"	"29.60"	"1002.4"	"0"	"0"	"36.0"	"2.2"	"0"	"0"	"10.0"	"16.1"	"320"	"NW"	"-9999.0"	"-9999.0"	"33.3"	"0.7"	"3.5"	"5.6"	
"20130301"	"Mostly Cloudy"	"08"	"54"	"32.0"	"0.0"	"0"	"0"	"-9999"	"-9999"	"82"	"mostlycloudy"	"METAR KBOS 011354Z 33009G16KT 10SM SCT017 BKN027 BKN230 03/00 A2962 RMK AO2 SLP028 T00280000"	"-9999.00"	"-9999.00"	"29.62"	"1002.8"	"0"	"0"	"37.0"	"2.8"	"0"	"0"	"10.0"	"16.1"	"330"	"NNW"	"18.4"	"29.6"	"29.8"	"-1.2"	"10.4"	"16.7"	
"20130301"	"Overcast"	"09"	"54"	"30.0"	"-1.1"	"0"	"0"	"-9999"	"-9999"	"70"	"cloudy"	"METAR KBOS 011454Z 33014G17KT 10SM SCT021 OVC033 04/M01 A2962 RMK AO2 SLP029 VCSH NE-SE T00391011 51013"	"-9999.00"	"-9999.00"	"29.62"	"1002.9"	"0"	"0"	"39.0"	"3.9"	"0"	"0"	"10.0"	"16.1"	"330"	"NNW"	"19.6"	"31.5"	"30.3"	"-1.0"	"16.1"	"25.9"	
"20130301"	"Overcast"	"10"	"54"	"30.0"	"-1.1"	"0"	"0"	"-9999"	"-9999"	"70"	"cloudy"	"METAR KBOS 011554Z 35011G15KT 10SM FEW021 SCT027 OVC033 04/M01 A2962 RMK AO2 SLP031 SCT V BKN T00391011"	"-9999.00"	"-9999.00"	"29.62"	"1003.1"	"0"	"0"	"39.0"	"3.9"	"0"	"0"	"10.0"	"16.1"	"350"	"North"	"17.3"	"27.8"	"31.4"	"-0.3"	"12.7"	"20.4"	
"20130301"	"Overcast"	"11"	"08"	"28.4"	"-2.0"	"0"	"0"	"-9999"	"-9999"	"65"	"cloudy"	"SPECI KBOS 011608Z 33011G15KT 10SM FEW021 BKN027 OVC033 04/M02 A2963 RMK AO2"	"-9999.00"	"-9999.00"	"29.63"	"1003.3"	"0"	"0"	"39.2"	"4.0"	"0"	"0"	"10.0"	"16.1"	"330"	"NNW"	"17.3"	"27.8"	"31.6"	"-0.2"	"12.7"	"20.4"	
"20130301"	"Overcast"	"11"	"54"	"28.9"	"-1.7"	"0"	"0"	"-9999"	"-9999"	"65"	"cloudy"	"METAR KBOS 011654Z 36009KT 10SM BKN028 OVC036 04/M02 A2963 RMK AO2 SLP032 T00441017"	"-9999.00"	"-9999.00"	"29.63"	"1003.2"	"0"	"0"	"39.9"	"4.4"	"0"	"0"	"10.0"	"16.1"	"360"	"North"	"-9999.0"	"-9999.0"	"33.4"	"0.8"	"10.4"	"16.7"	
"20130301"	"Overcast"	"12"	"23"	"28.4"	"-2.0"	"0"	"0"	"-9999"	"-9999"	"65"	"cloudy"	"SPECI KBOS 011723Z 33008KT 10SM BKN030 OVC036 04/M02 A2962 RMK AO2"	"-9999.00"	"-9999.00"	"29.62"	"1002.9"	"0"	"0"	"39.2"	"4.0"	"0"	"0"	"10.0"	"16.1"	"330"	"NNW"	"-9999.0"	"-9999.0"	"33.0"	"0.6"	"9.2"	"14.8"	
"20130301"	"Overcast"	"12"	"54"	"27.0"	"-2.8"	"0"	"0"	"-9999"	"-9999"	"60"	"cloudy"	"METAR KBOS 011754Z 30010G14KT 10SM BKN030 OVC035 04/M03 A2962 RMK AO2 SLP029 T00441028 10044 20017 58000"	"-9999.00"	"-9999.00"	"29.62"	"1002.9"	"0"	"0"	"39.9"	"4.4"	"0"	"0"	"10.0"	"16.1"	"300"	"WNW"	"16.1"	"25.9"	"32.9"	"0.5"	"11.5"	"18.5"	
"20130301"	"Overcast"	"13"	"54"	"27.0"	"-2.8"	"0"	"0"	"-9999"	"-9999"	"60"	"cloudy"	"METAR KBOS 011854Z 31009KT 10SM BKN030 OVC035 04/M03 A2962 RMK AO2 SLP029 T00441028"	"-9999.00"	"-9999.00"	"29.62"	"1002.9"	"0"	"0"	"39.9"	"4.4"	"0"	"0"	"10.0"	"16.1"	"310"	"NW"	"-9999.0"	"-9999.0"	"33.4"	"0.8"	"10.4"	"16.7"	
"20130301"	"Overcast"	"14"	"54"	"27.0"	"-2.8"	"0"	"0"	"-9999"	"-9999"	"60"	"cloudy"	"METAR KBOS 011954Z 34009KT 10SM OVC039 04/M03 A2962 RMK AO2 SLP031 T00441028"	"-9999.00"	"-9999.00"	"29.62"	"1003.1"	"0"	"0"	"39.9"	"4.4"	"0"	"0"	"10.0"	"16.1"	"340"	"NNW"	"-9999.0"	"-9999.0"	"33.4"	"0.8"	"10.4"	"16.7"	
"20130301"	"Overcast"	"15"	"54"	"26.1"	"-3.3"	"0"	"0"	"-9999"	"-9999"	"58"	"cloudy"	"METAR KBOS 012054Z 34011KT 10SM OVC037 04/M03 A2963 RMK AO2 SLP034 T00441033 53006"	"-9999.00"	"-9999.00"	"29.63"	"1003.4"	"0"	"0"	"39.9"	"4.4"	"0"	"0"	"10.0"	"16.1"	"340"	"NNW"	"-9999.0"	"-9999.0"	"32.5"	"0.3"	"12.7"	"20.4"	
"20130301"	"Overcast"	"16"	"54"	"26.1"	"-3.3"	"0"	"0"	"-9999"	"-9999"	"60"	"cloudy"	"METAR KBOS 012154Z 32009KT 10SM OVC039 04/M03 A2965 RMK AO2 SLP040 T00391033"	"-9999.00"	"-9999.00"	"29.65"	"1004.0"	"0"	"0"	"39.0"	"3.9"	"0"	"0"	"10.0"	"16.1"	"320"	"NW"	"-9999.0"	"-9999.0"	"32.3"	"0.2"	"10.4"	"16.7"	
"20130301"	"Overcast"	"17"	"54"	"26.1"	"-3.3"	"0"	"0"	"-9999"	"-9999"	"60"	"cloudy"	"METAR KBOS 012254Z 35009KT 10SM OVC037 04/M03 A2966 RMK AO2 SLP044 T00391033"	"-9999.00"	"-9999.00"	"29.66"	"1004.4"	"0"	"0"	"39.0"	"3.9"	"0"	"0"	"10.0"	"16.1"	"350"	"North"	"-9999.0"	"-9999.0"	"32.3"	"0.2"	"10.4"	"16.7"	
"20130301"	"Overcast"	"18"	"54"	"26.1"	"-3.3"	"0"	"0"	"-9999"	"-9999"	"60"	"cloudy"	"METAR KBOS 012354Z 34007KT 10SM OVC043 04/M03 A2967 RMK AO2 SLP047 T00391033 10050 20039 51013"	"-9999.00"	"-9999.00"	"29.67"	"1004.7"	"0"	"0"	"39.0"	"3.9"	"0"	"0"	"10.0"	"16.1"	"340"	"NNW"	"-9999.0"	"-9999.0"	"33.4"	"0.8"	"8.1"	"13.0"	
"20130301"	"Overcast"	"19"	"54"	"26.1"	"-3.3"	"0"	"0"	"-9999"	"-9999"	"62"	"cloudy"	"METAR KBOS 020054Z 36009KT 10SM OVC040 03/M03 A2968 RMK AO2 SLP050 T00331033"	"-9999.00"	"-9999.00"	"29.68"	"1005.0"	"0"	"0"	"37.9"	"3.3"	"0"	"0"	"10.0"	"16.1"	"360"	"North"	"-9999.0"	"-9999.0"	"30.9"	"-0.6"	"10.4"	"16.7"	
"20130301"	"Overcast"	"20"	"54"	"26.1"	"-3.3"	"0"	"0"	"-9999"	"-9999"	"62"	"cloudy"	"METAR KBOS 020154Z 32011G16KT 10SM BKN040 OVC065 03/M03 A2968 RMK AO2 SLP050 T00331033"	"-9999.00"	"-9999.00"	"29.68"	"1005.0"	"0"	"0"	"37.9"	"3.3"	"0"	"0"	"10.0"	"16.1"	"320"	"NW"	"18.4"	"29.6"	"30.0"	"-1.1"	"12.7"	"20.4"	
"20130301"	"Overcast"	"21"	"54"	"26.1"	"-3.3"	"0"	"0"	"-9999"	"-9999"	"62"	"cloudy"	"METAR KBOS 020254Z 32008KT 10SM BKN042 OVC065 03/M03 A2968 RMK AO2 SLP049 T00331033 50002"	"-9999.00"	"-9999.00"	"29.68"	"1004.9"	"0"	"0"	"37.9"	"3.3"	"0"	"0"	"10.0"	"16.1"	"320"	"NW"	"-9999.0"	"-9999.0"	"31.5"	"-0.3"	"9.2"	"14.8"	
"20130301"	"Overcast"	"22"	"54"	"26.1"	"-3.3"	"0"	"0"	"-9999"	"-9999"	"65"	"cloudy"	"METAR KBOS 020354Z 32010G15KT 10SM BKN042 OVC065 03/M03 A2968 RMK AO2 SLP049 T00281033"	"-9999.00"	"-9999.00"	"29.68"	"1004.9"	"0"	"0"	"37.0"	"2.8"	"0"	"0"	"10.0"	"16.1"	"320"	"NW"	"17.3"	"27.8"	"29.3"	"-1.5"	"11.5"	"18.5"	
"20130301"	"Overcast"	"23"	"54"	"26.1"	"-3.3"	"0"	"0"	"-9999"	"-9999"	"65"	"cloudy"	"METAR KBOS 020454Z 32009KT 10SM OVC041 03/M03 A2967 RMK AO2 SLP048 T00281033 400500011"	"-9999.00"	"-9999.00"	"29.68"	"1004.8"	"0"	"0"	"37.0"	"2.8"	"0"	"0"	"10.0"	"16.1"	"320"	"NW"	"-9999.0"	"-9999.0"	"29.8"	"-1.2"	"10.4"	"16.7"	
"20130228"	"Overcast"	"00"	"54"	"36.0"	"2.2"	"0"	"0"	"-9999"	"-9999"	"100"	"cloudy"	"METAR KBOS 280554Z 29009KT 2SM OVC005 02/02 A2956 RMK AO2 SFC VIS 10 SLP010 60013 T00220022 10039 20022 53002"	"-9999.00"	"-9999.00"	"29.56"	"1001.0"	"0"	"0"	"36.0"	"2.2"	"0"	"0"	"2.0"	"3.2"	"290"	"WNW"	"-9999.0"	"-9999.0"	"28.5"	"-2.0"	"10.4"	"16.7"	
"20130228"	"Overcast"	"01"	"54"	"35.1"	"1.7"	"0"	"0"	"-9999"	"-9999"	"100"	"cloudy"	"METAR KBOS 280654Z 30008KT 2SM OVC005 02/02 A2958 RMK AO2 SFC VIS 10 SLP016 T00170017"	"-9999.00"	"-9999.00"	"29.58"	"1001.6"	"0"	"0"	"35.1"	"1.7"	"0"	"0"	"2.0"	"3.2"	"300"	"WNW"	"-9999.0"	"-9999.0"	"27.9"	"-2.3"	"9.2"	"14.8"	
"20130228"	"Overcast"	"02"	"04"	"35.6"	"2.0"	"0"	"0"	"-9999"	"-9999"	"100"	"cloudy"	"SPECI KBOS 280704Z 30007KT 3SM BR OVC005 02/02 A2958 RMK AO2 TWR VIS 4"	"-9999.00"	"-9999.00"	"29.58"	"1001.6"	"0"	"0"	"35.6"	"2.0"	"0"	"0"	"3.0"	"4.8"	"300"	"WNW"	"-9999.0"	"-9999.0"	"29.2"	"-1.5"	"8.1"	"13.0"	
"20130228"	"Overcast"	"02"	"54"	"35.1"	"1.7"	"0"	"0"	"-9999"	"-9999"	"100"	"cloudy"	"METAR KBOS 280754Z 30007KT 3SM BR OVC005 02/02 A2959 RMK AO2 SLP018 T00170017"	"-9999.00"	"-9999.00"	"29.59"	"1001.8"	"0"	"0"	"35.1"	"1.7"	"0"	"0"	"3.0"	"4.8"	"300"	"WNW"	"-9999.0"	"-9999.0"	"28.6"	"-1.9"	"8.1"	"13.0"	
"20130228"	"Overcast"	"03"	"54"	"34.0"	"1.1"	"0"	"0"	"-9999"	"-9999"	"100"	"cloudy"	"METAR KBOS 280854Z 30005KT 10SM OVC005 01/01 A2960 RMK AO2 SLP021 T00110011 51011"	"-9999.00"	"-9999.00"	"29.60"	"1002.1"	"0"	"0"	"34.0"	"1.1"	"0"	"0"	"10.0"	"16.1"	"300"	"WNW"	"-9999.0"	"-9999.0"	"28.8"	"-1.8"	"5.8"	"9.3"	
"20130228"	"Overcast"	"04"	"54"	"33.1"	"0.6"	"0"	"0"	"-9999"	"-9999"	"100"	"cloudy"	"METAR KBOS 280954Z 30006KT 10SM OVC005 01/01 A2961 RMK AO2 SLP025 T00060006"	"-9999.00"	"-9999.00"	"29.61"	"1002.5"	"0"	"0"	"33.1"	"0.6"	"0"	"0"	"10.0"	"16.1"	"300"	"WNW"	"-9999.0"	"-9999.0"	"26.9"	"-2.8"	"6.9"	"11.1"	
"20130228"	"Overcast"	"05"	"54"	"33.1"	"0.6"	"0"	"0"	"-9999"	"-9999"	"100"	"cloudy"	"METAR KBOS 281054Z 30006KT 10SM OVC007 01/01 A2962 RMK AO2 SLP031 T00060006"	"-9999.00"	"-9999.00"	"29.62"	"1003.1"	"0"	"0"	"33.1"	"0.6"	"0"	"0"	"10.0"	"16.1"	"300"	"WNW"	"-9999.0"	"-9999.0"	"26.9"	"-2.8"	"6.9"	"11.1"	
"20130228"	"Overcast"	"06"	"54"	"32.0"	"0.0"	"0"	"0"	"-9999"	"-9999"	"96"	"cloudy"	"METAR KBOS 281154Z 30006KT 10SM OVC007 01/00 A2963 RMK AO2 SLP032 70112 T00060000 10022 20006 51011"	"-9999.00"	"-9999.00"	"29.63"	"1003.2"	"0"	"0"	"33.1"	"0.6"	"0"	"0"	"10.0"	"16.1"	"300"	"WNW"	"-9999.0"	"-9999.0"	"26.9"	"-2.8"	"6.9"	"11.1"	
"20130228"	"Overcast"	"07"	"54"	"32.0"	"0.0"	"0"	"0"	"-9999"	"-9999"	"96"	"cloudy"	"METAR KBOS 281254Z 27006KT 10SM OVC009 01/00 A2964 RMK AO2 SLP035 T00060000"	"-9999.00"	"-9999.00"	"29.64"	"1003.5"	"0"	"0"	"33.1"	"0.6"	"0"	"0"	"10.0"	"16.1"	"270"	"West"	"-9999.0"	"-9999.0"	"26.9"	"-2.8"	"6.9"	"11.1"	
"20130228"	"Overcast"	"08"	"54"	"32.0"	"0.0"	"0"	"0"	"-9999"	"-9999"	"96"	"cloudy"	"METAR KBOS 281354Z 27004KT 10SM OVC009 01/00 A2965 RMK AO2 SLP041 T00060000 $"	"-9999.00"	"-9999.00"	"29.65"	"1004.1"	"0"	"0"	"33.1"	"0.6"	"0"	"0"	"10.0"	"16.1"	"270"	"West"	"-9999.0"	"-9999.0"	"28.7"	"-1.8"	"4.6"	"7.4"	
"20130228"	"Overcast"	"09"	"47"	"33.8"	"1.0"	"0"	"0"	"-9999"	"-9999"	"93"	"cloudy"	"SPECI KBOS 281447Z 27005KT 10SM OVC011 02/01 A2964 RMK AO2"	"-9999.00"	"-9999.00"	"29.64"	"1003.6"	"0"	"0"	"35.6"	"2.0"	"0"	"0"	"10.0"	"16.1"	"270"	"West"	"-9999.0"	"-9999.0"	"30.7"	"-0.7"	"5.8"	"9.3"	
"20130228"	"Overcast"	"09"	"54"	"33.1"	"0.6"	"0"	"0"	"-9999"	"-9999"	"92"	"cloudy"	"METAR KBOS 281454Z 32004KT 10SM OVC011 02/01 A2964 RMK AO2 SLP036 T00170006 50004"	"-9999.00"	"-9999.00"	"29.64"	"1003.6"	"0"	"0"	"35.1"	"1.7"	"0"	"0"	"10.0"	"16.1"	"320"	"NW"	"-9999.0"	"-9999.0"	"31.0"	"-0.5"	"4.6"	"7.4"	
"20130228"	"Overcast"	"10"	"46"	"33.8"	"1.0"	"0"	"0"	"-9999"	"-9999"	"87"	"cloudy"	"SPECI KBOS 281546Z VRB04KT 10SM SCT011 BKN050 OVC130 03/01 A2963 RMK AO2"	"-9999.00"	"-9999.00"	"29.63"	"1003.3"	"0"	"0"	"37.4"	"3.0"	"0"	"0"	"10.0"	"16.1"	"0"	"Variable"	"-9999.0"	"-9999.0"	"33.8"	"1.0"	"4.6"	"7.4"	
"20130228"	"Overcast"	"10"	"54"	"34.0"	"1.1"	"0"	"0"	"-9999"	"-9999"	"89"	"cloudy"	"METAR KBOS 281554Z VRB03KT 10SM SCT013 BKN050 OVC130 03/01 A2963 RMK AO2 SLP033 T00280011"	"-9999.00"	"-9999.00"	"29.63"	"1003.3"	"0"	"0"	"37.0"	"2.8"	"0"	"0"	"10.0"	"16.1"	"0"	"Variable"	"-9999.0"	"-9999.0"	"34.5"	"1.4"	"3.5"	"5.6"	
"20130228"	"Overcast"	"11"	"22"	"33.8"	"1.0"	"0"	"0"	"-9999"	"-9999"	"87"	"cloudy"	"SPECI KBOS 281622Z 13004KT 10SM BKN013 BKN055 OVC130 03/01 A2963 RMK AO2"	"-9999.00"	"-9999.00"	"29.63"	"1003.3"	"0"	"0"	"37.4"	"3.0"	"0"	"0"	"10.0"	"16.1"	"130"	"SE"	"-9999.0"	"-9999.0"	"33.8"	"1.0"	"4.6"	"7.4"	
"20130228"	"Overcast"	"11"	"34"	"33.8"	"1.0"	"0"	"0"	"-9999"	"-9999"	"87"	"cloudy"	"SPECI KBOS 281634Z 14003KT 10SM BKN015 OVC075 03/01 A2962 RMK AO2"	"-9999.00"	"-9999.00"	"29.62"	"1002.9"	"0"	"0"	"37.4"	"3.0"	"0"	"0"	"10.0"	"16.1"	"140"	"SE"	"-9999.0"	"-9999.0"	"34.9"	"1.6"	"3.5"	"5.6"	
"20130228"	"Overcast"	"11"	"42"	"33.8"	"1.0"	"0"	"0"	"-9999"	"-9999"	"87"	"cloudy"	"SPECI KBOS 281642Z 15003KT 10SM SCT015 BKN075 OVC140 03/01 A2962 RMK AO2"	"-9999.00"	"-9999.00"	"29.62"	"1002.9"	"0"	"0"	"37.4"	"3.0"	"0"	"0"	"10.0"	"16.1"	"150"	"SSE"	"-9999.0"	"-9999.0"	"34.9"	"1.6"	"3.5"	"5.6"	
"20130228"	"Overcast"	"11"	"54"	"35.1"	"1.7"	"0"	"0"	"-9999"	"-9999"	"89"	"cloudy"	"METAR KBOS 281654Z 21004KT 10SM FEW015 BKN075 OVC140 03/02 A2962 RMK AO2 SLP028 T00330017"	"-9999.00"	"-9999.00"	"29.62"	"1002.8"	"0"	"0"	"37.9"	"3.3"	"0"	"0"	"10.0"	"16.1"	"210"	"SSW"	"-9999.0"	"-9999.0"	"34.4"	"1.3"	"4.6"	"7.4"	
"20130228"	"Overcast"	"12"	"54"	"36.0"	"2.2"	"0"	"0"	"-9999"	"-9999"	"86"	"cloudy"	"METAR KBOS 281754Z 11003KT 10SM FEW015 SCT080 OVC140 04/02 A2958 RMK AO2 SLP017 T00440022 10044 20006 58019"	"-9999.00"	"-9999.00"	"29.58"	"1001.7"	"0"	"0"	"39.9"	"4.4"	"0"	"0"	"10.0"	"16.1"	"110"	"ESE"	"-9999.0"	"-9999.0"	"37.8"	"3.2"	"3.5"	"5.6"	
"20130228"	"Mostly Cloudy"	"13"	"54"	"36.0"	"2.2"	"0"	"0"	"-9999"	"-9999"	"89"	"mostlycloudy"	"METAR KBOS 281854Z 13006KT 10SM FEW015 SCT090 SCT160 BKN240 04/02 A2957 RMK AO2 SLP012 T00390022"	"-9999.00"	"-9999.00"	"29.57"	"1001.2"	"0"	"0"	"39.0"	"3.9"	"0"	"0"	"10.0"	"16.1"	"130"	"SE"	"-9999.0"	"-9999.0"	"34.0"	"1.1"	"6.9"	"11.1"	
"20130228"	"Mostly Cloudy"	"14"	"54"	"36.0"	"2.2"	"0"	"0"	"-9999"	"-9999"	"86"	"mostlycloudy"	"METAR KBOS 281954Z 12005KT 10SM FEW015 SCT060 BKN160 BKN240 04/02 A2955 RMK AO2 SLP005 T00440022"	"-9999.00"	"-9999.00"	"29.55"	"1000.5"	"0"	"0"	"39.9"	"4.4"	"0"	"0"	"10.0"	"16.1"	"120"	"ESE"	"-9999.0"	"-9999.0"	"35.8"	"2.1"	"5.8"	"9.3"	
"20130228"	"Mostly Cloudy"	"15"	"54"	"36.0"	"2.2"	"0"	"0"	"-9999"	"-9999"	"86"	"mostlycloudy"	"METAR KBOS 282054Z 13004KT 10SM FEW025 SCT070 SCT160 BKN240 04/02 A2954 RMK AO2 SLP002 T00440022 56015"	"-9999.00"	"-9999.00"	"29.54"	"1000.2"	"0"	"0"	"39.9"	"4.4"	"0"	"0"	"10.0"	"16.1"	"130"	"SE"	"-9999.0"	"-9999.0"	"36.7"	"2.6"	"4.6"	"7.4"	
"20130228"	"Mostly Cloudy"	"16"	"54"	"35.1"	"1.7"	"0"	"0"	"-9999"	"-9999"	"83"	"mostlycloudy"	"METAR KBOS 282154Z COR 00000KT 10SM FEW030 SCT070 BKN110 04/02 A2954 RMK AO2 SLP003 T00440017 $"	"-9999.00"	"-9999.00"	"29.54"	"1000.3"	"0"	"0"	"39.9"	"4.4"	"0"	"0"	"10.0"	"16.1"	"0"	"North"	"-9999.0"	"-9999.0"	"-999"	"-999"	"0.0"	"0.0"	
"20130228"	"Mostly Cloudy"	"17"	"54"	"34.0"	"1.1"	"0"	"0"	"-9999"	"-9999"	"68"	"mostlycloudy"	"METAR KBOS 282254Z 32005KT 10SM BKN039 BKN110 07/01 A2954 RMK AO2 SLP004 T00670011 $"	"-9999.00"	"-9999.00"	"29.55"	"1000.4"	"0"	"0"	"44.1"	"6.7"	"0"	"0"	"10.0"	"16.1"	"320"	"NW"	"-9999.0"	"-9999.0"	"40.8"	"4.9"	"5.8"	"9.3"	
"20130228"	"Mostly Cloudy"	"18"	"54"	"33.1"	"0.6"	"0"	"0"	"-9999"	"-9999"	"70"	"mostlycloudy"	"METAR KBOS 282354Z 34005KT 10SM FEW040 BKN120 06/01 A2955 RMK AO2 SLP005 T00560006 10067 20033 51003 $"	"-9999.00"	"-9999.00"	"29.55"	"1000.5"	"0"	"0"	"42.1"	"5.6"	"0"	"0"	"10.0"	"16.1"	"340"	"NNW"	"-9999.0"	"-9999.0"	"38.4"	"3.6"	"5.8"	"9.3"	
"20130228"	"Mostly Cloudy"	"19"	"54"	"33.1"	"0.6"	"0"	"0"	"-9999"	"-9999"	"70"	"mostlycloudy"	"METAR KBOS 010054Z 35006KT 10SM SCT046 BKN120 06/01 A2954 RMK AO2 SLP003 T00560006 $"	"-9999.00"	"-9999.00"	"29.54"	"1000.3"	"0"	"0"	"42.1"	"5.6"	"0"	"0"	"10.0"	"16.1"	"350"	"North"	"-9999.0"	"-9999.0"	"37.7"	"3.2"	"6.9"	"11.1"	
"20130228"	"Mostly Cloudy"	"20"	"54"	"33.1"	"0.6"	"0"	"0"	"-9999"	"-9999"	"77"	"mostlycloudy"	"METAR KBOS 010154Z 36005KT 10SM FEW031 BKN046 04/01 A2955 RMK AO2 SLP006 T00440006 $"	"-9999.00"	"-9999.00"	"29.55"	"1000.6"	"0"	"0"	"39.9"	"4.4"	"0"	"0"	"10.0"	"16.1"	"360"	"North"	"-9999.0"	"-9999.0"	"35.8"	"2.1"	"5.8"	"9.3"	
"20130228"	"Scattered Clouds"	"21"	"54"	"32.0"	"0.0"	"0"	"0"	"-9999"	"-9999"	"82"	"partlycloudy"	"METAR KBOS 010254Z 03004KT 10SM FEW030 SCT045 03/00 A2954 RMK AO2 SLP003 T00280000 58002 $"	"-9999.00"	"-9999.00"	"29.54"	"1000.3"	"0"	"0"	"37.0"	"2.8"	"0"	"0"	"10.0"	"16.1"	"30"	"NNE"	"-9999.0"	"-9999.0"	"33.3"	"0.7"	"4.6"	"7.4"	
"20130228"	"Mostly Cloudy"	"22"	"16"	"33.8"	"1.0"	"0"	"0"	"-9999"	"-9999"	"87"	"mostlycloudy"	"SPECI KBOS 010316Z 04005KT 10SM BKN026 03/01 A2954 RMK AO2 $"	"-9999.00"	"-9999.00"	"29.54"	"1000.2"	"0"	"0"	"37.4"	"3.0"	"0"	"0"	"10.0"	"16.1"	"40"	"NE"	"-9999.0"	"-9999.0"	"32.8"	"0.5"	"5.8"	"9.3"	
"20130228"	"Mostly Cloudy"	"22"	"54"	"34.0"	"1.1"	"0"	"0"	"-9999"	"-9999"	"86"	"mostlycloudy"	"METAR KBOS 010354Z 04003KT 10SM BKN026 03/01 A2953 RMK AO2 SLP000 T00330011 $"	"-9999.00"	"-9999.00"	"29.53"	"1000.0"	"0"	"0"	"37.9"	"3.3"	"0"	"0"	"10.0"	"16.1"	"40"	"NE"	"-9999.0"	"-9999.0"	"35.5"	"2.0"	"3.5"	"5.6"	
"20130228"	"Overcast"	"23"	"54"	"35.1"	"1.7"	"0"	"0"	"-9999"	"-9999"	"93"	"cloudy"	"METAR KBOS 010454Z 02007KT 10SM OVC011 03/02 A2954 RMK AO2 SLP001 T00280017 400670006 $"	"-9999.00"	"-9999.00"	"29.54"	"1000.1"	"0"	"0"	"37.0"	"2.8"	"0"	"0"	"10.0"	"16.1"	"20"	"NNE"	"-9999.0"	"-9999.0"	"31.0"	"-0.6"	"8.1"	"13.0"	
"20130227"	"Overcast"	"00"	"54"	"33.1"	"0.6"	"0"	"0"	"-9999"	"-9999"	"83"	"cloudy"	"METAR KBOS 270554Z 08013KT 10SM OVC019 03/01 A3015 RMK AO2 SLP210 T00330006 10033 20022 56027"	"-9999.00"	"-9999.00"	"30.15"	"1021.0"	"0"	"0"	"37.9"	"3.3"	"0"	"0"	"10.0"	"16.1"	"80"	"East"	"-9999.0"	"-9999.0"	"29.2"	"-1.5"	"15.0"	"24.1"	
"20130227"	"Overcast"	"01"	"54"	"34.0"	"1.1"	"0"	"0"	"-9999"	"-9999"	"86"	"cloudy"	"METAR KBOS 270654Z 08012KT 10SM OVC017 03/01 A3011 RMK AO2 SLP197 T00330011"	"-9999.00"	"-9999.00"	"30.12"	"1019.7"	"0"	"0"	"37.9"	"3.3"	"0"	"0"	"10.0"	"16.1"	"80"	"East"	"-9999.0"	"-9999.0"	"29.6"	"-1.3"	"13.8"	"22.2"	
"20130227"	"Light Rain"	"02"	"54"	"34.0"	"1.1"	"0"	"0"	"-9999"	"-9999"	"86"	"rain"	"METAR KBOS 270754Z 08015KT 10SM -RA OVC021 03/01 A3009 RMK AO2 RAB45 SLP188 P0000 T00330011"	"0.00"	"0.0"	"30.09"	"1018.8"	"1"	"0"	"37.9"	"3.3"	"0"	"0"	"10.0"	"16.1"	"80"	"East"	"-9999.0"	"-9999.0"	"28.5"	"-1.9"	"17.3"	"27.8"	
"20130227"	"Rain"	"03"	"54"	"35.1"	"1.7"	"0"	"0"	"-9999"	"-9999"	"89"	"rain"	"METAR KBOS 270854Z 06017KT 6SM RA BR OVC015 03/02 A3005 RMK AO2 PRESFR SLP174 P0003 60003 T00330017 56036"	"0.03"	"0.8"	"30.05"	"1017.4"	"1"	"0"	"37.9"	"3.3"	"0"	"0"	"6.0"	"9.7"	"60"	"ENE"	"-9999.0"	"-9999.0"	"27.9"	"-2.3"	"19.6"	"31.5"	
"20130227"	"Rain"	"04"	"17"	"35.6"	"2.0"	"0"	"0"	"-9999"	"-9999"	"93"	"rain"	"SPECI KBOS 270917Z 06015KT 5SM RA BR OVC013 03/02 A3007 RMK AO2 P0002"	"0.02"	"0.5"	"30.07"	"1018.2"	"1"	"0"	"37.4"	"3.0"	"0"	"0"	"5.0"	"8.0"	"60"	"ENE"	"-9999.0"	"-9999.0"	"27.8"	"-2.3"	"17.3"	"27.8"	
"20130227"	"Rain"	"04"	"54"	"37.0"	"2.8"	"0"	"0"	"-9999"	"-9999"	"93"	"rain"	"METAR KBOS 270954Z 06016KT 4SM RA BR OVC011 04/03 A3005 RMK AO2 SLP173 P0013 T00390028"	"0.13"	"3.3"	"30.04"	"1017.3"	"1"	"0"	"39.0"	"3.9"	"0"	"0"	"4.0"	"6.4"	"60"	"ENE"	"-9999.0"	"-9999.0"	"29.6"	"-1.3"	"18.4"	"29.6"	
"20130227"	"Light Rain"	"05"	"54"	"37.9"	"3.3"	"0"	"0"	"-9999"	"-9999"	"96"	"rain"	"METAR KBOS 271054Z 07017KT 6SM -RA BR OVC011 04/03 A3001 RMK AO2 SLP160 P0006 T00390033"	"0.06"	"1.5"	"30.01"	"1016.0"	"1"	"0"	"39.0"	"3.9"	"0"	"0"	"6.0"	"9.7"	"70"	"ENE"	"-9999.0"	"-9999.0"	"29.3"	"-1.5"	"19.6"	"31.5"	
"20130227"	"Light Rain"	"06"	"54"	"37.9"	"3.3"	"0"	"0"	"-9999"	"-9999"	"96"	"rain"	"METAR KBOS 271154Z 07019KT 5SM -RA BR OVC011 04/03 A2997 RMK AO2 PK WND 09027/1119 SLP148 P0003 60025 70025 T00390033 10039 20033 58026"	"0.03"	"0.8"	"29.97"	"1014.8"	"1"	"0"	"39.0"	"3.9"	"0"	"0"	"5.0"	"8.0"	"70"	"ENE"	"-9999.0"	"-9999.0"	"28.8"	"-1.8"	"21.9"	"35.2"	
"20130227"	"Light Rain"	"07"	"34"	"37.4"	"3.0"	"0"	"0"	"-9999"	"-9999"	"93"	"rain"	"SPECI KBOS 271234Z 09018KT 4SM -RA BR OVC009 04/03 A2996 RMK AO2 PK WND 08026/1217 P0001"	"0.01"	"0.3"	"29.96"	"1014.4"	"1"	"0"	"39.2"	"4.0"	"0"	"0"	"4.0"	"6.4"	"90"	"East"	"-9999.0"	"-9999.0"	"29.3"	"-1.5"	"20.7"	"33.3"	
"20130227"	"Light Rain"	"07"	"54"	"37.9"	"3.3"	"0"	"0"	"-9999"	"-9999"	"96"	"rain"	"METAR KBOS 271254Z 09022KT 3SM -RA BR OVC009 04/03 A2993 RMK AO2 PK WND 09027/1243 PRESFR SLP136 P0003 T00390033"	"0.03"	"0.8"	"29.94"	"1013.6"	"1"	"0"	"39.0"	"3.9"	"0"	"0"	"3.0"	"4.8"	"90"	"East"	"-9999.0"	"-9999.0"	"28.0"	"-2.2"	"25.3"	"40.7"	
"20130227"	"Rain"	"08"	"54"	"39.0"	"3.9"	"0"	"0"	"-9999"	"-9999"	"100"	"rain"	"METAR KBOS 271354Z 09022G27KT 3SM RA BR OVC009 04/04 A2992 RMK AO2 PK WND 10028/1339 SLP132 P0007 T00390039"	"0.07"	"1.8"	"29.92"	"1013.2"	"1"	"0"	"39.0"	"3.9"	"0"	"0"	"3.0"	"4.8"	"90"	"East"	"31.1"	"50.0"	"28.0"	"-2.2"	"25.3"	"40.7"	
"20130227"	"Rain"	"09"	"14"	"39.2"	"4.0"	"0"	"0"	"-9999"	"-9999"	"100"	"rain"	"SPECI KBOS 271414Z 09022G31KT 3SM RA BR OVC011 04/04 A2991 RMK AO2 PK WND 10031/1409 P0004"	"0.04"	"1.0"	"29.91"	"1012.8"	"1"	"0"	"39.2"	"4.0"	"0"	"0"	"3.0"	"4.8"	"90"	"East"	"35.7"	"57.4"	"28.3"	"-2.1"	"25.3"	"40.7"	
"20130227"	"Rain"	"09"	"45"	"39.2"	"4.0"	"0"	"0"	"-9999"	"-9999"	"100"	"rain"	"SPECI KBOS 271445Z 09022G29KT 2SM R04R/6000VP6000FT RA BR OVC011 04/04 A2990 RMK AO2 PK WND 10031/1409 P0008"	"0.08"	"2.0"	"29.90"	"1012.4"	"1"	"0"	"39.2"	"4.0"	"0"	"0"	"2.0"	"3.2"	"90"	"East"	"33.4"	"53.7"	"28.3"	"-2.1"	"25.3"	"40.7"	
"20130227"	"Rain"	"09"	"54"	"39.0"	"3.9"	"0"	"0"	"-9999"	"-9999"	"97"	"rain"	"METAR KBOS 271454Z 09022G27KT 2SM R04R/6000VP6000FT RA BR OVC011 04/04 A2990 RMK AO2 PK WND 10031/1409 SLP123 P0009 60019 T00440039 56025"	"0.09"	"2.3"	"29.90"	"1012.3"	"1"	"0"	"39.9"	"4.4"	"0"	"0"	"2.0"	"3.2"	"90"	"East"	"31.1"	"50.0"	"29.2"	"-1.5"	"25.3"	"40.7"	
"20130227"	"Light Rain"	"10"	"11"	"39.2"	"4.0"	"0"	"0"	"-9999"	"-9999"	"100"	"rain"	"SPECI KBOS 271511Z 09022G29KT 3SM -RA BR OVC011 04/04 A2989 RMK AO2 PK WND 09029/1504 P0003"	"0.03"	"0.8"	"29.89"	"1012.1"	"1"	"0"	"39.2"	"4.0"	"0"	"0"	"3.0"	"4.8"	"90"	"East"	"33.4"	"53.7"	"28.3"	"-2.1"	"25.3"	"40.7"	
"20130227"	"Light Rain"	"10"	"26"	"39.2"	"4.0"	"0"	"0"	"-9999"	"-9999"	"100"	"rain"	"SPECI KBOS 271526Z 09022G28KT 3SM -RA BR OVC009 04/04 A2988 RMK AO2 PK WND 09029/1504 P0003"	"0.03"	"0.8"	"29.88"	"1011.7"	"1"	"0"	"39.2"	"4.0"	"0"	"0"	"3.0"	"4.8"	"90"	"East"	"32.2"	"51.9"	"28.3"	"-2.1"	"25.3"	"40.7"	
"20130227"	"Light Rain"	"10"	"54"	"39.0"	"3.9"	"0"	"0"	"-9999"	"-9999"	"97"	"rain"	"METAR KBOS 271554Z 09023G30KT 4SM -RA BR OVC009 04/04 A2986 RMK AO2 PK WND 09030/1548 SLP110 P0004 T00440039"	"0.04"	"1.0"	"29.86"	"1011.0"	"1"	"0"	"39.9"	"4.4"	"0"	"0"	"4.0"	"6.4"	"90"	"East"	"34.5"	"55.6"	"29.0"	"-1.7"	"26.5"	"42.6"	
"20130227"	"Light Rain"	"11"	"54"	"39.0"	"3.9"	"0"	"0"	"-9999"	"-9999"	"97"	"rain"	"METAR KBOS 271654Z 10023G30KT 3SM -RA BR OVC009 04/04 A2983 RMK AO2 PK WND 10030/1652 SLP099 P0004 T00440039"	"0.04"	"1.0"	"29.83"	"1009.9"	"1"	"0"	"39.9"	"4.4"	"0"	"0"	"3.0"	"4.8"	"100"	"East"	"34.5"	"55.6"	"29.0"	"-1.7"	"26.5"	"42.6"	
"20130227"	"Light Rain"	"12"	"26"	"39.2"	"4.0"	"0"	"0"	"-9999"	"-9999"	"100"	"rain"	"SPECI KBOS 271726Z 10021KT 2 1/2SM -RA BR OVC007 04/04 A2981 RMK AO2 PK WND 10030/1711 P0002"	"0.02"	"0.5"	"29.81"	"1009.4"	"1"	"0"	"39.2"	"4.0"	"0"	"0"	"2.5"	"4.0"	"100"	"East"	"-9999.0"	"-9999.0"	"28.5"	"-1.9"	"24.2"	"38.9"	
"20130227"	"Rain"	"12"	"54"	"39.0"	"3.9"	"0"	"0"	"-9999"	"-9999"	"100"	"rain"	"METAR KBOS 271754Z 09022KT 3SM RA BR OVC007 04/04 A2980 RMK AO2 PK WND 09031/1742 SLP089 P0004 60031 T00390039 10044 20039 56034"	"0.04"	"1.0"	"29.80"	"1008.9"	"1"	"0"	"39.0"	"3.9"	"0"	"0"	"3.0"	"4.8"	"90"	"East"	"-9999.0"	"-9999.0"	"28.0"	"-2.2"	"25.3"	"40.7"	
"20130227"	"Light Rain"	"13"	"44"	"37.4"	"3.0"	"0"	"0"	"-9999"	"-9999"	"93"	"rain"	"SPECI KBOS 271844Z 08019G30KT 2SM -RA BR OVC009 04/03 A2978 RMK AO2 PK WND 10033/1819 P0008"	"0.08"	"2.0"	"29.78"	"1008.4"	"1"	"0"	"39.2"	"4.0"	"0"	"0"	"2.0"	"3.2"	"80"	"East"	"34.5"	"55.6"	"29.0"	"-1.7"	"21.9"	"35.2"	
"20130227"	"Rain"	"13"	"54"	"37.9"	"3.3"	"0"	"0"	"-9999"	"-9999"	"96"	"rain"	"METAR KBOS 271854Z 08021G29KT 1 3/4SM R04R/6000VP6000FT RA BR OVC007 04/03 A2977 RMK AO2 PK WND 10033/1819 SLP080 P0010 T00390033"	"0.10"	"2.5"	"29.77"	"1008.0"	"1"	"0"	"39.0"	"3.9"	"0"	"0"	"1.8"	"2.8"	"80"	"East"	"33.4"	"53.7"	"28.3"	"-2.1"	"24.2"	"38.9"	
"20130227"	"Rain"	"14"	"54"	"37.9"	"3.3"	"0"	"0"	"-9999"	"-9999"	"100"	"rain"	"METAR KBOS 271954Z 08021KT 1 1/4SM R04R/5000V6000FT RA BR BKN007 OVC011 03/03 A2976 RMK AO2 PK WND 09034/1902 SLP076 P0010 T00330033"	"0.10"	"2.5"	"29.76"	"1007.6"	"1"	"0"	"37.9"	"3.3"	"0"	"0"	"1.2"	"2.0"	"80"	"East"	"-9999.0"	"-9999.0"	"26.8"	"-2.9"	"24.2"	"38.9"	
"20130227"	"Heavy Rain"	"15"	"54"	"37.9"	"3.3"	"0"	"0"	"-9999"	"-9999"	"100"	"rain"	"METAR KBOS 272054Z 06020G26KT 1SM R04R/4000V5000FT +RA BR OVC007 03/03 A2972 RMK AO2 PK WND 07026/2051 SLP064 P0017 60037 T00330033 56017"	"0.17"	"4.3"	"29.72"	"1006.4"	"1"	"0"	"37.9"	"3.3"	"0"	"0"	"1.0"	"1.6"	"60"	"ENE"	"29.9"	"48.2"	"27.1"	"-2.7"	"23.0"	"37.0"	
"20130227"	"Rain"	"16"	"54"	"37.9"	"3.3"	"0"	"0"	"-9999"	"-9999"	"100"	"rain"	"METAR KBOS 272154Z 06018KT 1 1/2SM R04R/4500VP6000FT RA BR BKN009 OVC017 03/03 A2970 RMK AO2 PK WND 06026/2101 SLP057 P0017 T00330033"	"0.17"	"4.3"	"29.70"	"1005.7"	"1"	"0"	"37.9"	"3.3"	"0"	"0"	"1.5"	"2.4"	"60"	"ENE"	"-9999.0"	"-9999.0"	"27.6"	"-2.4"	"20.7"	"33.3"	
"20130227"	"Light Rain"	"17"	"34"	"37.4"	"3.0"	"0"	"0"	"-9999"	"-9999"	"100"	"rain"	"SPECI KBOS 272234Z 05019G27KT 3SM -RA BR BKN007 OVC012 03/03 A2968 RMK AO2 PK WND 06027/2231 P0004"	"0.04"	"1.0"	"29.68"	"1005.0"	"1"	"0"	"37.4"	"3.0"	"0"	"0"	"3.0"	"4.8"	"50"	"NE"	"31.1"	"50.0"	"26.6"	"-3.0"	"21.9"	"35.2"	
"20130227"	"Light Rain"	"17"	"41"	"37.4"	"3.0"	"0"	"0"	"-9999"	"-9999"	"100"	"rain"	"SPECI KBOS 272241Z 05019G28KT 3SM -RA BR FEW005 OVC012 03/03 A2968 RMK AO2 PK WND 06028/2236 P0005"	"0.05"	"1.3"	"29.68"	"1005.0"	"1"	"0"	"37.4"	"3.0"	"0"	"0"	"3.0"	"4.8"	"50"	"NE"	"32.2"	"51.9"	"26.6"	"-3.0"	"21.9"	"35.2"	
"20130227"	"Rain"	"17"	"54"	"37.9"	"3.3"	"0"	"0"	"-9999"	"-9999"	"100"	"rain"	"METAR KBOS 272254Z 05018G24KT 2 1/2SM RA BR SCT005 OVC010 03/03 A2968 RMK AO2 PK WND 06028/2236 SLP050 P0007 T00330033"	"0.07"	"1.8"	"29.68"	"1005.0"	"1"	"0"	"37.9"	"3.3"	"0"	"0"	"2.5"	"4.0"	"50"	"NE"	"27.6"	"44.4"	"27.6"	"-2.4"	"20.7"	"33.3"	
"20130227"	"Rain"	"18"	"13"	"37.4"	"3.0"	"0"	"0"	"-9999"	"-9999"	"100"	"rain"	"SPECI KBOS 272313Z 05017KT 2 1/2SM RA BR BKN007 OVC010 03/03 A2968 RMK AO2 P0002 $"	"0.02"	"0.5"	"29.68"	"1005.0"	"1"	"0"	"37.4"	"3.0"	"0"	"0"	"2.5"	"4.0"	"50"	"NE"	"-9999.0"	"-9999.0"	"27.2"	"-2.7"	"19.6"	"31.5"	
"20130227"	"Rain"	"18"	"54"	"37.9"	"3.3"	"0"	"0"	"-9999"	"-9999"	"100"	"rain"	"METAR KBOS 272354Z 05016G22KT 2SM RA BR BKN005 OVC010 03/03 A2966 RMK AO2 SLP042 P0007 60068 T00330033 10039 20033 58022"	"0.07"	"1.8"	"29.66"	"1004.2"	"1"	"0"	"37.9"	"3.3"	"0"	"0"	"2.0"	"3.2"	"50"	"NE"	"25.3"	"40.7"	"28.2"	"-2.1"	"18.4"	"29.6"	
"20130227"	"Light Snow"	"19"	"35"	"37.4"	"3.0"	"0"	"0"	"-9999"	"-9999"	"100"	"snow"	"SPECI KBOS 280035Z 04019G23KT 1 3/4SM -SN BR BKN005 OVC010 03/03 A2962 RMK AO2 RAE10SNB10 P0004"	"0.04"	"1.0"	"29.62"	"1002.9"	"0"	"1"	"37.4"	"3.0"	"0"	"0"	"1.8"	"2.8"	"40"	"NE"	"26.5"	"42.6"	"26.6"	"-3.0"	"21.9"	"35.2"	
"20130227"	"Light Rain"	"19"	"54"	"39.0"	"3.9"	"0"	"0"	"-9999"	"-9999"	"100"	"rain"	"METAR KBOS 280054Z 04014KT 2SM -RA BR BKN005 OVC010 04/04 A2962 RMK AO2 SLP029 P0006 T00390039"	"0.06"	"1.5"	"29.62"	"1002.9"	"1"	"0"	"39.0"	"3.9"	"0"	"0"	"2.0"	"3.2"	"40"	"NE"	"-9999.0"	"-9999.0"	"30.3"	"-1.0"	"16.1"	"25.9"	
"20130227"	"Light Rain"	"20"	"21"	"39.2"	"4.0"	"0"	"0"	"-9999"	"-9999"	"100"	"rain"	"SPECI KBOS 280121Z 04014KT 1 1/4SM -RA BR BKN005 OVC008 04/04 A2961 RMK AO2 SFC VIS 2 P0002"	"0.02"	"0.5"	"29.61"	"1002.6"	"1"	"0"	"39.2"	"4.0"	"0"	"0"	"1.2"	"2.0"	"40"	"NE"	"-9999.0"	"-9999.0"	"30.5"	"-0.8"	"16.1"	"25.9"	
"20130227"	"Light Rain"	"20"	"54"	"39.0"	"3.9"	"0"	"0"	"-9999"	"-9999"	"100"	"rain"	"METAR KBOS 280154Z 03015KT 1 1/4SM -RA BR SCT005 OVC008 04/04 A2959 RMK AO2 SFC VIS 2 SLP019 P0005 T00390039"	"0.05"	"1.3"	"29.59"	"1001.9"	"1"	"0"	"39.0"	"3.9"	"0"	"0"	"1.2"	"2.0"	"30"	"NNE"	"-9999.0"	"-9999.0"	"29.9"	"-1.2"	"17.3"	"27.8"	
"20130227"	"Light Rain"	"21"	"37"	"39.2"	"4.0"	"0"	"0"	"-9999"	"-9999"	"100"	"rain"	"SPECI KBOS 280237Z 03011KT 2SM -RA BR BKN005 OVC008 04/04 A2957 RMK AO2 SFC VIS 3 P0002"	"0.02"	"0.5"	"29.57"	"1001.2"	"1"	"0"	"39.2"	"4.0"	"0"	"0"	"2.0"	"3.2"	"30"	"NNE"	"-9999.0"	"-9999.0"	"31.6"	"-0.2"	"12.7"	"20.4"	
"20130227"	"Light Rain"	"21"	"54"	"39.0"	"3.9"	"0"	"0"	"-9999"	"-9999"	"100"	"rain"	"METAR KBOS 280254Z 02012KT 2SM -RA BR OVC005 04/04 A2956 RMK AO2 SFC VIS 4 SLP008 P0002 60013 T00390039 56034"	"0.02"	"0.5"	"29.56"	"1000.8"	"1"	"0"	"39.0"	"3.9"	"0"	"0"	"2.0"	"3.2"	"20"	"NNE"	"-9999.0"	"-9999.0"	"31.0"	"-0.6"	"13.8"	"22.2"	
"20130227"	"Overcast"	"22"	"54"	"39.0"	"3.9"	"0"	"0"	"-9999"	"-9999"	"100"	"cloudy"	"METAR KBOS 280354Z 31004KT 2SM BR OVC005 04/04 A2955 RMK AO2 SFC VIS 3 RAE00 SLP007 P0000 T00390039"	"0.00"	"0.0"	"29.55"	"1000.7"	"0"	"0"	"39.0"	"3.9"	"0"	"0"	"2.0"	"3.2"	"310"	"NW"	"-9999.0"	"-9999.0"	"35.7"	"2.0"	"4.6"	"7.4"	
"20130227"	"Overcast"	"23"	"54"	"37.9"	"3.3"	"0"	"0"	"-9999"	"-9999"	"100"	"cloudy"	"METAR KBOS 280454Z 30010KT 2SM BR OVC005 03/03 A2956 RMK AO2 SFC VIS 4 SLP009 T00330033 400440033"	"-9999.00"	"-9999.00"	"29.56"	"1000.9"	"0"	"0"	"37.9"	"3.3"	"0"	"0"	"2.0"	"3.2"	"300"	"WNW"	"-9999.0"	"-9999.0"	"30.5"	"-0.9"	"11.5"	"18.5"	
"20130226"	"Mostly Cloudy"	"00"	"54"	"28.9"	"-1.7"	"0"	"0"	"-9999"	"-9999"	"85"	"mostlycloudy"	"METAR KBOS 260554Z 17006KT 10SM BKN043 01/M02 A3026 RMK AO2 SLP246 T00061017 10022 20006 51012"	"-9999.00"	"-9999.00"	"30.26"	"1024.6"	"0"	"0"	"33.1"	"0.6"	"0"	"0"	"10.0"	"16.1"	"170"	"South"	"-9999.0"	"-9999.0"	"26.9"	"-2.8"	"6.9"	"11.1"	
"20130226"	"Overcast"	"01"	"54"	"28.0"	"-2.2"	"0"	"0"	"-9999"	"-9999"	"85"	"cloudy"	"METAR KBOS 260654Z 17004KT 10SM FEW043 OVC060 00/M02 A3026 RMK AO2 SLP245 T00001022"	"-9999.00"	"-9999.00"	"30.26"	"1024.5"	"0"	"0"	"32.0"	"0.0"	"0"	"0"	"10.0"	"16.1"	"170"	"South"	"-9999.0"	"-9999.0"	"27.5"	"-2.5"	"4.6"	"7.4"	
"20130226"	"Partly Cloudy"	"02"	"54"	"28.0"	"-2.2"	"0"	"0"	"-9999"	"-9999"	"92"	"partlycloudy"	"METAR KBOS 260754Z 18005KT 10SM FEW060 M01/M02 A3026 RMK AO2 SLP244 T10111022"	"-9999.00"	"-9999.00"	"30.25"	"1024.4"	"0"	"0"	"30.0"	"-1.1"	"0"	"0"	"10.0"	"16.1"	"180"	"South"	"-9999.0"	"-9999.0"	"24.1"	"-4.4"	"5.8"	"9.3"	
"20130226"	"Overcast"	"03"	"54"	"28.0"	"-2.2"	"0"	"0"	"-9999"	"-9999"	"89"	"cloudy"	"METAR KBOS 260854Z 00000KT 10SM OVC060 M01/M02 A3029 RMK AO2 SLP257 T10061022 53010"	"-9999.00"	"-9999.00"	"30.29"	"1025.7"	"0"	"0"	"30.9"	"-0.6"	"0"	"0"	"10.0"	"16.1"	"0"	"North"	"-9999.0"	"-9999.0"	"-999"	"-999"	"0.0"	"0.0"	
"20130226"	"Overcast"	"04"	"54"	"28.0"	"-2.2"	"0"	"0"	"-9999"	"-9999"	"92"	"cloudy"	"METAR KBOS 260954Z 17003KT 9SM OVC060 M01/M02 A3030 RMK AO2 SLP259 T10111022"	"-9999.00"	"-9999.00"	"30.30"	"1025.9"	"0"	"0"	"30.0"	"-1.1"	"0"	"0"	"9.0"	"14.5"	"170"	"South"	"-9999.0"	"-9999.0"	"26.5"	"-3.1"	"3.5"	"5.6"	
"20130226"	"Overcast"	"05"	"54"	"28.0"	"-2.2"	"0"	"0"	"-9999"	"-9999"	"92"	"cloudy"	"METAR KBOS 261054Z 19004KT 9SM OVC060 M01/M02 A3031 RMK AO2 SLP262 T10111022"	"-9999.00"	"-9999.00"	"30.31"	"1026.2"	"0"	"0"	"30.0"	"-1.1"	"0"	"0"	"9.0"	"14.5"	"190"	"South"	"-9999.0"	"-9999.0"	"25.2"	"-3.8"	"4.6"	"7.4"	
"20130226"	"Mostly Cloudy"	"06"	"54"	"28.9"	"-1.7"	"0"	"0"	"-9999"	"-9999"	"92"	"mostlycloudy"	"METAR KBOS 261154Z 00000KT 8SM BKN060 M01/M02 A3032 RMK AO2 SLP266 T10061017 10006 21017 53009"	"-9999.00"	"-9999.00"	"30.32"	"1026.6"	"0"	"0"	"30.9"	"-0.6"	"0"	"0"	"8.0"	"12.9"	"0"	"North"	"-9999.0"	"-9999.0"	"-999"	"-999"	"0.0"	"0.0"	
"20130226"	"Scattered Clouds"	"07"	"54"	"32.0"	"0.0"	"0"	"0"	"-9999"	"-9999"	"96"	"partlycloudy"	"METAR KBOS 261254Z 00000KT 7SM FEW060 SCT200 01/00 A3033 RMK AO2 SLP271 T00060000"	"-9999.00"	"-9999.00"	"30.33"	"1027.1"	"0"	"0"	"33.1"	"0.6"	"0"	"0"	"7.0"	"11.3"	"0"	"North"	"-9999.0"	"-9999.0"	"-999"	"-999"	"0.0"	"0.0"	
"20130226"	"Scattered Clouds"	"08"	"54"	"32.0"	"0.0"	"0"	"0"	"-9999"	"-9999"	"89"	"partlycloudy"	"METAR KBOS 261354Z 00000KT 8SM FEW060 SCT200 02/00 A3034 RMK AO2 SLP273 T00170000"	"-9999.00"	"-9999.00"	"30.34"	"1027.3"	"0"	"0"	"35.1"	"1.7"	"0"	"0"	"8.0"	"12.9"	"0"	"North"	"-9999.0"	"-9999.0"	"-999"	"-999"	"0.0"	"0.0"	
"20130226"	"Scattered Clouds"	"09"	"54"	"32.0"	"0.0"	"0"	"0"	"-9999"	"-9999"	"82"	"partlycloudy"	"METAR KBOS 261454Z VRB03KT 10SM FEW060 SCT200 03/00 A3035 RMK AO2 SLP276 T00280000 51010"	"-9999.00"	"-9999.00"	"30.35"	"1027.6"	"0"	"0"	"37.0"	"2.8"	"0"	"0"	"10.0"	"16.1"	"0"	"Variable"	"-9999.0"	"-9999.0"	"34.5"	"1.4"	"3.5"	"5.6"	
"20130226"	"Mostly Cloudy"	"10"	"54"	"30.9"	"-0.6"	"0"	"0"	"-9999"	"-9999"	"76"	"mostlycloudy"	"METAR KBOS 261554Z 08005KT 10SM BKN041 03/M01 A3034 RMK AO2 SLP274 T00331006"	"-9999.00"	"-9999.00"	"30.34"	"1027.4"	"0"	"0"	"37.9"	"3.3"	"0"	"0"	"10.0"	"16.1"	"80"	"East"	"-9999.0"	"-9999.0"	"33.5"	"0.8"	"5.8"	"9.3"	
"20130226"	"Scattered Clouds"	"11"	"54"	"32.0"	"0.0"	"0"	"0"	"-9999"	"-9999"	"76"	"partlycloudy"	"METAR KBOS 261654Z 08007KT 10SM SCT043 04/00 A3033 RMK AO2 SLP270 T00390000"	"-9999.00"	"-9999.00"	"30.33"	"1027.0"	"0"	"0"	"39.0"	"3.9"	"0"	"0"	"10.0"	"16.1"	"80"	"East"	"-9999.0"	"-9999.0"	"33.4"	"0.8"	"8.1"	"13.0"	
"20130226"	"Scattered Clouds"	"12"	"54"	"32.0"	"0.0"	"0"	"0"	"-9999"	"-9999"	"76"	"partlycloudy"	"METAR KBOS 261754Z 10006KT 10SM SCT043 04/00 A3033 RMK AO2 SLP271 T00390000 10044 21006 55005"	"-9999.00"	"-9999.00"	"30.33"	"1027.1"	"0"	"0"	"39.0"	"3.9"	"0"	"0"	"10.0"	"16.1"	"100"	"East"	"-9999.0"	"-9999.0"	"34.0"	"1.1"	"6.9"	"11.1"	
"20130226"	"Scattered Clouds"	"13"	"54"	"30.9"	"-0.6"	"0"	"0"	"-9999"	"-9999"	"70"	"partlycloudy"	"METAR KBOS 261854Z 08008KT 10SM SCT049 04/M01 A3033 RMK AO2 SLP270 T00441006"	"-9999.00"	"-9999.00"	"30.33"	"1027.0"	"0"	"0"	"39.9"	"4.4"	"0"	"0"	"10.0"	"16.1"	"80"	"East"	"-9999.0"	"-9999.0"	"33.9"	"1.1"	"9.2"	"14.8"	
"20130226"	"Scattered Clouds"	"14"	"54"	"30.9"	"-0.6"	"0"	"0"	"-9999"	"-9999"	"73"	"partlycloudy"	"METAR KBOS 261954Z 08009KT 10SM FEW050 SCT280 04/M01 A3030 RMK AO2 SLP261 T00391006"	"-9999.00"	"-9999.00"	"30.30"	"1026.1"	"0"	"0"	"39.0"	"3.9"	"0"	"0"	"10.0"	"16.1"	"80"	"East"	"-9999.0"	"-9999.0"	"32.3"	"0.2"	"10.4"	"16.7"	
"20130226"	"Scattered Clouds"	"15"	"54"	"30.9"	"-0.6"	"0"	"0"	"-9999"	"-9999"	"76"	"partlycloudy"	"METAR KBOS 262054Z 09006KT 10SM FEW050 SCT280 03/M01 A3030 RMK AO2 SLP261 T00331006 56010"	"-9999.00"	"-9999.00"	"30.30"	"1026.1"	"0"	"0"	"37.9"	"3.3"	"0"	"0"	"10.0"	"16.1"	"90"	"East"	"-9999.0"	"-9999.0"	"32.7"	"0.4"	"6.9"	"11.1"	
"20130226"	"Mostly Cloudy"	"16"	"54"	"30.0"	"-1.1"	"0"	"0"	"-9999"	"-9999"	"76"	"mostlycloudy"	"METAR KBOS 262154Z 11007KT 10SM FEW030 SCT140 BKN240 03/M01 A3029 RMK AO2 SLP255 T00281011"	"-9999.00"	"-9999.00"	"30.29"	"1025.5"	"0"	"0"	"37.0"	"2.8"	"0"	"0"	"10.0"	"16.1"	"110"	"ESE"	"-9999.0"	"-9999.0"	"31.0"	"-0.6"	"8.1"	"13.0"	
"20130226"	"Mostly Cloudy"	"17"	"54"	"28.0"	"-2.2"	"0"	"0"	"-9999"	"-9999"	"70"	"mostlycloudy"	"METAR KBOS 262254Z 11008KT 10SM FEW030 SCT140 BKN240 03/M02 A3029 RMK AO2 SLP256 T00281022"	"-9999.00"	"-9999.00"	"30.29"	"1025.6"	"0"	"0"	"37.0"	"2.8"	"0"	"0"	"10.0"	"16.1"	"110"	"ESE"	"-9999.0"	"-9999.0"	"30.4"	"-0.9"	"9.2"	"14.8"	
"20130226"	"Mostly Cloudy"	"18"	"54"	"28.9"	"-1.7"	"0"	"0"	"-9999"	"-9999"	"73"	"mostlycloudy"	"METAR KBOS 262354Z 11008KT 10SM FEW030 BKN140 BKN240 03/M02 A3028 RMK AO2 SLP253 T00281017 10050 20022 56008"	"-9999.00"	"-9999.00"	"30.28"	"1025.3"	"0"	"0"	"37.0"	"2.8"	"0"	"0"	"10.0"	"16.1"	"110"	"ESE"	"-9999.0"	"-9999.0"	"30.4"	"-0.9"	"9.2"	"14.8"	
"20130226"	"Mostly Cloudy"	"19"	"54"	"30.9"	"-0.6"	"0"	"0"	"-9999"	"-9999"	"79"	"mostlycloudy"	"METAR KBOS 270054Z 12008KT 10SM FEW030 BKN140 BKN240 03/M01 A3027 RMK AO2 SLP249 T00281006"	"-9999.00"	"-9999.00"	"30.27"	"1024.9"	"0"	"0"	"37.0"	"2.8"	"0"	"0"	"10.0"	"16.1"	"120"	"ESE"	"-9999.0"	"-9999.0"	"30.4"	"-0.9"	"9.2"	"14.8"	
"20130226"	"Overcast"	"20"	"54"	"30.0"	"-1.1"	"0"	"0"	"-9999"	"-9999"	"79"	"cloudy"	"METAR KBOS 270154Z 10008KT 10SM FEW030 BKN140 OVC240 02/M01 A3026 RMK AO2 SLP245 T00221011"	"-9999.00"	"-9999.00"	"30.26"	"1024.5"	"0"	"0"	"36.0"	"2.2"	"0"	"0"	"10.0"	"16.1"	"100"	"East"	"-9999.0"	"-9999.0"	"29.0"	"-1.6"	"9.2"	"14.8"	
"20130226"	"Overcast"	"21"	"54"	"30.9"	"-0.6"	"0"	"0"	"-9999"	"-9999"	"79"	"cloudy"	"METAR KBOS 270254Z 09008KT 10SM FEW030 BKN140 OVC240 03/M01 A3023 RMK AO2 SLP237 T00281006 58016"	"-9999.00"	"-9999.00"	"30.23"	"1023.7"	"0"	"0"	"37.0"	"2.8"	"0"	"0"	"10.0"	"16.1"	"90"	"East"	"-9999.0"	"-9999.0"	"30.4"	"-0.9"	"9.2"	"14.8"	
"20130226"	"Mostly Cloudy"	"22"	"54"	"30.0"	"-1.1"	"0"	"0"	"-9999"	"-9999"	"76"	"mostlycloudy"	"METAR KBOS 270354Z 09013KT 10SM FEW030 BKN140 03/M01 A3020 RMK AO2 SLP225 T00281011"	"-9999.00"	"-9999.00"	"30.20"	"1022.5"	"0"	"0"	"37.0"	"2.8"	"0"	"0"	"10.0"	"16.1"	"90"	"East"	"-9999.0"	"-9999.0"	"28.1"	"-2.2"	"15.0"	"24.1"	
"20130226"	"Overcast"	"23"	"54"	"32.0"	"0.0"	"0"	"0"	"-9999"	"-9999"	"79"	"cloudy"	"METAR KBOS 270454Z 09011KT 10SM BKN025 OVC031 03/00 A3017 RMK AO2 SLP216 T00330000 400501017"	"-9999.00"	"-9999.00"	"30.17"	"1021.6"	"0"	"0"	"37.9"	"3.3"	"0"	"0"	"10.0"	"16.1"	"90"	"East"	"-9999.0"	"-9999.0"	"30.0"	"-1.1"	"12.7"	"20.4"	
"20130225"	"Light Snow"	"00"	"54"	"28.9"	"-1.7"	"0"	"0"	"-9999"	"-9999"	"100"	"snow"	"METAR KBOS 250554Z 35008KT 4SM -SN BR SCT009 OVC036 M02/M02 A2992 RMK AO2 SLP129 P0000 60006 T10171017 11006 21017 53015"	"0.00"	"0.0"	"29.91"	"1012.9"	"0"	"1"	"28.9"	"-1.7"	"0"	"0"	"4.0"	"6.4"	"350"	"North"	"-9999.0"	"-9999.0"	"20.4"	"-6.4"	"9.2"	"14.8"	
"20130225"	"Light Snow"	"01"	"20"	"28.4"	"-2.0"	"0"	"0"	"-9999"	"-9999"	"100"	"snow"	"SPECI KBOS 250620Z 34007KT 6SM -SN BR BKN009 OVC042 M02/M02 A2993 RMK AO2 P0000"	"0.00"	"0.0"	"29.93"	"1013.4"	"0"	"1"	"28.4"	"-2.0"	"0"	"0"	"6.0"	"9.7"	"340"	"NNW"	"-9999.0"	"-9999.0"	"20.4"	"-6.4"	"8.1"	"13.0"	
"20130225"	"Light Snow"	"01"	"54"	"28.0"	"-2.2"	"0"	"0"	"-9999"	"-9999"	"96"	"snow"	"METAR KBOS 250654Z 33009KT 6SM -SN BR BKN009 OVC044 M02/M02 A2993 RMK AO2 SLP135 P0000 T10171022"	"0.00"	"0.0"	"29.93"	"1013.5"	"0"	"1"	"28.9"	"-1.7"	"0"	"0"	"6.0"	"9.7"	"330"	"NNW"	"-9999.0"	"-9999.0"	"19.8"	"-6.8"	"10.4"	"16.7"	
"20130225"	"Light Snow"	"02"	"14"	"28.4"	"-2.0"	"0"	"0"	"-9999"	"-9999"	"100"	"snow"	"SPECI KBOS 250714Z 34007KT 5SM -SN BR BKN011 OVC031 M02/M02 A2994 RMK AO2 P0000"	"0.00"	"0.0"	"29.94"	"1013.8"	"0"	"1"	"28.4"	"-2.0"	"0"	"0"	"5.0"	"8.0"	"340"	"NNW"	"-9999.0"	"-9999.0"	"20.4"	"-6.4"	"8.1"	"13.0"	
"20130225"	"Overcast"	"02"	"32"	"28.4"	"-2.0"	"0"	"0"	"-9999"	"-9999"	"100"	"cloudy"	"SPECI KBOS 250732Z 34007KT 7SM SCT011 OVC031 M02/M02 A2994 RMK AO2 SNE31 P0000"	"0.00"	"0.0"	"29.94"	"1013.8"	"0"	"0"	"28.4"	"-2.0"	"0"	"0"	"7.0"	"11.3"	"340"	"NNW"	"-9999.0"	"-9999.0"	"20.4"	"-6.4"	"8.1"	"13.0"	
"20130225"	"Overcast"	"02"	"54"	"27.0"	"-2.8"	"0"	"0"	"-9999"	"-9999"	"92"	"cloudy"	"METAR KBOS 250754Z 33008KT 10SM SCT010 OVC031 M02/M03 A2994 RMK AO2 SNE31 SLP139 P0000 T10171028"	"0.00"	"0.0"	"29.94"	"1013.9"	"0"	"0"	"28.9"	"-1.7"	"0"	"0"	"10.0"	"16.1"	"330"	"NNW"	"-9999.0"	"-9999.0"	"20.4"	"-6.4"	"9.2"	"14.8"	
"20130225"	"Overcast"	"03"	"08"	"26.6"	"-3.0"	"0"	"0"	"-9999"	"-9999"	"93"	"cloudy"	"SPECI KBOS 250808Z 34007KT 10SM FEW010 OVC027 M02/M03 A2995 RMK AO2"	"-9999.00"	"-9999.00"	"29.95"	"1014.1"	"0"	"0"	"28.4"	"-2.0"	"0"	"0"	"10.0"	"16.1"	"340"	"NNW"	"-9999.0"	"-9999.0"	"20.4"	"-6.4"	"8.1"	"13.0"	
"20130225"	"Overcast"	"03"	"54"	"27.0"	"-2.8"	"0"	"0"	"-9999"	"-9999"	"92"	"cloudy"	"METAR KBOS 250854Z 34007KT 10SM FEW010 OVC025 M02/M03 A2996 RMK AO2 SLP145 60000 T10171028 53016"	"-9999.00"	"-9999.00"	"29.96"	"1014.5"	"0"	"0"	"28.9"	"-1.7"	"0"	"0"	"10.0"	"16.1"	"340"	"NNW"	"-9999.0"	"-9999.0"	"21.1"	"-6.1"	"8.1"	"13.0"	
"20130225"	"Mostly Cloudy"	"04"	"54"	"26.1"	"-3.3"	"0"	"0"	"-9999"	"-9999"	"89"	"mostlycloudy"	"METAR KBOS 250954Z 34006KT 10SM FEW012 BKN023 BKN036 M02/M03 A2999 RMK AO2 SLP155 T10171033"	"-9999.00"	"-9999.00"	"29.99"	"1015.5"	"0"	"0"	"28.9"	"-1.7"	"0"	"0"	"10.0"	"16.1"	"340"	"NNW"	"-9999.0"	"-9999.0"	"21.9"	"-5.6"	"6.9"	"11.1"	
"20130225"	"Overcast"	"05"	"54"	"27.0"	"-2.8"	"0"	"0"	"-9999"	"-9999"	"92"	"cloudy"	"METAR KBOS 251054Z 34007KT 10SM BKN025 OVC039 M02/M03 A3001 RMK AO2 SLP162 T10171028"	"-9999.00"	"-9999.00"	"30.01"	"1016.2"	"0"	"0"	"28.9"	"-1.7"	"0"	"0"	"10.0"	"16.1"	"340"	"NNW"	"-9999.0"	"-9999.0"	"21.1"	"-6.1"	"8.1"	"13.0"	
"20130225"	"Mostly Cloudy"	"06"	"51"	"26.6"	"-3.0"	"0"	"0"	"-9999"	"-9999"	"86"	"mostlycloudy"	"SPECI KBOS 251151Z 34007KT 10SM SCT023 BKN038 M01/M03 A3003 RMK AO2"	"-9999.00"	"-9999.00"	"30.03"	"1016.8"	"0"	"0"	"30.2"	"-1.0"	"0"	"0"	"10.0"	"16.1"	"340"	"NNW"	"-9999.0"	"-9999.0"	"22.6"	"-5.2"	"8.1"	"13.0"	
"20130225"	"Mostly Cloudy"	"06"	"54"	"27.0"	"-2.8"	"0"	"0"	"-9999"	"-9999"	"88"	"mostlycloudy"	"METAR KBOS 251154Z 34008KT 10SM SCT023 BKN038 M01/M03 A3003 RMK AO2 SLP168 60000 70052 T10111028 11011 21022 51013"	"-9999.00"	"-9999.00"	"30.03"	"1016.8"	"0"	"0"	"30.0"	"-1.1"	"0"	"0"	"10.0"	"16.1"	"340"	"NNW"	"-9999.0"	"-9999.0"	"21.7"	"-5.7"	"9.2"	"14.8"	
"20130225"	"Scattered Clouds"	"07"	"54"	"27.0"	"-2.8"	"0"	"0"	"-9999"	"-9999"	"88"	"partlycloudy"	"METAR KBOS 251254Z 01006KT 10SM FEW030 SCT055 M01/M03 A3005 RMK AO2 SLP176 T10111028"	"-9999.00"	"-9999.00"	"30.05"	"1017.6"	"0"	"0"	"30.0"	"-1.1"	"0"	"0"	"10.0"	"16.1"	"10"	"North"	"-9999.0"	"-9999.0"	"23.2"	"-4.9"	"6.9"	"11.1"	
"20130225"	"Scattered Clouds"	"08"	"54"	"25.0"	"-3.9"	"0"	"0"	"-9999"	"-9999"	"72"	"partlycloudy"	"METAR KBOS 251354Z 36007KT 10SM SCT032 01/M04 A3008 RMK AO2 SLP184 T00061039"	"-9999.00"	"-9999.00"	"30.08"	"1018.4"	"0"	"0"	"33.1"	"0.6"	"0"	"0"	"10.0"	"16.1"	"360"	"North"	"-9999.0"	"-9999.0"	"26.1"	"-3.3"	"8.1"	"13.0"	
"20130225"	"Mostly Cloudy"	"09"	"54"	"25.0"	"-3.9"	"0"	"0"	"-9999"	"-9999"	"70"	"mostlycloudy"	"METAR KBOS 251454Z 01006KT 10SM BKN032 01/M04 A3010 RMK AO2 SLP190 T00111039 51023"	"-9999.00"	"-9999.00"	"30.09"	"1019.0"	"0"	"0"	"34.0"	"1.1"	"0"	"0"	"10.0"	"16.1"	"10"	"North"	"-9999.0"	"-9999.0"	"28.0"	"-2.2"	"6.9"	"11.1"	
"20130225"	"Mostly Cloudy"	"10"	"54"	"26.1"	"-3.3"	"0"	"0"	"-9999"	"-9999"	"70"	"mostlycloudy"	"METAR KBOS 251554Z 03008KT 10SM BKN034 02/M03 A3011 RMK AO2 SLP195 T00171033"	"-9999.00"	"-9999.00"	"30.11"	"1019.5"	"0"	"0"	"35.1"	"1.7"	"0"	"0"	"10.0"	"16.1"	"30"	"NNE"	"-9999.0"	"-9999.0"	"27.9"	"-2.3"	"9.2"	"14.8"	
"20130225"	"Scattered Clouds"	"11"	"54"	"27.0"	"-2.8"	"0"	"0"	"-9999"	"-9999"	"67"	"partlycloudy"	"METAR KBOS 251654Z 04008KT 10SM FEW035 SCT055 03/M03 A3010 RMK AO2 SLP193 T00281028"	"-9999.00"	"-9999.00"	"30.10"	"1019.3"	"0"	"0"	"37.0"	"2.8"	"0"	"0"	"10.0"	"16.1"	"40"	"NE"	"-9999.0"	"-9999.0"	"30.4"	"-0.9"	"9.2"	"14.8"	
"20130225"	"Scattered Clouds"	"12"	"54"	"27.0"	"-2.8"	"0"	"0"	"-9999"	"-9999"	"65"	"partlycloudy"	"METAR KBOS 251754Z 07005KT 10SM SCT030 03/M03 A3011 RMK AO2 SLP194 T00331028 10039 21011 51004"	"-9999.00"	"-9999.00"	"30.11"	"1019.4"	"0"	"0"	"37.9"	"3.3"	"0"	"0"	"10.0"	"16.1"	"70"	"ENE"	"-9999.0"	"-9999.0"	"33.5"	"0.8"	"5.8"	"9.3"	
"20130225"	"Mostly Cloudy"	"13"	"54"	"27.0"	"-2.8"	"0"	"0"	"-9999"	"-9999"	"67"	"mostlycloudy"	"METAR KBOS 251854Z 08005KT 10SM BKN035 03/M03 A3014 RMK AO2 SLP204 T00281028"	"-9999.00"	"-9999.00"	"30.14"	"1020.4"	"0"	"0"	"37.0"	"2.8"	"0"	"0"	"10.0"	"16.1"	"80"	"East"	"-9999.0"	"-9999.0"	"32.4"	"0.2"	"5.8"	"9.3"	
"20130225"	"Mostly Cloudy"	"14"	"54"	"27.0"	"-2.8"	"0"	"0"	"-9999"	"-9999"	"70"	"mostlycloudy"	"METAR KBOS 251954Z 14005KT 10SM BKN031 BKN140 02/M03 A3015 RMK AO2 SLP208 T00221028"	"-9999.00"	"-9999.00"	"30.15"	"1020.8"	"0"	"0"	"36.0"	"2.2"	"0"	"0"	"10.0"	"16.1"	"140"	"SE"	"-9999.0"	"-9999.0"	"31.1"	"-0.5"	"5.8"	"9.3"	
"20130225"	"Scattered Clouds"	"15"	"54"	"28.0"	"-2.2"	"0"	"0"	"-9999"	"-9999"	"63"	"partlycloudy"	"METAR KBOS 252054Z VRB04KT 10SM SCT031 SCT140 04/M02 A3015 RMK AO2 SLP210 T00441022 51016"	"-9999.00"	"-9999.00"	"30.15"	"1021.0"	"0"	"0"	"39.9"	"4.4"	"0"	"0"	"10.0"	"16.1"	"0"	"Variable"	"-9999.0"	"-9999.0"	"36.7"	"2.6"	"4.6"	"7.4"	
"20130225"	"Mostly Cloudy"	"16"	"54"	"27.0"	"-2.8"	"0"	"0"	"-9999"	"-9999"	"62"	"mostlycloudy"	"METAR KBOS 252154Z 34006KT 10SM BKN041 BKN140 04/M03 A3017 RMK AO2 SLP215 T00391028"	"-9999.00"	"-9999.00"	"30.17"	"1021.5"	"0"	"0"	"39.0"	"3.9"	"0"	"0"	"10.0"	"16.1"	"340"	"NNW"	"-9999.0"	"-9999.0"	"34.0"	"1.1"	"6.9"	"11.1"	
"20130225"	"Mostly Cloudy"	"17"	"54"	"27.0"	"-2.8"	"0"	"0"	"-9999"	"-9999"	"67"	"mostlycloudy"	"METAR KBOS 252254Z 12005KT 10SM FEW026 BKN035 03/M03 A3019 RMK AO2 SLP222 T00281028"	"-9999.00"	"-9999.00"	"30.19"	"1022.2"	"0"	"0"	"37.0"	"2.8"	"0"	"0"	"10.0"	"16.1"	"120"	"ESE"	"-9999.0"	"-9999.0"	"32.4"	"0.2"	"5.8"	"9.3"	
"20130225"	"Overcast"	"18"	"13"	"28.4"	"-2.0"	"0"	"0"	"-9999"	"-9999"	"75"	"cloudy"	"SPECI KBOS 252313Z 13006KT 10SM BKN026 OVC035 02/M02 A3019 RMK AO2"	"-9999.00"	"-9999.00"	"30.19"	"1022.2"	"0"	"0"	"35.6"	"2.0"	"0"	"0"	"10.0"	"16.1"	"130"	"SE"	"-9999.0"	"-9999.0"	"29.9"	"-1.2"	"6.9"	"11.1"	
"20130225"	"Overcast"	"18"	"54"	"30.0"	"-1.1"	"0"	"0"	"-9999"	"-9999"	"79"	"cloudy"	"METAR KBOS 252354Z 13004KT 10SM FEW024 OVC036 02/M01 A3020 RMK AO2 CIG 024 E SLP226 T00221011 10050 20022 51016"	"-9999.00"	"-9999.00"	"30.20"	"1022.6"	"0"	"0"	"36.0"	"2.2"	"0"	"0"	"10.0"	"16.1"	"130"	"SE"	"-9999.0"	"-9999.0"	"32.1"	"0.0"	"4.6"	"7.4"	
"20130225"	"Overcast"	"19"	"54"	"30.0"	"-1.1"	"0"	"0"	"-9999"	"-9999"	"79"	"cloudy"	"METAR KBOS 260054Z 17005KT 10SM FEW026 OVC036 02/M01 A3022 RMK AO2 SLP234 T00221011"	"-9999.00"	"-9999.00"	"30.22"	"1023.4"	"0"	"0"	"36.0"	"2.2"	"0"	"0"	"10.0"	"16.1"	"170"	"South"	"-9999.0"	"-9999.0"	"31.1"	"-0.5"	"5.8"	"9.3"	
"20130225"	"Overcast"	"20"	"54"	"30.0"	"-1.1"	"0"	"0"	"-9999"	"-9999"	"82"	"cloudy"	"METAR KBOS 260154Z 18004KT 10SM FEW026 OVC036 02/M01 A3023 RMK AO2 SLP236 T00171011"	"-9999.00"	"-9999.00"	"30.23"	"1023.6"	"0"	"0"	"35.1"	"1.7"	"0"	"0"	"10.0"	"16.1"	"180"	"South"	"-9999.0"	"-9999.0"	"31.0"	"-0.5"	"4.6"	"7.4"	
"20130225"	"Overcast"	"21"	"54"	"30.0"	"-1.1"	"0"	"0"	"-9999"	"-9999"	"79"	"cloudy"	"METAR KBOS 260254Z 20006KT 10SM FEW027 OVC035 02/M01 A3022 RMK AO2 SLP234 T00221011 50008"	"-9999.00"	"-9999.00"	"30.22"	"1023.4"	"0"	"0"	"36.0"	"2.2"	"0"	"0"	"10.0"	"16.1"	"200"	"SSW"	"-9999.0"	"-9999.0"	"30.3"	"-0.9"	"6.9"	"11.1"	
"20130225"	"Mostly Cloudy"	"22"	"54"	"28.9"	"-1.7"	"0"	"0"	"-9999"	"-9999"	"82"	"mostlycloudy"	"METAR KBOS 260354Z 14007KT 10SM BKN035 01/M02 A3023 RMK AO2 SLP236 T00111017"	"-9999.00"	"-9999.00"	"30.23"	"1023.6"	"0"	"0"	"34.0"	"1.1"	"0"	"0"	"10.0"	"16.1"	"140"	"SE"	"-9999.0"	"-9999.0"	"27.2"	"-2.6"	"8.1"	"13.0"	
"20130225"	"Mostly Cloudy"	"23"	"54"	"28.9"	"-1.7"	"0"	"0"	"-9999"	"-9999"	"82"	"mostlycloudy"	"METAR KBOS 260454Z 16006KT 10SM BKN043 01/M02 A3026 RMK AO2 SLP244 T00111017 400501022"	"-9999.00"	"-9999.00"	"30.25"	"1024.4"	"0"	"0"	"34.0"	"1.1"	"0"	"0"	"10.0"	"16.1"	"160"	"SSE"	"-9999.0"	"-9999.0"	"28.0"	"-2.2"	"6.9"	"11.1"	
"20130224"	"Light Rain"	"00"	"54"	"34.0"	"1.1"	"0"	"0"	"-9999"	"-9999"	"89"	"rain"	"METAR KBOS 240554Z 05008KT 7SM -RA OVC007 03/01 A2990 RMK AO2 SLP123 P0005 60027 T00280011 10028 20011 58030"	"0.05"	"1.3"	"29.90"	"1012.3"	"1"	"0"	"37.0"	"2.8"	"0"	"0"	"7.0"	"11.3"	"50"	"NE"	"-9999.0"	"-9999.0"	"30.4"	"-0.9"	"9.2"	"14.8"	
"20130224"	"Light Rain"	"01"	"54"	"36.0"	"2.2"	"0"	"0"	"-9999"	"-9999"	"93"	"rain"	"METAR KBOS 240654Z 05011KT 8SM -RA OVC007 03/02 A2987 RMK AO2 SLP114 P0000 T00330022"	"0.00"	"0.0"	"29.87"	"1011.4"	"1"	"0"	"37.9"	"3.3"	"0"	"0"	"8.0"	"12.9"	"50"	"NE"	"-9999.0"	"-9999.0"	"30.0"	"-1.1"	"12.7"	"20.4"	
"20130224"	"Light Rain"	"02"	"25"	"35.6"	"2.0"	"0"	"0"	"-9999"	"-9999"	"93"	"rain"	"SPECI KBOS 240725Z 05009KT 2 1/2SM -RA BR OVC005 03/02 A2985 RMK AO2 P0002"	"0.02"	"0.5"	"29.85"	"1010.7"	"1"	"0"	"37.4"	"3.0"	"0"	"0"	"2.5"	"4.0"	"50"	"NE"	"-9999.0"	"-9999.0"	"30.3"	"-1.0"	"10.4"	"16.7"	
"20130224"	"Light Rain"	"02"	"54"	"36.0"	"2.2"	"0"	"0"	"-9999"	"-9999"	"93"	"rain"	"METAR KBOS 240754Z 05010KT 2SM -RA BR BKN005 OVC010 03/02 A2983 RMK AO2 SLP102 P0004 T00330022"	"0.04"	"1.0"	"29.83"	"1010.2"	"1"	"0"	"37.9"	"3.3"	"0"	"0"	"2.0"	"3.2"	"50"	"NE"	"-9999.0"	"-9999.0"	"30.5"	"-0.9"	"11.5"	"18.5"	
"20130224"	"Light Rain"	"03"	"54"	"36.0"	"2.2"	"0"	"0"	"-9999"	"-9999"	"93"	"rain"	"METAR KBOS 240854Z 05013KT 3SM -RA BR OVC005 03/02 A2980 RMK AO2 SLP090 P0002 60006 T00330022 58033"	"0.02"	"0.5"	"29.80"	"1009.0"	"1"	"0"	"37.9"	"3.3"	"0"	"0"	"3.0"	"4.8"	"50"	"NE"	"-9999.0"	"-9999.0"	"29.2"	"-1.5"	"15.0"	"24.1"	
"20130224"	"Light Rain"	"04"	"48"	"35.6"	"2.0"	"0"	"0"	"-9999"	"-9999"	"93"	"rain"	"SPECI KBOS 240948Z 04014KT 2SM -RA BR OVC005 03/02 A2979 RMK AO2 P0003"	"0.03"	"0.8"	"29.79"	"1008.7"	"1"	"0"	"37.4"	"3.0"	"0"	"0"	"2.0"	"3.2"	"40"	"NE"	"-9999.0"	"-9999.0"	"28.2"	"-2.1"	"16.1"	"25.9"	
"20130224"	"Light Rain"	"04"	"54"	"36.0"	"2.2"	"0"	"0"	"-9999"	"-9999"	"93"	"rain"	"METAR KBOS 240954Z 04015KT 2SM -RA BR BKN005 OVC010 03/02 A2978 RMK AO2 SLP084 P0004 T00330022"	"0.04"	"1.0"	"29.78"	"1008.4"	"1"	"0"	"37.9"	"3.3"	"0"	"0"	"2.0"	"3.2"	"40"	"NE"	"-9999.0"	"-9999.0"	"28.5"	"-1.9"	"17.3"	"27.8"	
"20130224"	"Light Rain"	"05"	"54"	"36.0"	"2.2"	"0"	"0"	"-9999"	"-9999"	"93"	"rain"	"METAR KBOS 241054Z 04014KT 3SM -RA BR BKN005 OVC010 03/02 A2978 RMK AO2 SLP084 P0005 T00330022"	"0.05"	"1.3"	"29.78"	"1008.4"	"1"	"0"	"37.9"	"3.3"	"0"	"0"	"3.0"	"4.8"	"40"	"NE"	"-9999.0"	"-9999.0"	"28.9"	"-1.7"	"16.1"	"25.9"	
"20130224"	"Rain"	"06"	"37"	"35.6"	"2.0"	"0"	"0"	"-9999"	"-9999"	"93"	"rain"	"SPECI KBOS 241137Z 05014KT 3SM RA BR SCT004 BKN016 OVC021 03/02 A2978 RMK AO2 CIG 011V019 P0008 $"	"0.08"	"2.0"	"29.78"	"1008.4"	"1"	"0"	"37.4"	"3.0"	"0"	"0"	"3.0"	"4.8"	"50"	"NE"	"-9999.0"	"-9999.0"	"28.2"	"-2.1"	"16.1"	"25.9"	
"20130224"	"Light Rain"	"06"	"54"	"36.0"	"2.2"	"0"	"0"	"-9999"	"-9999"	"93"	"rain"	"METAR KBOS 241154Z 04015KT 4SM -RA BR SCT005 BKN015 OVC021 03/02 A2977 RMK AO2 SLP081 CIG 011V020 P0010 60025 70053 T00330022 10033 20028 58004 $"	"0.10"	"2.5"	"29.77"	"1008.1"	"1"	"0"	"37.9"	"3.3"	"0"	"0"	"4.0"	"6.4"	"40"	"NE"	"-9999.0"	"-9999.0"	"28.5"	"-1.9"	"17.3"	"27.8"	
"20130224"	"Rain"	"07"	"16"	"35.6"	"2.0"	"0"	"0"	"-9999"	"-9999"	"93"	"rain"	"SPECI KBOS 241216Z 03011KT 4SM RA BR BKN007 OVC012 03/02 A2979 RMK AO2 P0003 $"	"0.03"	"0.8"	"29.79"	"1008.7"	"1"	"0"	"37.4"	"3.0"	"0"	"0"	"4.0"	"6.4"	"30"	"NNE"	"-9999.0"	"-9999.0"	"29.3"	"-1.5"	"12.7"	"20.4"	
"20130224"	"Rain"	"07"	"54"	"36.0"	"2.2"	"0"	"0"	"-9999"	"-9999"	"93"	"rain"	"METAR KBOS 241254Z 02009KT 3SM RA BR BKN009 OVC017 03/02 A2977 RMK AO2 SLP081 CIG 006V015 P0009 T00330022 $"	"0.09"	"2.3"	"29.77"	"1008.1"	"1"	"0"	"37.9"	"3.3"	"0"	"0"	"3.0"	"4.8"	"20"	"NNE"	"-9999.0"	"-9999.0"	"30.9"	"-0.6"	"10.4"	"16.7"	
"20130224"	"Rain"	"08"	"54"	"36.0"	"2.2"	"0"	"0"	"-9999"	"-9999"	"96"	"rain"	"METAR KBOS 241354Z 02013KT 5SM RA BR OVC009 03/02 A2975 RMK AO2 SLP073 CIG 006V014 P0010 T00280022 $"	"0.10"	"2.5"	"29.75"	"1007.3"	"1"	"0"	"37.0"	"2.8"	"0"	"0"	"5.0"	"8.0"	"20"	"NNE"	"-9999.0"	"-9999.0"	"28.1"	"-2.2"	"15.0"	"24.1"	
"20130224"	"Rain"	"09"	"54"	"36.0"	"2.2"	"0"	"0"	"-9999"	"-9999"	"96"	"rain"	"METAR KBOS 241454Z 01012KT 4SM RA BR OVC009 03/02 A2973 RMK AO2 SLP066 CIG 007V014 P0011 60030 T00280022 58016 $"	"0.11"	"2.8"	"29.73"	"1006.6"	"1"	"0"	"37.0"	"2.8"	"0"	"0"	"4.0"	"6.4"	"10"	"North"	"-9999.0"	"-9999.0"	"28.5"	"-2.0"	"13.8"	"22.2"	
"20130224"	"Light Rain"	"10"	"54"	"35.1"	"1.7"	"0"	"0"	"-9999"	"-9999"	"97"	"rain"	"METAR KBOS 241554Z 01017G22KT 6SM -RA BR OVC008 02/02 A2970 RMK AO2 SLP058 CIG 007V015 P0006 T00220017 $"	"0.06"	"1.5"	"29.70"	"1005.8"	"1"	"0"	"36.0"	"2.2"	"0"	"0"	"6.0"	"9.7"	"10"	"North"	"25.3"	"40.7"	"25.3"	"-3.7"	"19.6"	"31.5"	
"20130224"	"Light Rain"	"11"	"48"	"33.8"	"1.0"	"0"	"0"	"-9999"	"-9999"	"100"	"sleet"	"SPECI KBOS 241648Z 01016G24KT 4SM -RAPL BR BKN009 OVC014 01/01 A2971 RMK AO2 PLB38 CIG 007V012 P0000 $"	"0.00"	"0.0"	"29.71"	"1006.0"	"1"	"0"	"33.8"	"1.0"	"0"	"0"	"4.0"	"6.4"	"10"	"North"	"27.6"	"44.4"	"22.8"	"-5.1"	"18.4"	"29.6"	
"20130224"	"Light Rain"	"11"	"54"	"33.1"	"0.6"	"0"	"0"	"-9999"	"-9999"	"96"	"snow"	"METAR KBOS 241654Z 01016G23KT 5SM -RASN BR BKN009 OVC014 01/01 A2971 RMK AO2 SLP058 PLB38E49SNB49 CIG 007V012 RA VRY LGT P0000 T00110006 $"	"0.00"	"0.0"	"29.70"	"1005.8"	"1"	"1"	"34.0"	"1.1"	"0"	"0"	"5.0"	"8.0"	"10"	"North"	"26.5"	"42.6"	"23.0"	"-5.0"	"18.4"	"29.6"	
"20130224"	"Light Snow"	"12"	"50"	"30.2"	"-1.0"	"0"	"0"	"-9999"	"-9999"	"87"	"snow"	"SPECI KBOS 241750Z 01017G24KT 2 1/2SM -SNRA BR BKN010 OVC017 01/M01 A2971 RMK AO2 PK WND 01026/1735 CIG 007V015 P0001 $"	"0.01"	"0.3"	"29.71"	"1006.0"	"1"	"1"	"33.8"	"1.0"	"0"	"0"	"2.5"	"4.0"	"10"	"North"	"27.6"	"44.4"	"22.5"	"-5.3"	"19.6"	"31.5"	
"20130224"	"Light Snow"	"12"	"51"	"30.9"	"-0.6"	"0"	"0"	"-9999"	"-9999"	"92"	"snow"	"METAR KBOS 241751Z 01017G24KT 2 1/2SM -SNRA BR BKN010 OVC017 01/M01 A2971 RMK AO2 PK WND 01026/1735 SLP059 CIG 007V015 P0001 60037 T00061006 10033 20006 55007 $"	"0.01"	"0.3"	"29.71"	"1005.9"	"1"	"1"	"33.1"	"0.6"	"0"	"0"	"2.5"	"4.0"	"10"	"North"	"27.6"	"44.4"	"21.5"	"-5.8"	"19.6"	"31.5"	
"20130224"	"Light Snow"	"12"	"54"	"32.0"	"0.0"	"0"	"0"	"-9999"	"-9999"	"96"	"snow"	"METAR KBOS 241754Z COR 36014G24KT 2 1/2SM -SNRA BR BKN010 OVC015 01/00 A2971 RMK AO2 PK WND 01026/1735 VIS 1 3/4 E CIG 007V013 SLP059 P0001 60037 T00060000 10033 20006 55007 $"	"0.01"	"0.3"	"29.71"	"1005.9"	"1"	"1"	"33.1"	"0.6"	"0"	"0"	"2.5"	"4.0"	"360"	"North"	"27.6"	"44.4"	"22.6"	"-5.2"	"16.1"	"25.9"	
"20130224"	"Light Snow"	"13"	"13"	"30.2"	"-1.0"	"0"	"0"	"-9999"	"-9999"	"93"	"snow"	"SPECI KBOS 241813Z 01014KT 1 3/4SM -SN BR BKN009 OVC017 00/M01 A2971 RMK AO2 RAE00 CIG 006V015 P0001 $"	"0.01"	"0.3"	"29.71"	"1006.0"	"0"	"1"	"32.0"	"0.0"	"0"	"0"	"1.8"	"2.8"	"10"	"North"	"-9999.0"	"-9999.0"	"21.2"	"-6.0"	"16.1"	"25.9"	
"20130224"	"Light Snow"	"13"	"47"	"32.0"	"0.0"	"0"	"0"	"-9999"	"-9999"	"93"	"snow"	"SPECI KBOS 241847Z 02016G22KT 2SM -SN BR BKN010 OVC018 01/00 A2969 RMK AO2 RAE00 CIG 007V016 P0003"	"0.03"	"0.8"	"29.69"	"1005.3"	"0"	"1"	"33.8"	"1.0"	"0"	"0"	"2.0"	"3.2"	"20"	"NNE"	"25.3"	"40.7"	"22.8"	"-5.1"	"18.4"	"29.6"	
"20130224"	"Light Snow"	"13"	"54"	"32.0"	"0.0"	"0"	"0"	"-9999"	"-9999"	"96"	"snow"	"METAR KBOS 241854Z 02015KT 2SM -SN BR BKN010 OVC017 01/00 A2969 RMK AO2 SLP054 RAE00 CIG 006V015 P0003 T00060000"	"0.03"	"0.8"	"29.69"	"1005.4"	"0"	"1"	"33.1"	"0.6"	"0"	"0"	"2.0"	"3.2"	"20"	"NNE"	"-9999.0"	"-9999.0"	"22.2"	"-5.4"	"17.3"	"27.8"	
"20130224"	"Light Snow"	"13"	"59"	"30.2"	"-1.0"	"0"	"0"	"-9999"	"-9999"	"93"	"snow"	"SPECI KBOS 241859Z 02015G23KT 1SM R04R/6000VP6000FT -SN BR BKN008 OVC015 00/M01 A2969 RMK AO2 SFC VIS 1 3/4 CIG 006V015 P0000"	"0.00"	"0.0"	"29.69"	"1005.3"	"0"	"1"	"32.0"	"0.0"	"0"	"0"	"1.0"	"1.6"	"20"	"NNE"	"26.5"	"42.6"	"20.8"	"-6.2"	"17.3"	"27.8"	
"20130224"	"Light Snow"	"14"	"12"	"30.2"	"-1.0"	"0"	"0"	"-9999"	"-9999"	"93"	"snow"	"SPECI KBOS 241912Z 02016KT 3/4SM R04R/4000V6000FT -SN BR BKN008 OVC015 00/M01 A2969 RMK AO2 TWR VIS 1 P0002"	"0.02"	"0.5"	"29.69"	"1005.3"	"0"	"1"	"32.0"	"0.0"	"0"	"0"	"0.8"	"1.2"	"20"	"NNE"	"-9999.0"	"-9999.0"	"20.5"	"-6.4"	"18.4"	"29.6"	
"20130224"	"Light Snow"	"14"	"54"	"30.9"	"-0.6"	"0"	"0"	"-9999"	"-9999"	"96"	"snow"	"METAR KBOS 241954Z 36012G18KT 1SM R04R/5000VP6000FT -SN BR OVC008 00/M01 A2971 RMK AO2 SFC VIS 1 1/2 SLP061 P0004 T00001006"	"0.04"	"1.0"	"29.71"	"1006.1"	"0"	"1"	"32.0"	"0.0"	"0"	"0"	"1.0"	"1.6"	"360"	"North"	"20.7"	"33.3"	"22.1"	"-5.5"	"13.8"	"22.2"	
"20130224"	"Light Snow"	"15"	"19"	"30.2"	"-1.0"	"0"	"0"	"-9999"	"-9999"	"93"	"snow"	"SPECI KBOS 242019Z 01014KT 2SM R04R/6000VP6000FT -SN BR OVC011 00/M01 A2972 RMK AO2 SFC VIS 3 P0001"	"0.01"	"0.3"	"29.72"	"1006.3"	"0"	"1"	"32.0"	"0.0"	"0"	"0"	"2.0"	"3.2"	"10"	"North"	"-9999.0"	"-9999.0"	"21.2"	"-6.0"	"16.1"	"25.9"	
"20130224"	"Light Snow"	"15"	"24"	"30.2"	"-1.0"	"0"	"0"	"-9999"	"-9999"	"93"	"snow"	"SPECI KBOS 242024Z 02014KT 2SM R04R/6000VP6000FT -SN BR BKN009 OVC014 00/M01 A2972 RMK AO2 SFC VIS 4 P0001"	"0.01"	"0.3"	"29.72"	"1006.3"	"0"	"1"	"32.0"	"0.0"	"0"	"0"	"2.0"	"3.2"	"20"	"NNE"	"-9999.0"	"-9999.0"	"21.2"	"-6.0"	"16.1"	"25.9"	
"20130224"	"Light Snow"	"15"	"33"	"30.2"	"-1.0"	"0"	"0"	"-9999"	"-9999"	"93"	"snow"	"SPECI KBOS 242033Z 01013KT 2SM -SN BR OVC011 00/M01 A2973 RMK AO2 SFC VIS 5 P0001"	"0.01"	"0.3"	"29.73"	"1006.7"	"0"	"1"	"32.0"	"0.0"	"0"	"0"	"2.0"	"3.2"	"10"	"North"	"-9999.0"	"-9999.0"	"21.6"	"-5.8"	"15.0"	"24.1"	
"20130224"	"Light Snow"	"15"	"54"	"30.9"	"-0.6"	"0"	"0"	"-9999"	"-9999"	"96"	"snow"	"METAR KBOS 242054Z 01013G19KT 2SM -SN BR BKN013 OVC017 00/M01 A2973 RMK AO2 SFC VIS 2 1/2 SLP067 P0001 60008 T00001006 53008"	"0.01"	"0.3"	"29.73"	"1006.7"	"0"	"1"	"32.0"	"0.0"	"0"	"0"	"2.0"	"3.2"	"10"	"North"	"21.9"	"35.2"	"21.6"	"-5.8"	"15.0"	"24.1"	
"20130224"	"Light Snow"	"16"	"14"	"30.2"	"-1.0"	"0"	"0"	"-9999"	"-9999"	"93"	"snow"	"SPECI KBOS 242114Z 01014G19KT 1 3/4SM -SN BR BKN008 OVC012 00/M01 A2973 RMK AO2 TWR VIS 2 P0000"	"0.00"	"0.0"	"29.73"	"1006.7"	"0"	"1"	"32.0"	"0.0"	"0"	"0"	"1.8"	"2.8"	"10"	"North"	"21.9"	"35.2"	"21.2"	"-6.0"	"16.1"	"25.9"	
"20130224"	"Light Snow"	"16"	"41"	"30.2"	"-1.0"	"0"	"0"	"-9999"	"-9999"	"93"	"snow"	"SPECI KBOS 242141Z 36011KT 2SM -SN BR OVC008 00/M01 A2974 RMK AO2 P0000"	"0.00"	"0.0"	"29.74"	"1007.0"	"0"	"1"	"32.0"	"0.0"	"0"	"0"	"2.0"	"3.2"	"360"	"North"	"-9999.0"	"-9999.0"	"22.5"	"-5.3"	"12.7"	"20.4"	
"20130224"	"Light Snow"	"16"	"54"	"30.9"	"-0.6"	"0"	"0"	"-9999"	"-9999"	"96"	"snow"	"METAR KBOS 242154Z 35009G17KT 2SM R04R/6000VP6000FT -SN BR SCT008 OVC011 00/M01 A2975 RMK AO2 CIG 007 E SLP072 P0001 T00001006"	"0.01"	"0.3"	"29.75"	"1007.2"	"0"	"1"	"32.0"	"0.0"	"0"	"0"	"2.0"	"3.2"	"350"	"North"	"19.6"	"31.5"	"23.6"	"-4.7"	"10.4"	"16.7"	
"20130224"	"Light Snow"	"17"	"02"	"30.2"	"-1.0"	"0"	"0"	"-9999"	"-9999"	"100"	"snow"	"SPECI KBOS 242202Z 35010KT 2SM R04R/6000VP6000FT -SN BR OVC009 M01/M01 A2975 RMK AO2 P0000"	"0.00"	"0.0"	"29.75"	"1007.3"	"0"	"1"	"30.2"	"-1.0"	"0"	"0"	"2.0"	"3.2"	"350"	"North"	"-9999.0"	"-9999.0"	"20.8"	"-6.2"	"11.5"	"18.5"	
"20130224"	"Light Snow"	"17"	"04"	"30.2"	"-1.0"	"0"	"0"	"-9999"	"-9999"	"100"	"snow"	"SPECI KBOS 242204Z 35010KT 1 3/4SM R04R/5500VP6000FT -SN BR SCT007 OVC012 M01/M01 A2975 RMK AO2 TWR VIS 2 P0000"	"0.00"	"0.0"	"29.75"	"1007.3"	"0"	"1"	"30.2"	"-1.0"	"0"	"0"	"1.8"	"2.8"	"350"	"North"	"-9999.0"	"-9999.0"	"20.8"	"-6.2"	"11.5"	"18.5"	
"20130224"	"Light Snow"	"17"	"07"	"30.2"	"-1.0"	"0"	"0"	"-9999"	"-9999"	"100"	"snow"	"SPECI KBOS 242207Z 35011KT 1 3/4SM R04R/5500VP6000FT -SN BR BKN009 OVC014 M01/M01 A2975 RMK AO2 TWR VIS 2 P0000"	"0.00"	"0.0"	"29.75"	"1007.3"	"0"	"1"	"30.2"	"-1.0"	"0"	"0"	"1.8"	"2.8"	"350"	"North"	"-9999.0"	"-9999.0"	"20.2"	"-6.5"	"12.7"	"20.4"	
"20130224"	"Light Snow"	"17"	"28"	"30.2"	"-1.0"	"0"	"0"	"-9999"	"-9999"	"100"	"snow"	"SPECI KBOS 242228Z 36010G16KT 2SM -SN BR SCT009 OVC013 M01/M01 A2976 RMK AO2 CIG 009 E P0000"	"0.00"	"0.0"	"29.76"	"1007.7"	"0"	"1"	"30.2"	"-1.0"	"0"	"0"	"2.0"	"3.2"	"360"	"North"	"18.4"	"29.6"	"20.8"	"-6.2"	"11.5"	"18.5"	
"20130224"	"Light Snow"	"17"	"33"	"30.2"	"-1.0"	"0"	"0"	"-9999"	"-9999"	"100"	"snow"	"SPECI KBOS 242233Z 35011KT 2SM -SN BR BKN009 OVC016 M01/M01 A2976 RMK AO2 SFC VIS 3 P0000"	"0.00"	"0.0"	"29.76"	"1007.7"	"0"	"1"	"30.2"	"-1.0"	"0"	"0"	"2.0"	"3.2"	"350"	"North"	"-9999.0"	"-9999.0"	"20.2"	"-6.5"	"12.7"	"20.4"	
"20130224"	"Light Snow"	"17"	"54"	"30.0"	"-1.1"	"0"	"0"	"-9999"	"-9999"	"96"	"snow"	"METAR KBOS 242254Z 34010KT 2SM -SN BR BKN011 OVC017 M01/M01 A2978 RMK AO2 SFC VIS 6 SLP082 P0000 T10061011"	"0.00"	"0.0"	"29.78"	"1008.2"	"0"	"1"	"30.9"	"-0.6"	"0"	"0"	"2.0"	"3.2"	"340"	"NNW"	"-9999.0"	"-9999.0"	"21.7"	"-5.7"	"11.5"	"18.5"	
"20130224"	"Light Snow"	"18"	"03"	"30.2"	"-1.0"	"0"	"0"	"-9999"	"-9999"	"100"	"snow"	"SPECI KBOS 242303Z 35010KT 5SM -SN BR OVC013 M01/M01 A2978 RMK AO2 P0000"	"0.00"	"0.0"	"29.78"	"1008.4"	"0"	"1"	"30.2"	"-1.0"	"0"	"0"	"5.0"	"8.0"	"350"	"North"	"-9999.0"	"-9999.0"	"20.8"	"-6.2"	"11.5"	"18.5"	
"20130224"	"Light Snow"	"18"	"06"	"30.2"	"-1.0"	"0"	"0"	"-9999"	"-9999"	"100"	"snow"	"SPECI KBOS 242306Z 35011KT 5SM -SN BR BKN009 OVC015 M01/M01 A2978 RMK AO2 P0000"	"0.00"	"0.0"	"29.78"	"1008.4"	"0"	"1"	"30.2"	"-1.0"	"0"	"0"	"5.0"	"8.0"	"350"	"North"	"-9999.0"	"-9999.0"	"20.2"	"-6.5"	"12.7"	"20.4"	
"20130224"	"Light Snow"	"18"	"14"	"30.2"	"-1.0"	"0"	"0"	"-9999"	"-9999"	"100"	"snow"	"SPECI KBOS 242314Z 35011KT 5SM -SN BR BKN011 OVC017 M01/M01 A2978 RMK AO2 P0000"	"0.00"	"0.0"	"29.78"	"1008.4"	"0"	"1"	"30.2"	"-1.0"	"0"	"0"	"5.0"	"8.0"	"350"	"North"	"-9999.0"	"-9999.0"	"20.2"	"-6.5"	"12.7"	"20.4"	
"20130224"	"Light Snow"	"18"	"30"	"30.2"	"-1.0"	"0"	"0"	"-9999"	"-9999"	"100"	"snow"	"SPECI KBOS 242330Z 35012KT 3SM -SN BR BKN009 BKN015 OVC029 M01/M01 A2979 RMK AO2 P0000"	"0.00"	"0.0"	"29.79"	"1008.7"	"0"	"1"	"30.2"	"-1.0"	"0"	"0"	"3.0"	"4.8"	"350"	"North"	"-9999.0"	"-9999.0"	"19.8"	"-6.8"	"13.8"	"22.2"	
"20130224"	"Light Snow"	"18"	"48"	"30.2"	"-1.0"	"0"	"0"	"-9999"	"-9999"	"100"	"snow"	"SPECI KBOS 242348Z 34009KT 2 1/2SM -SN BR BKN009 BKN013 OVC021 M01/M01 A2980 RMK AO2 P0000"	"0.00"	"0.0"	"29.80"	"1009.0"	"0"	"1"	"30.2"	"-1.0"	"0"	"0"	"2.5"	"4.0"	"340"	"NNW"	"-9999.0"	"-9999.0"	"21.3"	"-5.9"	"10.4"	"16.7"	
"20130224"	"Light Snow"	"18"	"54"	"30.0"	"-1.1"	"0"	"0"	"-9999"	"-9999"	"96"	"snow"	"METAR KBOS 242354Z 34008KT 2 1/2SM -SN BR BKN011 OVC021 M01/M01 A2980 RMK AO2 SLP092 P0000 60009 T10061011 10006 21006 53010"	"0.00"	"0.0"	"29.81"	"1009.2"	"0"	"1"	"30.9"	"-0.6"	"0"	"0"	"2.5"	"4.0"	"340"	"NNW"	"-9999.0"	"-9999.0"	"22.8"	"-5.1"	"9.2"	"14.8"	
"20130224"	"Light Snow"	"19"	"03"	"30.2"	"-1.0"	"0"	"0"	"-9999"	"-9999"	"100"	"snow"	"SPECI KBOS 250003Z 35011KT 1 3/4SM -SN BR BKN009 OVC019 M01/M01 A2981 RMK AO2 P0000"	"0.00"	"0.0"	"29.81"	"1009.4"	"0"	"1"	"30.2"	"-1.0"	"0"	"0"	"1.8"	"2.8"	"350"	"North"	"-9999.0"	"-9999.0"	"20.2"	"-6.5"	"12.7"	"20.4"	
"20130224"	"Light Snow"	"19"	"09"	"30.2"	"-1.0"	"0"	"0"	"-9999"	"-9999"	"100"	"snow"	"SPECI KBOS 250009Z 35010G16KT 1 1/4SM R04R/5000VP6000FT -SN BR SCT009 OVC015 M01/M01 A2981 RMK AO2 TWR VIS 2 CIG 010 E P0000"	"0.00"	"0.0"	"29.81"	"1009.4"	"0"	"1"	"30.2"	"-1.0"	"0"	"0"	"1.2"	"2.0"	"350"	"North"	"18.4"	"29.6"	"20.8"	"-6.2"	"11.5"	"18.5"	
"20130224"	"Light Snow"	"19"	"21"	"30.2"	"-1.0"	"0"	"0"	"-9999"	"-9999"	"100"	"snow"	"SPECI KBOS 250021Z 34011G16KT 1SM R04R/5000VP6000FT -SN BR SCT009 OVC013 M01/M01 A2982 RMK AO2 SFC VIS 1 1/4 CIG 008 E P0000"	"0.00"	"0.0"	"29.82"	"1009.7"	"0"	"1"	"30.2"	"-1.0"	"0"	"0"	"1.0"	"1.6"	"340"	"NNW"	"18.4"	"29.6"	"20.2"	"-6.5"	"12.7"	"20.4"	
"20130224"	"Light Snow"	"19"	"54"	"28.9"	"-1.7"	"0"	"0"	"-9999"	"-9999"	"96"	"snow"	"METAR KBOS 250054Z 35008KT 1 1/2SM -SN BR FEW007 OVC015 M01/M02 A2983 RMK AO2 SFC VIS 1 3/4 SLP100 P0001 T10111017"	"0.01"	"0.3"	"29.83"	"1010.0"	"0"	"1"	"30.0"	"-1.1"	"0"	"0"	"1.5"	"2.4"	"350"	"North"	"-9999.0"	"-9999.0"	"21.7"	"-5.7"	"9.2"	"14.8"	
"20130224"	"Light Snow"	"20"	"27"	"28.4"	"-2.0"	"0"	"0"	"-9999"	"-9999"	"93"	"snow"	"SPECI KBOS 250127Z 34009KT 1 1/4SM R04R/5000VP6000FT -SN BR BKN009 OVC017 M01/M02 A2984 RMK AO2 TWR VIS 1 1/2 P0001"	"0.01"	"0.3"	"29.84"	"1010.4"	"0"	"1"	"30.2"	"-1.0"	"0"	"0"	"1.2"	"2.0"	"340"	"NNW"	"-9999.0"	"-9999.0"	"21.3"	"-5.9"	"10.4"	"16.7"	
"20130224"	"Light Snow"	"20"	"50"	"28.4"	"-2.0"	"0"	"0"	"-9999"	"-9999"	"93"	"snow"	"SPECI KBOS 250150Z 35009KT 1 1/2SM R04R/6000VP6000FT -SN BR OVC011 M01/M02 A2985 RMK AO2 P0002"	"0.02"	"0.5"	"29.85"	"1010.7"	"0"	"1"	"30.2"	"-1.0"	"0"	"0"	"1.5"	"2.4"	"350"	"North"	"-9999.0"	"-9999.0"	"21.3"	"-5.9"	"10.4"	"16.7"	
"20130224"	"Light Snow"	"20"	"54"	"28.9"	"-1.7"	"0"	"0"	"-9999"	"-9999"	"96"	"snow"	"METAR KBOS 250154Z 35011KT 1 1/2SM -SN BR FEW006 OVC011 M01/M02 A2985 RMK AO2 SLP109 P0002 T10111017"	"0.02"	"0.5"	"29.86"	"1010.9"	"0"	"1"	"30.0"	"-1.1"	"0"	"0"	"1.5"	"2.4"	"350"	"North"	"-9999.0"	"-9999.0"	"20.0"	"-6.7"	"12.7"	"20.4"	
"20130224"	"Light Snow"	"21"	"41"	"28.4"	"-2.0"	"0"	"0"	"-9999"	"-9999"	"93"	"snow"	"SPECI KBOS 250241Z 35010KT 1 1/2SM -SN BR SCT007 OVC015 M01/M02 A2987 RMK AO2 SFC VIS 1 3/4 P0001"	"0.01"	"0.3"	"29.87"	"1011.4"	"0"	"1"	"30.2"	"-1.0"	"0"	"0"	"1.5"	"2.4"	"350"	"North"	"-9999.0"	"-9999.0"	"20.8"	"-6.2"	"11.5"	"18.5"	
"20130224"	"Light Snow"	"21"	"54"	"28.9"	"-1.7"	"0"	"0"	"-9999"	"-9999"	"96"	"snow"	"METAR KBOS 250254Z 35007KT 1 1/2SM R04R/6000VP6000FT -SN BR FEW007 OVC013 M01/M02 A2987 RMK AO2 SLP115 P0002 60005 T10111017 51014"	"0.02"	"0.5"	"29.87"	"1011.5"	"0"	"1"	"30.0"	"-1.1"	"0"	"0"	"1.5"	"2.4"	"350"	"North"	"-9999.0"	"-9999.0"	"22.4"	"-5.3"	"8.1"	"13.0"	
"20130224"	"Light Snow"	"22"	"30"	"30.2"	"-1.0"	"0"	"0"	"-9999"	"-9999"	"100"	"snow"	"SPECI KBOS 250330Z 33007KT 2SM -SN BR FEW007 OVC014 M01/M01 A2988 RMK AO2 P0001"	"0.01"	"0.3"	"29.88"	"1011.7"	"0"	"1"	"30.2"	"-1.0"	"0"	"0"	"2.0"	"3.2"	"330"	"NNW"	"-9999.0"	"-9999.0"	"22.6"	"-5.2"	"8.1"	"13.0"	
"20130224"	"Light Snow"	"22"	"54"	"28.9"	"-1.7"	"0"	"0"	"-9999"	"-9999"	"96"	"snow"	"METAR KBOS 250354Z 34007KT 2SM -SN BR SCT007 BKN018 OVC029 M01/M02 A2988 RMK AO2 SLP118 P0001 T10111017"	"0.01"	"0.3"	"29.88"	"1011.8"	"0"	"1"	"30.0"	"-1.1"	"0"	"0"	"2.0"	"3.2"	"340"	"NNW"	"-9999.0"	"-9999.0"	"22.4"	"-5.3"	"8.1"	"13.0"	
"20130224"	"Light Snow"	"22"	"56"	"28.4"	"-2.0"	"0"	"0"	"-9999"	"-9999"	"93"	"snow"	"SPECI KBOS 250356Z 34007KT 2SM -SN BR BKN007 OVC029 M01/M02 A2988 RMK AO2 P0000"	"0.00"	"0.0"	"29.88"	"1011.7"	"0"	"1"	"30.2"	"-1.0"	"0"	"0"	"2.0"	"3.2"	"340"	"NNW"	"-9999.0"	"-9999.0"	"22.6"	"-5.2"	"8.1"	"13.0"	
"20130224"	"Light Snow"	"23"	"39"	"28.4"	"-2.0"	"0"	"0"	"-9999"	"-9999"	"100"	"snow"	"SPECI KBOS 250439Z 35007KT 2SM -SN BR SCT007 OVC032 M02/M02 A2989 RMK AO2 P0000"	"0.00"	"0.0"	"29.89"	"1012.1"	"0"	"1"	"28.4"	"-2.0"	"0"	"0"	"2.0"	"3.2"	"350"	"North"	"-9999.0"	"-9999.0"	"20.4"	"-6.4"	"8.1"	"13.0"	
"20130224"	"Light Snow"	"23"	"54"	"28.9"	"-1.7"	"0"	"0"	"-9999"	"-9999"	"100"	"snow"	"METAR KBOS 250454Z 34007KT 3SM -SN BR SCT007 OVC032 M02/M02 A2990 RMK AO2 SLP123 P0000 T10171017 400331017"	"0.00"	"0.0"	"29.90"	"1012.3"	"0"	"1"	"28.9"	"-1.7"	"0"	"0"	"3.0"	"4.8"	"340"	"NNW"	"-9999.0"	"-9999.0"	"21.1"	"-6.1"	"8.1"	"13.0"	
"20130223"	"Scattered Clouds"	"00"	"54"	"23.0"	"-5.0"	"0"	"0"	"-9999"	"-9999"	"69"	"partlycloudy"	"METAR KBOS 230554Z 00000KT 10SM FEW030 SCT110 00/M05 A3033 RMK AO2 SLP271 T00001050 10011 20000 58009"	"-9999.00"	"-9999.00"	"30.33"	"1027.1"	"0"	"0"	"32.0"	"0.0"	"0"	"0"	"10.0"	"16.1"	"0"	"North"	"-9999.0"	"-9999.0"	"-999"	"-999"	"0.0"	"0.0"	
"20130223"	"Overcast"	"01"	"54"	"25.0"	"-3.9"	"0"	"0"	"-9999"	"-9999"	"75"	"cloudy"	"METAR KBOS 230654Z 00000KT 10SM OVC030 00/M04 A3031 RMK AO2 SLP264 T00001039"	"-9999.00"	"-9999.00"	"30.31"	"1026.4"	"0"	"0"	"32.0"	"0.0"	"0"	"0"	"10.0"	"16.1"	"0"	"North"	"-9999.0"	"-9999.0"	"-999"	"-999"	"0.0"	"0.0"	
"20130223"	"Overcast"	"02"	"54"	"26.1"	"-3.3"	"0"	"0"	"-9999"	"-9999"	"75"	"cloudy"	"METAR KBOS 230754Z 00000KT 10SM OVC032 01/M03 A3031 RMK AO2 SLP262 T00061033"	"-9999.00"	"-9999.00"	"30.31"	"1026.2"	"0"	"0"	"33.1"	"0.6"	"0"	"0"	"10.0"	"16.1"	"0"	"North"	"-9999.0"	"-9999.0"	"-999"	"-999"	"0.0"	"0.0"	
"20130223"	"Overcast"	"03"	"54"	"27.0"	"-2.8"	"0"	"0"	"-9999"	"-9999"	"78"	"cloudy"	"METAR KBOS 230854Z 00000KT 10SM OVC032 01/M03 A3029 RMK AO2 SLP257 T00061028 56014"	"-9999.00"	"-9999.00"	"30.29"	"1025.7"	"0"	"0"	"33.1"	"0.6"	"0"	"0"	"10.0"	"16.1"	"0"	"North"	"-9999.0"	"-9999.0"	"-999"	"-999"	"0.0"	"0.0"	
"20130223"	"Overcast"	"04"	"54"	"26.1"	"-3.3"	"0"	"0"	"-9999"	"-9999"	"75"	"cloudy"	"METAR KBOS 230954Z 00000KT 10SM BKN032 OVC070 01/M03 A3028 RMK AO2 SLP253 T00061033"	"-9999.00"	"-9999.00"	"30.28"	"1025.3"	"0"	"0"	"33.1"	"0.6"	"0"	"0"	"10.0"	"16.1"	"0"	"North"	"-9999.0"	"-9999.0"	"-999"	"-999"	"0.0"	"0.0"	
"20130223"	"Overcast"	"05"	"54"	"27.0"	"-2.8"	"0"	"0"	"-9999"	"-9999"	"78"	"cloudy"	"METAR KBOS 231054Z 00000KT 10SM OVC060 01/M03 A3027 RMK AO2 SLP250 T00061028"	"-9999.00"	"-9999.00"	"30.27"	"1025.0"	"0"	"0"	"33.1"	"0.6"	"0"	"0"	"10.0"	"16.1"	"0"	"North"	"-9999.0"	"-9999.0"	"-999"	"-999"	"0.0"	"0.0"	
"20130223"	"Overcast"	"06"	"54"	"27.0"	"-2.8"	"0"	"0"	"-9999"	"-9999"	"75"	"cloudy"	"METAR KBOS 231154Z 14004KT 10SM OVC060 01/M03 A3026 RMK AO2 SLP245 T00111028 10011 20000 58012"	"-9999.00"	"-9999.00"	"30.26"	"1024.5"	"0"	"0"	"34.0"	"1.1"	"0"	"0"	"10.0"	"16.1"	"140"	"SE"	"-9999.0"	"-9999.0"	"29.8"	"-1.2"	"4.6"	"7.4"	
"20130223"	"Overcast"	"07"	"54"	"28.0"	"-2.2"	"0"	"0"	"-9999"	"-9999"	"79"	"cloudy"	"METAR KBOS 231254Z 16006KT 10SM OVC043 01/M02 A3026 RMK AO2 SLP247 T00111022"	"-9999.00"	"-9999.00"	"30.26"	"1024.7"	"0"	"0"	"34.0"	"1.1"	"0"	"0"	"10.0"	"16.1"	"160"	"SSE"	"-9999.0"	"-9999.0"	"28.0"	"-2.2"	"6.9"	"11.1"	
"20130223"	"Overcast"	"08"	"54"	"28.9"	"-1.7"	"0"	"0"	"-9999"	"-9999"	"78"	"cloudy"	"METAR KBOS 231354Z 14007KT 10SM OVC039 02/M02 A3025 RMK AO2 SLP243 T00171017"	"-9999.00"	"-9999.00"	"30.25"	"1024.3"	"0"	"0"	"35.1"	"1.7"	"0"	"0"	"10.0"	"16.1"	"140"	"SE"	"-9999.0"	"-9999.0"	"28.6"	"-1.9"	"8.1"	"13.0"	
"20130223"	"Overcast"	"09"	"54"	"28.9"	"-1.7"	"0"	"0"	"-9999"	"-9999"	"76"	"cloudy"	"METAR KBOS 231454Z 15006KT 10SM OVC035 02/M02 A3024 RMK AO2 SLP238 T00221017 58007"	"-9999.00"	"-9999.00"	"30.24"	"1023.8"	"0"	"0"	"36.0"	"2.2"	"0"	"0"	"10.0"	"16.1"	"150"	"SSE"	"-9999.0"	"-9999.0"	"30.3"	"-0.9"	"6.9"	"11.1"	
"20130223"	"Overcast"	"10"	"54"	"28.0"	"-2.2"	"0"	"0"	"-9999"	"-9999"	"73"	"cloudy"	"METAR KBOS 231554Z 14007KT 10SM OVC037 02/M02 A3022 RMK AO2 SLP232 T00221022"	"-9999.00"	"-9999.00"	"30.22"	"1023.2"	"0"	"0"	"36.0"	"2.2"	"0"	"0"	"10.0"	"16.1"	"140"	"SE"	"-9999.0"	"-9999.0"	"29.6"	"-1.3"	"8.1"	"13.0"	
"20130223"	"Overcast"	"11"	"54"	"28.9"	"-1.7"	"0"	"0"	"-9999"	"-9999"	"73"	"cloudy"	"METAR KBOS 231654Z 13007KT 10SM OVC035 03/M02 A3018 RMK AO2 SLP219 T00281017"	"-9999.00"	"-9999.00"	"30.18"	"1021.9"	"0"	"0"	"37.0"	"2.8"	"0"	"0"	"10.0"	"16.1"	"130"	"SE"	"-9999.0"	"-9999.0"	"31.0"	"-0.6"	"8.1"	"13.0"	
"20130223"	"Overcast"	"12"	"54"	"30.0"	"-1.1"	"0"	"0"	"-9999"	"-9999"	"76"	"cloudy"	"METAR KBOS 231754Z 13006KT 10SM FEW020 OVC034 03/M01 A3015 RMK AO2 SLP210 T00281011 10028 20011 58028"	"-9999.00"	"-9999.00"	"30.15"	"1021.0"	"0"	"0"	"37.0"	"2.8"	"0"	"0"	"10.0"	"16.1"	"130"	"SE"	"-9999.0"	"-9999.0"	"31.6"	"-0.2"	"6.9"	"11.1"	
"20130223"	"Overcast"	"13"	"54"	"30.0"	"-1.1"	"0"	"0"	"-9999"	"-9999"	"76"	"cloudy"	"METAR KBOS 231854Z 13007KT 10SM SCT024 OVC032 03/M01 A3015 RMK AO2 SLP207 T00281011"	"-9999.00"	"-9999.00"	"30.14"	"1020.7"	"0"	"0"	"37.0"	"2.8"	"0"	"0"	"10.0"	"16.1"	"130"	"SE"	"-9999.0"	"-9999.0"	"31.0"	"-0.6"	"8.1"	"13.0"	
"20130223"	"Overcast"	"14"	"06"	"28.4"	"-2.0"	"0"	"0"	"-9999"	"-9999"	"70"	"cloudy"	"SPECI KBOS 231906Z 13007KT 10SM BKN025 OVC032 03/M02 A3014 RMK AO2"	"-9999.00"	"-9999.00"	"30.14"	"1020.5"	"0"	"0"	"37.4"	"3.0"	"0"	"0"	"10.0"	"16.1"	"130"	"SE"	"-9999.0"	"-9999.0"	"31.4"	"-0.3"	"8.1"	"13.0"	
"20130223"	"Overcast"	"14"	"54"	"30.0"	"-1.1"	"0"	"0"	"-9999"	"-9999"	"76"	"cloudy"	"METAR KBOS 231954Z 12008KT 10SM SCT025 OVC033 03/M01 A3013 RMK AO2 SLP202 T00281011"	"-9999.00"	"-9999.00"	"30.13"	"1020.2"	"0"	"0"	"37.0"	"2.8"	"0"	"0"	"10.0"	"16.1"	"120"	"ESE"	"-9999.0"	"-9999.0"	"30.4"	"-0.9"	"9.2"	"14.8"	
"20130223"	"Overcast"	"15"	"39"	"30.2"	"-1.0"	"0"	"0"	"-9999"	"-9999"	"75"	"cloudy"	"SPECI KBOS 232039Z 12009KT 10SM BKN026 OVC033 03/M01 A3012 RMK AO2"	"-9999.00"	"-9999.00"	"30.12"	"1019.9"	"0"	"0"	"37.4"	"3.0"	"0"	"0"	"10.0"	"16.1"	"120"	"ESE"	"-9999.0"	"-9999.0"	"30.3"	"-1.0"	"10.4"	"16.7"	
"20130223"	"Overcast"	"15"	"54"	"30.9"	"-0.6"	"0"	"0"	"-9999"	"-9999"	"79"	"cloudy"	"METAR KBOS 232054Z 12009KT 10SM BKN026 OVC033 03/M01 A3011 RMK AO2 SLP195 T00281006 58015"	"-9999.00"	"-9999.00"	"30.11"	"1019.5"	"0"	"0"	"37.0"	"2.8"	"0"	"0"	"10.0"	"16.1"	"120"	"ESE"	"-9999.0"	"-9999.0"	"29.8"	"-1.2"	"10.4"	"16.7"	
"20130223"	"Overcast"	"16"	"54"	"30.0"	"-1.1"	"0"	"0"	"-9999"	"-9999"	"76"	"cloudy"	"METAR KBOS 232154Z 12010G17KT 10SM BKN026 OVC043 03/M01 A3009 RMK AO2 SLP190 T00281011"	"-9999.00"	"-9999.00"	"30.09"	"1019.0"	"0"	"0"	"37.0"	"2.8"	"0"	"0"	"10.0"	"16.1"	"120"	"ESE"	"19.6"	"31.5"	"29.3"	"-1.5"	"11.5"	"18.5"	
"20130223"	"Light Snow"	"17"	"44"	"30.2"	"-1.0"	"0"	"0"	"-9999"	"-9999"	"81"	"snow"	"SPECI KBOS 232244Z 12009KT 7SM -SNRA FEW017 SCT025 OVC045 02/M01 A3008 RMK AO2 RAB32SNB42 P0000"	"0.00"	"0.0"	"30.08"	"1018.5"	"1"	"1"	"35.6"	"2.0"	"0"	"0"	"7.0"	"11.3"	"120"	"ESE"	"-9999.0"	"-9999.0"	"28.0"	"-2.2"	"10.4"	"16.7"	
"20130223"	"Light Snow"	"17"	"54"	"30.0"	"-1.1"	"0"	"0"	"-9999"	"-9999"	"79"	"snow"	"METAR KBOS 232254Z 13010KT 7SM -SNRA FEW017 BKN030 OVC048 02/M01 A3008 RMK AO2 RAB32SNB42 SLP185 P0000 T00221011"	"0.00"	"0.0"	"30.08"	"1018.5"	"1"	"1"	"36.0"	"2.2"	"0"	"0"	"7.0"	"11.3"	"130"	"SE"	"-9999.0"	"-9999.0"	"28.0"	"-2.2"	"11.5"	"18.5"	
"20130223"	"Light Snow"	"18"	"09"	"30.2"	"-1.0"	"0"	"0"	"-9999"	"-9999"	"81"	"snow"	"SPECI KBOS 232309Z 13011KT 3SM -SN OVC027 02/M01 A3007 RMK AO2 SFC VIS 4 RAE03 P0000"	"0.00"	"0.0"	"30.07"	"1018.2"	"0"	"1"	"35.6"	"2.0"	"0"	"0"	"3.0"	"4.8"	"130"	"SE"	"-9999.0"	"-9999.0"	"27.1"	"-2.7"	"12.7"	"20.4"	
"20130223"	"Light Rain"	"18"	"54"	"30.9"	"-0.6"	"0"	"0"	"-9999"	"-9999"	"89"	"snow"	"METAR KBOS 232354Z 10007KT 3SM -RASN BR BKN024 OVC031 01/M01 A3006 RMK AO2 SFC VIS 6 RAE03B36 SLP179 P0001 60001 T00111006 10033 20011 57016"	"0.01"	"0.3"	"30.06"	"1017.9"	"1"	"1"	"34.0"	"1.1"	"0"	"0"	"3.0"	"4.8"	"100"	"East"	"-9999.0"	"-9999.0"	"27.2"	"-2.6"	"8.1"	"13.0"	
"20130223"	"Light Rain"	"19"	"14"	"30.2"	"-1.0"	"0"	"0"	"-9999"	"-9999"	"87"	"snow"	"SPECI KBOS 240014Z 10008KT 6SM -RASN BR BKN012 OVC026 01/M01 A3005 RMK AO2 P0000"	"0.00"	"0.0"	"30.05"	"1017.5"	"1"	"1"	"33.8"	"1.0"	"0"	"0"	"6.0"	"9.7"	"100"	"East"	"-9999.0"	"-9999.0"	"26.4"	"-3.1"	"9.2"	"14.8"	
"20130223"	"Light Snow"	"19"	"54"	"32.0"	"0.0"	"0"	"0"	"-9999"	"-9999"	"89"	"snow"	"METAR KBOS 240054Z 12009KT 6SM -SNRA BR BKN011 OVC016 02/00 A3005 RMK AO2 SLP174 P0001 T00170000"	"0.01"	"0.3"	"30.05"	"1017.4"	"1"	"1"	"35.1"	"1.7"	"0"	"0"	"6.0"	"9.7"	"120"	"ESE"	"-9999.0"	"-9999.0"	"27.4"	"-2.6"	"10.4"	"16.7"	
"20130223"	"Light Rain"	"20"	"54"	"32.0"	"0.0"	"0"	"0"	"-9999"	"-9999"	"89"	"rain"	"METAR KBOS 240154Z 09007KT 7SM -RA BKN011 OVC022 02/00 A3002 RMK AO2 SNE47 SLP165 P0002 T00170000"	"0.02"	"0.5"	"30.02"	"1016.5"	"1"	"0"	"35.1"	"1.7"	"0"	"0"	"7.0"	"11.3"	"90"	"East"	"-9999.0"	"-9999.0"	"28.6"	"-1.9"	"8.1"	"13.0"	
"20130223"	"Light Ice Pellets"	"21"	"14"	"32.0"	"0.0"	"0"	"0"	"-9999"	"-9999"	"87"	"sleet"	"SPECI KBOS 240214Z 10006KT 7SM -PLRA BKN009 OVC015 02/00 A3002 RMK AO2 SNB05E09PLB09 P0001"	"0.01"	"0.3"	"30.02"	"1016.5"	"1"	"0"	"35.6"	"2.0"	"0"	"0"	"7.0"	"11.3"	"100"	"East"	"-9999.0"	"-9999.0"	"29.9"	"-1.2"	"6.9"	"11.1"	
"20130223"	"Light Rain"	"21"	"28"	"32.0"	"0.0"	"0"	"0"	"-9999"	"-9999"	"87"	"snow"	"SPECI KBOS 240228Z 09008KT 7SM -RASN OVC011 02/00 A3000 RMK AO2 SNB05E09B27PLB09E27 P0001"	"0.01"	"0.3"	"30.00"	"1015.8"	"1"	"1"	"35.6"	"2.0"	"0"	"0"	"7.0"	"11.3"	"90"	"East"	"-9999.0"	"-9999.0"	"28.6"	"-1.9"	"9.2"	"14.8"	
"20130223"	"Light Snow"	"21"	"54"	"32.0"	"0.0"	"0"	"0"	"-9999"	"-9999"	"89"	"snow"	"METAR KBOS 240254Z 09007KT 7SM -SNPLRA OVC011 02/00 A2998 RMK AO2 SNB05E09B27PLB09E27B47 SLP152 P0002 60005 T00170000 58026"	"0.02"	"0.5"	"29.98"	"1015.2"	"1"	"1"	"35.1"	"1.7"	"0"	"0"	"7.0"	"11.3"	"90"	"East"	"-9999.0"	"-9999.0"	"28.6"	"-1.9"	"8.1"	"13.0"	
"20130223"	"Light Snow"	"22"	"26"	"32.0"	"0.0"	"0"	"0"	"-9999"	"-9999"	"87"	"snow"	"SPECI KBOS 240326Z 09010KT 5SM -SNRA BR OVC011 02/00 A2995 RMK AO2 PLE24 PRESFR P0003"	"0.03"	"0.8"	"29.95"	"1014.1"	"1"	"1"	"35.6"	"2.0"	"0"	"0"	"5.0"	"8.0"	"90"	"East"	"-9999.0"	"-9999.0"	"27.5"	"-2.5"	"11.5"	"18.5"	
"20130223"	"Light Rain"	"22"	"54"	"33.1"	"0.6"	"0"	"0"	"-9999"	"-9999"	"92"	"rain"	"METAR KBOS 240354Z 08007KT 6SM -RA BR BKN007 OVC012 02/01 A2995 RMK AO2 PLE24SNE42 SLP142 P0010 T00170006"	"0.10"	"2.5"	"29.95"	"1014.2"	"1"	"0"	"35.1"	"1.7"	"0"	"0"	"6.0"	"9.7"	"80"	"East"	"-9999.0"	"-9999.0"	"28.6"	"-1.9"	"8.1"	"13.0"	
"20130223"	"Light Rain"	"23"	"54"	"34.0"	"1.1"	"0"	"0"	"-9999"	"-9999"	"93"	"rain"	"METAR KBOS 240454Z 05008KT 4SM -RA BR BKN008 OVC018 02/01 A2993 RMK AO2 SNB11E45 SLP133 P0007 T00220011 400330000"	"0.07"	"1.8"	"29.93"	"1013.3"	"1"	"0"	"36.0"	"2.2"	"0"	"0"	"4.0"	"6.4"	"50"	"NE"	"-9999.0"	"-9999.0"	"29.0"	"-1.6"	"9.2"	"14.8"	
"20130222"	"Clear"	"00"	"54"	"15.1"	"-9.4"	"0"	"0"	"-9999"	"-9999"	"61"	"clear"	"METAR KBOS 220554Z 31013KT 10SM CLR M03/M09 A3023 RMK AO2 SLP235 T10281094 11017 21033 53043"	"-9999.00"	"-9999.00"	"30.23"	"1023.5"	"0"	"0"	"27.0"	"-2.8"	"0"	"0"	"10.0"	"16.1"	"310"	"NW"	"-9999.0"	"-9999.0"	"15.2"	"-9.4"	"15.0"	"24.1"	
"20130222"	"Partly Cloudy"	"01"	"54"	"15.1"	"-9.4"	"0"	"0"	"-9999"	"-9999"	"63"	"partlycloudy"	"METAR KBOS 220654Z 33013G19KT 10SM FEW060 M03/M09 A3023 RMK AO2 SLP236 T10331094"	"-9999.00"	"-9999.00"	"30.23"	"1023.6"	"0"	"0"	"26.1"	"-3.3"	"0"	"0"	"10.0"	"16.1"	"330"	"NNW"	"21.9"	"35.2"	"14.0"	"-10.0"	"15.0"	"24.1"	
"20130222"	"Overcast"	"02"	"54"	"16.0"	"-8.9"	"0"	"0"	"-9999"	"-9999"	"63"	"cloudy"	"METAR KBOS 220754Z 32011KT 10SM OVC037 M03/M09 A3025 RMK AO2 SLP243 T10281089"	"-9999.00"	"-9999.00"	"30.25"	"1024.3"	"0"	"0"	"27.0"	"-2.8"	"0"	"0"	"10.0"	"16.1"	"320"	"NW"	"-9999.0"	"-9999.0"	"16.1"	"-8.8"	"12.7"	"20.4"	
"20130222"	"Overcast"	"03"	"54"	"17.1"	"-8.3"	"0"	"0"	"-9999"	"-9999"	"66"	"cloudy"	"METAR KBOS 220854Z 32010KT 10SM OVC035 M03/M08 A3027 RMK AO2 SLP249 T10281083 53014"	"-9999.00"	"-9999.00"	"30.27"	"1024.9"	"0"	"0"	"27.0"	"-2.8"	"0"	"0"	"10.0"	"16.1"	"320"	"NW"	"-9999.0"	"-9999.0"	"16.7"	"-8.5"	"11.5"	"18.5"	
"20130222"	"Partly Cloudy"	"04"	"54"	"16.0"	"-8.9"	"0"	"0"	"-9999"	"-9999"	"66"	"partlycloudy"	"METAR KBOS 220954Z 33008KT 10SM FEW070 M03/M09 A3028 RMK AO2 SLP251 T10331089"	"-9999.00"	"-9999.00"	"30.27"	"1025.1"	"0"	"0"	"26.1"	"-3.3"	"0"	"0"	"10.0"	"16.1"	"330"	"NNW"	"-9999.0"	"-9999.0"	"16.8"	"-8.4"	"9.2"	"14.8"	
"20130222"	"Partly Cloudy"	"05"	"54"	"17.1"	"-8.3"	"0"	"0"	"-9999"	"-9999"	"69"	"partlycloudy"	"METAR KBOS 221054Z 31008KT 10SM FEW070 M03/M08 A3032 RMK AO2 SLP267 T10331083"	"-9999.00"	"-9999.00"	"30.32"	"1026.7"	"0"	"0"	"26.1"	"-3.3"	"0"	"0"	"10.0"	"16.1"	"310"	"NW"	"-9999.0"	"-9999.0"	"16.8"	"-8.4"	"9.2"	"14.8"	
"20130222"	"Scattered Clouds"	"06"	"54"	"17.1"	"-8.3"	"0"	"0"	"-9999"	"-9999"	"66"	"partlycloudy"	"METAR KBOS 221154Z 31011KT 10SM FEW037 SCT200 M03/M08 A3036 RMK AO2 SLP281 T10281083 11028 21033 53032"	"-9999.00"	"-9999.00"	"30.36"	"1028.1"	"0"	"0"	"27.0"	"-2.8"	"0"	"0"	"10.0"	"16.1"	"310"	"NW"	"-9999.0"	"-9999.0"	"16.1"	"-8.8"	"12.7"	"20.4"	
"20130222"	"Scattered Clouds"	"07"	"54"	"18.0"	"-7.8"	"0"	"0"	"-9999"	"-9999"	"66"	"partlycloudy"	"METAR KBOS 221254Z 33012KT 10SM FEW033 SCT200 M02/M08 A3038 RMK AO2 SLP288 T10221078"	"-9999.00"	"-9999.00"	"30.38"	"1028.8"	"0"	"0"	"28.0"	"-2.2"	"0"	"0"	"10.0"	"16.1"	"330"	"NNW"	"-9999.0"	"-9999.0"	"17.0"	"-8.3"	"13.8"	"22.2"	
"20130222"	"Scattered Clouds"	"08"	"54"	"19.0"	"-7.2"	"0"	"0"	"-9999"	"-9999"	"64"	"partlycloudy"	"METAR KBOS 221354Z 36012KT 10SM FEW033 SCT200 M01/M07 A3038 RMK AO2 SLP285 T10111072"	"-9999.00"	"-9999.00"	"30.38"	"1028.5"	"0"	"0"	"30.0"	"-1.1"	"0"	"0"	"10.0"	"16.1"	"360"	"North"	"-9999.0"	"-9999.0"	"19.5"	"-6.9"	"13.8"	"22.2"	
"20130222"	"Scattered Clouds"	"09"	"54"	"19.9"	"-6.7"	"0"	"0"	"-9999"	"-9999"	"56"	"partlycloudy"	"METAR KBOS 221454Z 02011KT 10SM FEW031 SCT200 01/M07 A3037 RMK AO2 SLP284 T00111067 50003"	"-9999.00"	"-9999.00"	"30.37"	"1028.4"	"0"	"0"	"34.0"	"1.1"	"0"	"0"	"10.0"	"16.1"	"20"	"NNE"	"-9999.0"	"-9999.0"	"25.0"	"-3.9"	"12.7"	"20.4"	
"20130222"	"Scattered Clouds"	"10"	"54"	"21.0"	"-6.1"	"0"	"0"	"-9999"	"-9999"	"55"	"partlycloudy"	"METAR KBOS 221554Z 03009KT 10SM FEW035 SCT250 02/M06 A3038 RMK AO2 SLP286 T00221061"	"-9999.00"	"-9999.00"	"30.38"	"1028.6"	"0"	"0"	"36.0"	"2.2"	"0"	"0"	"10.0"	"16.1"	"30"	"NNE"	"-9999.0"	"-9999.0"	"28.5"	"-2.0"	"10.4"	"16.7"	
"20130222"	"Mostly Cloudy"	"11"	"54"	"21.0"	"-6.1"	"0"	"0"	"-9999"	"-9999"	"55"	"mostlycloudy"	"METAR KBOS 221654Z 04010KT 10SM FEW035 BKN250 02/M06 A3036 RMK AO2 SLP280 T00221061"	"-9999.00"	"-9999.00"	"30.36"	"1028.0"	"0"	"0"	"36.0"	"2.2"	"0"	"0"	"10.0"	"16.1"	"40"	"NE"	"-9999.0"	"-9999.0"	"28.0"	"-2.2"	"11.5"	"18.5"	
"20130222"	"Mostly Cloudy"	"12"	"54"	"23.0"	"-5.0"	"0"	"0"	"-9999"	"-9999"	"59"	"mostlycloudy"	"METAR KBOS 221754Z 06011KT 10SM FEW035 BKN250 02/M05 A3036 RMK AO2 SLP279 T00221050 10028 21028 58005"	"-9999.00"	"-9999.00"	"30.36"	"1027.9"	"0"	"0"	"36.0"	"2.2"	"0"	"0"	"10.0"	"16.1"	"60"	"ENE"	"-9999.0"	"-9999.0"	"27.5"	"-2.5"	"12.7"	"20.4"	
"20130222"	"Mostly Cloudy"	"13"	"54"	"21.9"	"-5.6"	"0"	"0"	"-9999"	"-9999"	"54"	"mostlycloudy"	"METAR KBOS 221854Z 05006KT 10SM FEW035 BKN250 03/M06 A3036 RMK AO2 SLP281 T00281056"	"-9999.00"	"-9999.00"	"30.36"	"1028.1"	"0"	"0"	"37.0"	"2.8"	"0"	"0"	"10.0"	"16.1"	"50"	"NE"	"-9999.0"	"-9999.0"	"31.6"	"-0.2"	"6.9"	"11.1"	
"20130222"	"Mostly Cloudy"	"14"	"54"	"23.0"	"-5.0"	"0"	"0"	"-9999"	"-9999"	"59"	"mostlycloudy"	"METAR KBOS 221954Z 08008KT 10SM FEW035 BKN160 BKN280 02/M05 A3036 RMK AO2 SLP279 T00221050"	"-9999.00"	"-9999.00"	"30.36"	"1027.9"	"0"	"0"	"36.0"	"2.2"	"0"	"0"	"10.0"	"16.1"	"80"	"East"	"-9999.0"	"-9999.0"	"29.0"	"-1.6"	"9.2"	"14.8"	
"20130222"	"Mostly Cloudy"	"15"	"54"	"23.0"	"-5.0"	"0"	"0"	"-9999"	"-9999"	"61"	"mostlycloudy"	"METAR KBOS 222054Z 10006KT 10SM FEW035 BKN160 BKN280 02/M05 A3037 RMK AO2 SLP282 T00171050 52002"	"-9999.00"	"-9999.00"	"30.37"	"1028.2"	"0"	"0"	"35.1"	"1.7"	"0"	"0"	"10.0"	"16.1"	"100"	"East"	"-9999.0"	"-9999.0"	"29.3"	"-1.5"	"6.9"	"11.1"	
"20130222"	"Mostly Cloudy"	"16"	"54"	"23.0"	"-5.0"	"0"	"0"	"-9999"	"-9999"	"64"	"mostlycloudy"	"METAR KBOS 222154Z 10008KT 10SM FEW035 BKN160 BKN280 01/M05 A3035 RMK AO2 SLP275 T00111050"	"-9999.00"	"-9999.00"	"30.35"	"1027.5"	"0"	"0"	"34.0"	"1.1"	"0"	"0"	"10.0"	"16.1"	"100"	"East"	"-9999.0"	"-9999.0"	"26.6"	"-3.0"	"9.2"	"14.8"	
"20130222"	"Mostly Cloudy"	"17"	"54"	"23.0"	"-5.0"	"0"	"0"	"-9999"	"-9999"	"64"	"mostlycloudy"	"METAR KBOS 222254Z 10009KT 10SM FEW040 BKN160 BKN280 01/M05 A3035 RMK AO2 SLP275 T00111050"	"-9999.00"	"-9999.00"	"30.35"	"1027.5"	"0"	"0"	"34.0"	"1.1"	"0"	"0"	"10.0"	"16.1"	"100"	"East"	"-9999.0"	"-9999.0"	"26.0"	"-3.3"	"10.4"	"16.7"	
"20130222"	"Overcast"	"18"	"54"	"24.1"	"-4.4"	"0"	"0"	"-9999"	"-9999"	"67"	"cloudy"	"METAR KBOS 222354Z 11006KT 10SM FEW040 BKN160 OVC280 01/M04 A3036 RMK AO2 SLP279 T00111044 10033 20011 55003"	"-9999.00"	"-9999.00"	"30.36"	"1027.9"	"0"	"0"	"34.0"	"1.1"	"0"	"0"	"10.0"	"16.1"	"110"	"ESE"	"-9999.0"	"-9999.0"	"28.0"	"-2.2"	"6.9"	"11.1"	
"20130222"	"Overcast"	"19"	"54"	"24.1"	"-4.4"	"0"	"0"	"-9999"	"-9999"	"70"	"cloudy"	"METAR KBOS 230054Z 20005KT 10SM FEW030 BKN140 OVC280 01/M04 A3036 RMK AO2 SLP280 T00061044"	"-9999.00"	"-9999.00"	"30.36"	"1028.0"	"0"	"0"	"33.1"	"0.6"	"0"	"0"	"10.0"	"16.1"	"200"	"SSW"	"-9999.0"	"-9999.0"	"27.7"	"-2.4"	"5.8"	"9.3"	
"20130222"	"Overcast"	"20"	"54"	"24.1"	"-4.4"	"0"	"0"	"-9999"	"-9999"	"67"	"cloudy"	"METAR KBOS 230154Z 17003KT 10SM FEW030 BKN140 OVC280 01/M04 A3036 RMK AO2 SLP279 T00111044"	"-9999.00"	"-9999.00"	"30.36"	"1027.9"	"0"	"0"	"34.0"	"1.1"	"0"	"0"	"10.0"	"16.1"	"170"	"South"	"-9999.0"	"-9999.0"	"31.0"	"-0.6"	"3.5"	"5.6"	
"20130222"	"Overcast"	"21"	"54"	"24.1"	"-4.4"	"0"	"0"	"-9999"	"-9999"	"70"	"cloudy"	"METAR KBOS 230254Z 20003KT 10SM FEW030 BKN140 OVC280 01/M04 A3036 RMK AO2 SLP280 T00061044 51001"	"-9999.00"	"-9999.00"	"30.36"	"1028.0"	"0"	"0"	"33.1"	"0.6"	"0"	"0"	"10.0"	"16.1"	"200"	"SSW"	"-9999.0"	"-9999.0"	"30.0"	"-1.1"	"3.5"	"5.6"	
"20130222"	"Mostly Cloudy"	"22"	"54"	"23.0"	"-5.0"	"0"	"0"	"-9999"	"-9999"	"66"	"mostlycloudy"	"METAR KBOS 230354Z 22003KT 10SM FEW030 BKN110 01/M05 A3036 RMK AO2 SLP279 T00061050"	"-9999.00"	"-9999.00"	"30.36"	"1027.9"	"0"	"0"	"33.1"	"0.6"	"0"	"0"	"10.0"	"16.1"	"220"	"SW"	"-9999.0"	"-9999.0"	"30.0"	"-1.1"	"3.5"	"5.6"	
"20130222"	"Overcast"	"23"	"54"	"24.1"	"-4.4"	"0"	"0"	"-9999"	"-9999"	"70"	"cloudy"	"METAR KBOS 230454Z 20003KT 10SM OVC110 01/M04 A3035 RMK AO2 SLP275 T00061044 400331033"	"-9999.00"	"-9999.00"	"30.35"	"1027.5"	"0"	"0"	"33.1"	"0.6"	"0"	"0"	"10.0"	"16.1"	"200"	"SSW"	"-9999.0"	"-9999.0"	"30.0"	"-1.1"	"3.5"	"5.6"	
"20130221"	"Clear"	"00"	"54"	"12.9"	"-10.6"	"0"	"0"	"-9999"	"-9999"	"56"	"clear"	"METAR KBOS 210554Z 28015KT 10SM CLR M03/M11 A2978 RMK AO2 SLP084 T10281106 11017 21028 51010"	"-9999.00"	"-9999.00"	"29.78"	"1008.4"	"0"	"0"	"27.0"	"-2.8"	"0"	"0"	"10.0"	"16.1"	"280"	"West"	"-9999.0"	"-9999.0"	"14.3"	"-9.8"	"17.3"	"27.8"	
"20130221"	"Partly Cloudy"	"01"	"54"	"12.9"	"-10.6"	"0"	"0"	"-9999"	"-9999"	"56"	"partlycloudy"	"METAR KBOS 210654Z 28010KT 10SM FEW095 M03/M11 A2979 RMK AO2 SLP088 T10281106"	"-9999.00"	"-9999.00"	"29.79"	"1008.8"	"0"	"0"	"27.0"	"-2.8"	"0"	"0"	"10.0"	"16.1"	"280"	"West"	"-9999.0"	"-9999.0"	"16.7"	"-8.5"	"11.5"	"18.5"	
"20130221"	"Scattered Clouds"	"02"	"54"	"12.0"	"-11.1"	"0"	"0"	"-9999"	"-9999"	"51"	"partlycloudy"	"METAR KBOS 210754Z 27014G21KT 10SM FEW100 SCT160 M02/M11 A2979 RMK AO2 SLP085 T10221111"	"-9999.00"	"-9999.00"	"29.78"	"1008.5"	"0"	"0"	"28.0"	"-2.2"	"0"	"0"	"10.0"	"16.1"	"270"	"West"	"24.2"	"38.9"	"16.1"	"-8.8"	"16.1"	"25.9"	
"20130221"	"Scattered Clouds"	"03"	"54"	"12.0"	"-11.1"	"0"	"0"	"-9999"	"-9999"	"53"	"partlycloudy"	"METAR KBOS 210854Z 28012G17KT 10SM FEW100 SCT160 M03/M11 A2979 RMK AO2 SLP087 T10281111 51003"	"-9999.00"	"-9999.00"	"29.79"	"1008.7"	"0"	"0"	"27.0"	"-2.8"	"0"	"0"	"10.0"	"16.1"	"280"	"West"	"19.6"	"31.5"	"15.6"	"-9.1"	"13.8"	"22.2"	
"20130221"	"Scattered Clouds"	"04"	"54"	"12.0"	"-11.1"	"0"	"0"	"-9999"	"-9999"	"53"	"partlycloudy"	"METAR KBOS 210954Z 27010KT 10SM FEW070 SCT260 M03/M11 A2980 RMK AO2 SLP089 T10281111"	"-9999.00"	"-9999.00"	"29.80"	"1008.9"	"0"	"0"	"27.0"	"-2.8"	"0"	"0"	"10.0"	"16.1"	"270"	"West"	"-9999.0"	"-9999.0"	"16.7"	"-8.5"	"11.5"	"18.5"	
"20130221"	"Scattered Clouds"	"05"	"54"	"10.9"	"-11.7"	"0"	"0"	"-9999"	"-9999"	"53"	"partlycloudy"	"METAR KBOS 211054Z COR 28014KT 10SM FEW070 SCT200 M03/M12 A2980 RMK AO2 PK WND 26027/1005 SLP090 T10331117"	"-9999.00"	"-9999.00"	"29.80"	"1009.0"	"0"	"0"	"26.1"	"-3.3"	"0"	"0"	"10.0"	"16.1"	"280"	"West"	"-9999.0"	"-9999.0"	"13.6"	"-10.2"	"16.1"	"25.9"	
"20130221"	"Scattered Clouds"	"06"	"54"	"10.0"	"-12.2"	"0"	"0"	"-9999"	"-9999"	"51"	"partlycloudy"	"METAR KBOS 211154Z 28018G27KT 10SM FEW040 SCT120 SCT200 M03/M12 A2981 RMK AO2 PK WND 28027/1150 SLP095 T10331122 11022 21033 53008"	"-9999.00"	"-9999.00"	"29.81"	"1009.5"	"0"	"0"	"26.1"	"-3.3"	"0"	"0"	"10.0"	"16.1"	"280"	"West"	"31.1"	"50.0"	"12.0"	"-11.1"	"20.7"	"33.3"	
"20130221"	"Scattered Clouds"	"07"	"54"	"10.0"	"-12.2"	"0"	"0"	"-9999"	"-9999"	"51"	"partlycloudy"	"METAR KBOS 211254Z 27017G25KT 10SM FEW040 SCT120 SCT200 M03/M12 A2982 RMK AO2 SLP097 T10331122"	"-9999.00"	"-9999.00"	"29.82"	"1009.7"	"0"	"0"	"26.1"	"-3.3"	"0"	"0"	"10.0"	"16.1"	"270"	"West"	"28.8"	"46.3"	"12.3"	"-10.9"	"19.6"	"31.5"	
"20130221"	"Scattered Clouds"	"08"	"54"	"9.0"	"-12.8"	"0"	"0"	"-9999"	"-9999"	"49"	"partlycloudy"	"METAR KBOS 211354Z 29019G25KT 10SM FEW040 SCT120 SCT200 M03/M13 A2980 RMK AO2 PK WND 28027/1332 SLP092 T10331128"	"-9999.00"	"-9999.00"	"29.81"	"1009.2"	"0"	"0"	"26.1"	"-3.3"	"0"	"0"	"10.0"	"16.1"	"290"	"WNW"	"28.8"	"46.3"	"11.6"	"-11.3"	"21.9"	"35.2"	
"20130221"	"Scattered Clouds"	"09"	"54"	"9.0"	"-12.8"	"0"	"0"	"-9999"	"-9999"	"45"	"partlycloudy"	"METAR KBOS 211454Z 30019G24KT 10SM FEW040 SCT120 SCT200 M02/M13 A2981 RMK AO2 SLP093 T10221128 58002"	"-9999.00"	"-9999.00"	"29.81"	"1009.3"	"0"	"0"	"28.0"	"-2.2"	"0"	"0"	"10.0"	"16.1"	"300"	"WNW"	"27.6"	"44.4"	"14.3"	"-9.9"	"21.9"	"35.2"	
"20130221"	"Scattered Clouds"	"10"	"54"	"8.1"	"-13.3"	"0"	"0"	"-9999"	"-9999"	"41"	"partlycloudy"	"METAR KBOS 211554Z 30017G26KT 10SM SCT060 M02/M13 A2982 RMK AO2 PK WND 30026/1549 SLP095 T10171133"	"-9999.00"	"-9999.00"	"29.81"	"1009.5"	"0"	"0"	"28.9"	"-1.7"	"0"	"0"	"10.0"	"16.1"	"300"	"WNW"	"29.9"	"48.2"	"16.1"	"-8.8"	"19.6"	"31.5"	
"20130221"	"Scattered Clouds"	"11"	"54"	"10.0"	"-12.2"	"0"	"0"	"-9999"	"-9999"	"43"	"partlycloudy"	"METAR KBOS 211654Z 29016G22KT 10SM FEW060 SCT220 M01/M12 A2981 RMK AO2 PK WND 33026/1632 SLP094 T10111122"	"-9999.00"	"-9999.00"	"29.81"	"1009.4"	"0"	"0"	"30.0"	"-1.1"	"0"	"0"	"10.0"	"16.1"	"290"	"WNW"	"25.3"	"40.7"	"17.9"	"-7.8"	"18.4"	"29.6"	
"20130221"	"Scattered Clouds"	"12"	"54"	"10.0"	"-12.2"	"0"	"0"	"-9999"	"-9999"	"42"	"partlycloudy"	"METAR KBOS 211754Z 32014G23KT 10SM SCT050 SCT220 M01/M12 A2981 RMK AO2 SLP094 T10061122 10000 21039 50000"	"-9999.00"	"-9999.00"	"29.81"	"1009.4"	"0"	"0"	"30.9"	"-0.6"	"0"	"0"	"10.0"	"16.1"	"320"	"NW"	"26.5"	"42.6"	"19.8"	"-6.8"	"16.1"	"25.9"	
"20130221"	"Scattered Clouds"	"13"	"54"	"10.0"	"-12.2"	"0"	"0"	"-9999"	"-9999"	"40"	"partlycloudy"	"METAR KBOS 211854Z 33021G30KT 10SM SCT045 SCT220 00/M12 A2981 RMK AO2 PK WND 33030/1854 SLP094 T00001122"	"-9999.00"	"-9999.00"	"29.81"	"1009.4"	"0"	"0"	"32.0"	"0.0"	"0"	"0"	"10.0"	"16.1"	"330"	"NNW"	"34.5"	"55.6"	"18.9"	"-7.3"	"24.2"	"38.9"	
"20130221"	"Scattered Clouds"	"14"	"54"	"12.0"	"-11.1"	"0"	"0"	"-9999"	"-9999"	"44"	"partlycloudy"	"METAR KBOS 211954Z 31017G23KT 10SM SCT045 SCT220 00/M11 A2984 RMK AO2 PK WND 33030/1855 SLP102 T00001111"	"-9999.00"	"-9999.00"	"29.83"	"1010.2"	"0"	"0"	"32.0"	"0.0"	"0"	"0"	"10.0"	"16.1"	"310"	"NW"	"26.5"	"42.6"	"20.1"	"-6.6"	"19.6"	"31.5"	
"20130221"	"Mostly Cloudy"	"15"	"54"	"12.0"	"-11.1"	"0"	"0"	"-9999"	"-9999"	"44"	"mostlycloudy"	"METAR KBOS 212054Z 33015G23KT 10SM BKN100 00/M11 A2986 RMK AO2 PK WND 33027/2003 SLP112 T00001111 53018"	"-9999.00"	"-9999.00"	"29.86"	"1011.2"	"0"	"0"	"32.0"	"0.0"	"0"	"0"	"10.0"	"16.1"	"330"	"NNW"	"26.5"	"42.6"	"20.8"	"-6.2"	"17.3"	"27.8"	
"20130221"	"Mostly Cloudy"	"16"	"54"	"12.0"	"-11.1"	"0"	"0"	"-9999"	"-9999"	"46"	"mostlycloudy"	"METAR KBOS 212154Z 32019G28KT 10SM BKN095 M01/M11 A2991 RMK AO2 PK WND 32028/2145 SLP126 T10061111"	"-9999.00"	"-9999.00"	"29.91"	"1012.6"	"0"	"0"	"30.9"	"-0.6"	"0"	"0"	"10.0"	"16.1"	"320"	"NW"	"32.2"	"51.9"	"18.1"	"-7.7"	"21.9"	"35.2"	
"20130221"	"Mostly Cloudy"	"17"	"54"	"12.0"	"-11.1"	"0"	"0"	"-9999"	"-9999"	"47"	"mostlycloudy"	"METAR KBOS 212254Z 32013G22KT 10SM BKN100 M01/M11 A2995 RMK AO2 PK WND 31027/2228 SLP142 T10111111"	"-9999.00"	"-9999.00"	"29.95"	"1014.2"	"0"	"0"	"30.0"	"-1.1"	"0"	"0"	"10.0"	"16.1"	"320"	"NW"	"25.3"	"40.7"	"19.1"	"-7.2"	"15.0"	"24.1"	
"20130221"	"Mostly Cloudy"	"18"	"54"	"10.9"	"-11.7"	"0"	"0"	"-9999"	"-9999"	"49"	"mostlycloudy"	"METAR KBOS 212354Z 33019G27KT 10SM BKN050 M02/M12 A3001 RMK AO2 PK WND 32032/2309 SLP161 T10221117 10006 21022 53049"	"-9999.00"	"-9999.00"	"30.01"	"1016.1"	"0"	"0"	"28.0"	"-2.2"	"0"	"0"	"10.0"	"16.1"	"330"	"NNW"	"31.1"	"50.0"	"14.3"	"-9.9"	"21.9"	"35.2"	
"20130221"	"Partly Cloudy"	"19"	"54"	"12.0"	"-11.1"	"0"	"0"	"-9999"	"-9999"	"53"	"partlycloudy"	"METAR KBOS 220054Z 32016G24KT 10SM FEW060 M03/M11 A3004 RMK AO2 PK WND 31027/2355 SLP173 T10281111"	"-9999.00"	"-9999.00"	"30.04"	"1017.3"	"0"	"0"	"27.0"	"-2.8"	"0"	"0"	"10.0"	"16.1"	"320"	"NW"	"27.6"	"44.4"	"13.9"	"-10.1"	"18.4"	"29.6"	
"20130221"	"Partly Cloudy"	"20"	"54"	"12.9"	"-10.6"	"0"	"0"	"-9999"	"-9999"	"56"	"partlycloudy"	"METAR KBOS 220154Z 33017G22KT 10SM FEW060 M03/M11 A3008 RMK AO2 SLP185 T10281106"	"-9999.00"	"-9999.00"	"30.08"	"1018.5"	"0"	"0"	"27.0"	"-2.8"	"0"	"0"	"10.0"	"16.1"	"330"	"NNW"	"25.3"	"40.7"	"13.5"	"-10.3"	"19.6"	"31.5"	
"20130221"	"Partly Cloudy"	"21"	"54"	"12.9"	"-10.6"	"0"	"0"	"-9999"	"-9999"	"56"	"partlycloudy"	"METAR KBOS 220254Z 32015G20KT 10SM FEW060 M03/M11 A3010 RMK AO2 SLP193 T10281106 51031"	"-9999.00"	"-9999.00"	"30.10"	"1019.3"	"0"	"0"	"27.0"	"-2.8"	"0"	"0"	"10.0"	"16.1"	"320"	"NW"	"23.0"	"37.0"	"14.3"	"-9.8"	"17.3"	"27.8"	
"20130221"	"Clear"	"22"	"54"	"14.0"	"-10.0"	"0"	"0"	"-9999"	"-9999"	"58"	"clear"	"METAR KBOS 220354Z 32012KT 10SM CLR M03/M10 A3013 RMK AO2 PRESRR SLP202 T10281100"	"-9999.00"	"-9999.00"	"30.13"	"1020.2"	"0"	"0"	"27.0"	"-2.8"	"0"	"0"	"10.0"	"16.1"	"320"	"NW"	"-9999.0"	"-9999.0"	"15.6"	"-9.1"	"13.8"	"22.2"	
"20130221"	"Clear"	"23"	"54"	"14.0"	"-10.0"	"0"	"0"	"-9999"	"-9999"	"58"	"clear"	"METAR KBOS 220454Z 32011KT 10SM CLR M03/M10 A3017 RMK AO2 SLP216 T10281100 400061039"	"-9999.00"	"-9999.00"	"30.17"	"1021.6"	"0"	"0"	"27.0"	"-2.8"	"0"	"0"	"10.0"	"16.1"	"320"	"NW"	"-9999.0"	"-9999.0"	"16.1"	"-8.8"	"12.7"	"20.4"	
"20130220"	"Light Rain"	"00"	"54"	"37.9"	"3.3"	"0"	"0"	"-9999"	"-9999"	"82"	"rain"	"METAR KBOS 200554Z 26009G17KT 10SM -RA BKN015 BKN025 OVC036 06/03 A2956 RMK AO2 SLP009 P0001 60043 T00610033 10067 20039 58010"	"0.01"	"0.3"	"29.56"	"1000.9"	"1"	"0"	"43.0"	"6.1"	"0"	"0"	"10.0"	"16.1"	"260"	"West"	"19.6"	"31.5"	"37.2"	"2.9"	"10.4"	"16.7"	
"20130220"	"Overcast"	"01"	"54"	"36.0"	"2.2"	"0"	"0"	"-9999"	"-9999"	"82"	"cloudy"	"METAR KBOS 200654Z 26011KT 10SM FEW050 BKN075 OVC090 05/02 A2955 RMK AO2 RAE02 SLP007 P0000 T00500022"	"0.00"	"0.0"	"29.55"	"1000.7"	"0"	"0"	"41.0"	"5.0"	"0"	"0"	"10.0"	"16.1"	"260"	"West"	"-9999.0"	"-9999.0"	"33.9"	"1.0"	"12.7"	"20.4"	
"20130220"	"Mostly Cloudy"	"02"	"54"	"35.1"	"1.7"	"0"	"0"	"-9999"	"-9999"	"83"	"mostlycloudy"	"METAR KBOS 200754Z 27013KT 10SM FEW042 BKN050 04/02 A2954 RMK AO2 SLP004 T00440017"	"-9999.00"	"-9999.00"	"29.55"	"1000.4"	"0"	"0"	"39.9"	"4.4"	"0"	"0"	"10.0"	"16.1"	"270"	"West"	"-9999.0"	"-9999.0"	"31.8"	"-0.1"	"15.0"	"24.1"	
"20130220"	"Overcast"	"03"	"54"	"34.0"	"1.1"	"0"	"0"	"-9999"	"-9999"	"82"	"cloudy"	"METAR KBOS 200854Z 26010G20KT 10SM FEW015 SCT045 OVC055 04/01 A2954 RMK AO2 CIG 045 E SLP004 60000 T00390011 56005"	"-9999.00"	"-9999.00"	"29.55"	"1000.4"	"0"	"0"	"39.0"	"3.9"	"0"	"0"	"10.0"	"16.1"	"260"	"West"	"23.0"	"37.0"	"31.8"	"-0.1"	"11.5"	"18.5"	
"20130220"	"Overcast"	"04"	"10"	"33.8"	"1.0"	"0"	"0"	"-9999"	"-9999"	"81"	"cloudy"	"SPECI KBOS 200910Z 26015G21KT 10SM BKN015 OVC055 04/01 A2955 RMK AO2"	"-9999.00"	"-9999.00"	"29.55"	"1000.6"	"0"	"0"	"39.2"	"4.0"	"0"	"0"	"10.0"	"16.1"	"260"	"West"	"24.2"	"38.9"	"30.2"	"-1.0"	"17.3"	"27.8"	
"20130220"	"Mostly Cloudy"	"04"	"32"	"30.2"	"-1.0"	"0"	"0"	"-9999"	"-9999"	"75"	"mostlycloudy"	"SPECI KBOS 200932Z 28016G24KT 10SM SCT015 BKN065 03/M01 A2957 RMK AO2 PK WND 27026/0921 CIG 047 E"	"-9999.00"	"-9999.00"	"29.57"	"1001.2"	"0"	"0"	"37.4"	"3.0"	"0"	"0"	"10.0"	"16.1"	"280"	"West"	"27.6"	"44.4"	"27.5"	"-2.5"	"18.4"	"29.6"	
"20130220"	"Mostly Cloudy"	"04"	"54"	"28.9"	"-1.7"	"0"	"0"	"-9999"	"-9999"	"73"	"mostlycloudy"	"METAR KBOS 200954Z 28012KT 10SM FEW055 BKN070 03/M02 A2957 RMK AO2 PK WND 27026/0921 CIG 055 E SLP012 T00281017"	"-9999.00"	"-9999.00"	"29.57"	"1001.2"	"0"	"0"	"37.0"	"2.8"	"0"	"0"	"10.0"	"16.1"	"280"	"West"	"-9999.0"	"-9999.0"	"28.5"	"-2.0"	"13.8"	"22.2"	
"20130220"	"Partly Cloudy"	"05"	"54"	"26.1"	"-3.3"	"0"	"0"	"-9999"	"-9999"	"70"	"partlycloudy"	"METAR KBOS 201054Z COR 28016G20KT 10SM FEW070 02/M03 A2959 RMK AO2 PK WND 30030/1012 SLP019 T00171033"	"-9999.00"	"-9999.00"	"29.59"	"1001.9"	"0"	"0"	"35.1"	"1.7"	"0"	"0"	"10.0"	"16.1"	"280"	"West"	"23.0"	"37.0"	"24.5"	"-4.2"	"18.4"	"29.6"	
"20130220"	"Mostly Cloudy"	"06"	"54"	"21.9"	"-5.6"	"0"	"0"	"-9999"	"-9999"	"61"	"mostlycloudy"	"METAR KBOS 201154Z 27015G21KT 10SM BKN075 01/M06 A2962 RMK AO2 PK WND 27028/1116 SLP028 60000 70045 T00111056 10061 20011 53025"	"-9999.00"	"-9999.00"	"29.62"	"1002.8"	"0"	"0"	"34.0"	"1.1"	"0"	"0"	"10.0"	"16.1"	"270"	"West"	"24.2"	"38.9"	"23.4"	"-4.8"	"17.3"	"27.8"	
"20130220"	"Scattered Clouds"	"07"	"54"	"19.0"	"-7.2"	"0"	"0"	"-9999"	"-9999"	"59"	"partlycloudy"	"METAR KBOS 201254Z 28017G26KT 10SM SCT075 00/M07 A2964 RMK AO2 PK WND 27031/1229 SLP037 T00001072"	"-9999.00"	"-9999.00"	"29.64"	"1003.7"	"0"	"0"	"32.0"	"0.0"	"0"	"0"	"10.0"	"16.1"	"280"	"West"	"29.9"	"48.2"	"20.1"	"-6.6"	"19.6"	"31.5"	
"20130220"	"Partly Cloudy"	"08"	"54"	"18.0"	"-7.8"	"0"	"0"	"-9999"	"-9999"	"54"	"partlycloudy"	"METAR KBOS 201354Z 28015G24KT 10SM FEW075 01/M08 A2965 RMK AO2 PK WND 28030/1308 SLP039 T00061078"	"-9999.00"	"-9999.00"	"29.65"	"1003.9"	"0"	"0"	"33.1"	"0.6"	"0"	"0"	"10.0"	"16.1"	"280"	"West"	"27.6"	"44.4"	"22.2"	"-5.4"	"17.3"	"27.8"	
"20130220"	"Scattered Clouds"	"09"	"54"	"17.1"	"-8.3"	"0"	"0"	"-9999"	"-9999"	"52"	"partlycloudy"	"METAR KBOS 201454Z 27020G27KT 10SM SCT044 01/M08 A2966 RMK AO2 PK WND 26027/1447 SLP042 T00061083 51013"	"-9999.00"	"-9999.00"	"29.66"	"1004.2"	"0"	"0"	"33.1"	"0.6"	"0"	"0"	"10.0"	"16.1"	"270"	"West"	"31.1"	"50.0"	"20.6"	"-6.3"	"23.0"	"37.0"	
"20130220"	"Mostly Cloudy"	"10"	"54"	"15.1"	"-9.4"	"0"	"0"	"-9999"	"-9999"	"46"	"mostlycloudy"	"METAR KBOS 201554Z 29020G29KT 10SM BKN046 01/M09 A2966 RMK AO2 PK WND 30029/1554 SLP043 T00111094"	"-9999.00"	"-9999.00"	"29.66"	"1004.3"	"0"	"0"	"34.0"	"1.1"	"0"	"0"	"10.0"	"16.1"	"290"	"WNW"	"33.4"	"53.7"	"21.8"	"-5.7"	"23.0"	"37.0"	
"20130220"	"Mostly Cloudy"	"11"	"54"	"14.0"	"-10.0"	"0"	"0"	"-9999"	"-9999"	"46"	"mostlycloudy"	"METAR KBOS 201654Z 28021G29KT 10SM BKN048 01/M10 A2965 RMK AO2 PK WND 27030/1602 SLP041 T00061100"	"-9999.00"	"-9999.00"	"29.65"	"1004.1"	"0"	"0"	"33.1"	"0.6"	"0"	"0"	"10.0"	"16.1"	"280"	"West"	"33.4"	"53.7"	"20.3"	"-6.5"	"24.2"	"38.9"	
"20130220"	"Mostly Cloudy"	"12"	"54"	"14.0"	"-10.0"	"0"	"0"	"-9999"	"-9999"	"46"	"mostlycloudy"	"METAR KBOS 201754Z 28018G24KT 10SM BKN050 01/M10 A2964 RMK AO2 PK WND 29031/1725 SLP035 T00061100 10011 20000 58006"	"-9999.00"	"-9999.00"	"29.64"	"1003.5"	"0"	"0"	"33.1"	"0.6"	"0"	"0"	"10.0"	"16.1"	"280"	"West"	"27.6"	"44.4"	"21.2"	"-6.0"	"20.7"	"33.3"	
"20130220"	"Mostly Cloudy"	"13"	"54"	"12.0"	"-11.1"	"0"	"0"	"-9999"	"-9999"	"42"	"mostlycloudy"	"METAR KBOS 201854Z 28020G29KT 10SM BKN050 01/M11 A2964 RMK AO2 PK WND 25029/1848 SLP035 T00061111"	"-9999.00"	"-9999.00"	"29.64"	"1003.5"	"0"	"0"	"33.1"	"0.6"	"0"	"0"	"10.0"	"16.1"	"280"	"West"	"33.4"	"53.7"	"20.6"	"-6.3"	"23.0"	"37.0"	
"20130220"	"Mostly Cloudy"	"14"	"54"	"10.9"	"-11.7"	"0"	"0"	"-9999"	"-9999"	"40"	"mostlycloudy"	"METAR KBOS 201954Z 29018G27KT 10SM BKN055 01/M12 A2965 RMK AO2 PK WND 27028/1905 SLP039 T00061117"	"-9999.00"	"-9999.00"	"29.65"	"1003.9"	"0"	"0"	"33.1"	"0.6"	"0"	"0"	"10.0"	"16.1"	"290"	"WNW"	"31.1"	"50.0"	"21.2"	"-6.0"	"20.7"	"33.3"	
"20130220"	"Partly Cloudy"	"15"	"54"	"10.0"	"-12.2"	"0"	"0"	"-9999"	"-9999"	"38"	"partlycloudy"	"METAR KBOS 202054Z 27016G26KT 10SM FEW060 01/M12 A2965 RMK AO2 PK WND 29028/2035 SLP041 T00061122 53005"	"-9999.00"	"-9999.00"	"29.65"	"1004.1"	"0"	"0"	"33.1"	"0.6"	"0"	"0"	"10.0"	"16.1"	"270"	"West"	"29.9"	"48.2"	"21.9"	"-5.6"	"18.4"	"29.6"	
"20130220"	"Scattered Clouds"	"16"	"54"	"9.0"	"-12.8"	"0"	"0"	"-9999"	"-9999"	"38"	"partlycloudy"	"METAR KBOS 202154Z 29016G29KT 10SM FEW060 SCT090 00/M13 A2967 RMK AO2 PK WND 27032/2140 SLP046 T00001128"	"-9999.00"	"-9999.00"	"29.67"	"1004.6"	"0"	"0"	"32.0"	"0.0"	"0"	"0"	"10.0"	"16.1"	"290"	"WNW"	"33.4"	"53.7"	"20.5"	"-6.4"	"18.4"	"29.6"	
"20130220"	"Partly Cloudy"	"17"	"54"	"9.0"	"-12.8"	"0"	"0"	"-9999"	"-9999"	"41"	"partlycloudy"	"METAR KBOS 202254Z 28019G27KT 10SM FEW060 M01/M13 A2969 RMK AO2 PK WND 27031/2232 SLP054 T10111128"	"-9999.00"	"-9999.00"	"29.69"	"1005.4"	"0"	"0"	"30.0"	"-1.1"	"0"	"0"	"10.0"	"16.1"	"280"	"West"	"31.1"	"50.0"	"16.9"	"-8.4"	"21.9"	"35.2"	
"20130220"	"Partly Cloudy"	"18"	"54"	"9.0"	"-12.8"	"0"	"0"	"-9999"	"-9999"	"43"	"partlycloudy"	"METAR KBOS 202354Z 29017G27KT 10SM FEW110 M02/M13 A2971 RMK AO2 PK WND 27032/2343 SLP060 T10171128 10011 21017 53019"	"-9999.00"	"-9999.00"	"29.71"	"1006.0"	"0"	"0"	"28.9"	"-1.7"	"0"	"0"	"10.0"	"16.1"	"290"	"WNW"	"31.1"	"50.0"	"16.1"	"-8.8"	"19.6"	"31.5"	
"20130220"	"Mostly Cloudy"	"19"	"54"	"10.0"	"-12.2"	"0"	"0"	"-9999"	"-9999"	"45"	"mostlycloudy"	"METAR KBOS 210054Z 28016G26KT 10SM BKN090 M02/M12 A2972 RMK AO2 PK WND 28029/0009 SLP065 T10171122"	"-9999.00"	"-9999.00"	"29.73"	"1006.5"	"0"	"0"	"28.9"	"-1.7"	"0"	"0"	"10.0"	"16.1"	"280"	"West"	"29.9"	"48.2"	"16.5"	"-8.6"	"18.4"	"29.6"	
"20130220"	"Overcast"	"20"	"54"	"10.9"	"-11.7"	"0"	"0"	"-9999"	"-9999"	"47"	"cloudy"	"METAR KBOS 210154Z 28015G22KT 10SM OVC065 M02/M12 A2974 RMK AO2 SLP069 T10171117"	"-9999.00"	"-9999.00"	"29.74"	"1006.9"	"0"	"0"	"28.9"	"-1.7"	"0"	"0"	"10.0"	"16.1"	"280"	"West"	"25.3"	"40.7"	"16.9"	"-8.4"	"17.3"	"27.8"	
"20130220"	"Partly Cloudy"	"21"	"54"	"10.9"	"-11.7"	"0"	"0"	"-9999"	"-9999"	"49"	"partlycloudy"	"METAR KBOS 210254Z COR 26009KT 10SM FEW070 M02/M12 A2975 RMK AO2 PK WND 28026/0217 SLP073 T10221117 52013"	"-9999.00"	"-9999.00"	"29.75"	"1007.3"	"0"	"0"	"28.0"	"-2.2"	"0"	"0"	"10.0"	"16.1"	"260"	"West"	"-9999.0"	"-9999.0"	"18.6"	"-7.4"	"10.4"	"16.7"	
"20130220"	"Mostly Cloudy"	"22"	"54"	"12.0"	"-11.1"	"0"	"0"	"-9999"	"-9999"	"53"	"mostlycloudy"	"METAR KBOS 210354Z 28015G21KT 10SM FEW070 BKN130 M03/M11 A2977 RMK AO2 SLP081 T10281111"	"-9999.00"	"-9999.00"	"29.77"	"1008.1"	"0"	"0"	"27.0"	"-2.8"	"0"	"0"	"10.0"	"16.1"	"280"	"West"	"24.2"	"38.9"	"14.3"	"-9.8"	"17.3"	"27.8"	
"20130220"	"Mostly Cloudy"	"23"	"54"	"12.9"	"-10.6"	"0"	"0"	"-9999"	"-9999"	"53"	"mostlycloudy"	"METAR KBOS 210454Z 28015G24KT 10SM FEW080 BKN150 M02/M11 A2978 RMK AO2 PK WND 28027/0431 SLP082 T10221106 400611028"	"-9999.00"	"-9999.00"	"29.78"	"1008.2"	"0"	"0"	"28.0"	"-2.2"	"0"	"0"	"10.0"	"16.1"	"280"	"West"	"27.6"	"44.4"	"15.7"	"-9.1"	"17.3"	"27.8"	
"20130219"	"Clear"	"00"	"54"	"1.9"	"-16.7"	"0"	"0"	"-9999"	"-9999"	"35"	"clear"	"METAR KBOS 190554Z 27013KT 10SM CLR M03/M17 A3016 RMK AO2 SLP212 T10331167 11017 21033 51009"	"-9999.00"	"-9999.00"	"30.16"	"1021.2"	"0"	"0"	"26.1"	"-3.3"	"0"	"0"	"10.0"	"16.1"	"270"	"West"	"-9999.0"	"-9999.0"	"14.0"	"-10.0"	"15.0"	"24.1"	
"20130219"	"Clear"	"01"	"54"	"1.0"	"-17.2"	"0"	"0"	"-9999"	"-9999"	"33"	"clear"	"METAR KBOS 190654Z 26014KT 10SM CLR M03/M17 A3016 RMK AO2 SLP213 T10281172"	"-9999.00"	"-9999.00"	"30.16"	"1021.3"	"0"	"0"	"27.0"	"-2.8"	"0"	"0"	"10.0"	"16.1"	"260"	"West"	"-9999.0"	"-9999.0"	"14.7"	"-9.6"	"16.1"	"25.9"	
"20130219"	"Clear"	"02"	"54"	"3.9"	"-15.6"	"0"	"0"	"-9999"	"-9999"	"36"	"clear"	"METAR KBOS 190754Z 27009KT 10SM CLR M02/M16 A3016 RMK AO2 SLP212 T10221156"	"-9999.00"	"-9999.00"	"30.16"	"1021.2"	"0"	"0"	"28.0"	"-2.2"	"0"	"0"	"10.0"	"16.1"	"270"	"West"	"-9999.0"	"-9999.0"	"18.6"	"-7.4"	"10.4"	"16.7"	
"20130219"	"Partly Cloudy"	"03"	"54"	"5.0"	"-15.0"	"0"	"0"	"-9999"	"-9999"	"39"	"partlycloudy"	"METAR KBOS 190854Z 28008KT 10SM FEW075 M03/M15 A3015 RMK AO2 SLP208 T10281150 58004"	"-9999.00"	"-9999.00"	"30.15"	"1020.8"	"0"	"0"	"27.0"	"-2.8"	"0"	"0"	"10.0"	"16.1"	"280"	"West"	"-9999.0"	"-9999.0"	"18.0"	"-7.8"	"9.2"	"14.8"	
"20130219"	"Mostly Cloudy"	"04"	"54"	"7.0"	"-13.9"	"0"	"0"	"-9999"	"-9999"	"43"	"mostlycloudy"	"METAR KBOS 190954Z 27004KT 10SM BKN055 M03/M14 A3014 RMK AO2 SLP204 T10281139"	"-9999.00"	"-9999.00"	"30.14"	"1020.4"	"0"	"0"	"27.0"	"-2.8"	"0"	"0"	"10.0"	"16.1"	"270"	"West"	"-9999.0"	"-9999.0"	"21.6"	"-5.8"	"4.6"	"7.4"	
"20130219"	"Overcast"	"05"	"54"	"9.0"	"-12.8"	"0"	"0"	"-9999"	"-9999"	"47"	"cloudy"	"METAR KBOS 191054Z 23007KT 10SM OVC048 M03/M13 A3014 RMK AO2 SLP205 T10281128"	"-9999.00"	"-9999.00"	"30.14"	"1020.5"	"0"	"0"	"27.0"	"-2.8"	"0"	"0"	"10.0"	"16.1"	"230"	"SW"	"-9999.0"	"-9999.0"	"18.7"	"-7.4"	"8.1"	"13.0"	
"20130219"	"Mostly Cloudy"	"06"	"54"	"10.0"	"-12.2"	"0"	"0"	"-9999"	"-9999"	"45"	"mostlycloudy"	"METAR KBOS 191154Z 23007KT 10SM BKN050 M02/M12 A3012 RMK AO2 SLP200 T10171122 11017 21033 58008"	"-9999.00"	"-9999.00"	"30.12"	"1020.0"	"0"	"0"	"28.9"	"-1.7"	"0"	"0"	"10.0"	"16.1"	"230"	"SW"	"-9999.0"	"-9999.0"	"21.1"	"-6.1"	"8.1"	"13.0"	
"20130219"	"Scattered Clouds"	"07"	"54"	"12.9"	"-10.6"	"0"	"0"	"-9999"	"-9999"	"49"	"partlycloudy"	"METAR KBOS 191254Z 23009KT 10SM FEW070 SCT250 M01/M11 A3011 RMK AO2 SLP195 T10111106"	"-9999.00"	"-9999.00"	"30.11"	"1019.5"	"0"	"0"	"30.0"	"-1.1"	"0"	"0"	"10.0"	"16.1"	"230"	"SW"	"-9999.0"	"-9999.0"	"21.1"	"-6.1"	"10.4"	"16.7"	
"20130219"	"Partly Cloudy"	"08"	"54"	"15.1"	"-9.4"	"0"	"0"	"-9999"	"-9999"	"48"	"partlycloudy"	"METAR KBOS 191354Z 22008KT 10SM FEW250 01/M09 A3011 RMK AO2 SLP194 T00061094"	"-9999.00"	"-9999.00"	"30.11"	"1019.4"	"0"	"0"	"33.1"	"0.6"	"0"	"0"	"10.0"	"16.1"	"220"	"SW"	"-9999.0"	"-9999.0"	"25.5"	"-3.6"	"9.2"	"14.8"	
"20130219"	"Partly Cloudy"	"09"	"54"	"19.9"	"-6.7"	"0"	"0"	"-9999"	"-9999"	"52"	"partlycloudy"	"METAR KBOS 191454Z 21008KT 10SM FEW250 02/M07 A3009 RMK AO2 SLP189 T00221067 56011"	"-9999.00"	"-9999.00"	"30.09"	"1018.9"	"0"	"0"	"36.0"	"2.2"	"0"	"0"	"10.0"	"16.1"	"210"	"SSW"	"-9999.0"	"-9999.0"	"29.0"	"-1.6"	"9.2"	"14.8"	
"20130219"	"Mostly Cloudy"	"10"	"54"	"25.0"	"-3.9"	"0"	"0"	"-9999"	"-9999"	"55"	"mostlycloudy"	"METAR KBOS 191554Z 19009G15KT 10SM BKN200 04/M04 A3006 RMK AO2 SLP180 T00441039"	"-9999.00"	"-9999.00"	"30.06"	"1018.0"	"0"	"0"	"39.9"	"4.4"	"0"	"0"	"10.0"	"16.1"	"190"	"South"	"17.3"	"27.8"	"33.4"	"0.8"	"10.4"	"16.7"	
"20130219"	"Overcast"	"11"	"54"	"27.0"	"-2.8"	"0"	"0"	"-9999"	"-9999"	"55"	"cloudy"	"METAR KBOS 191654Z 18008KT 10SM BKN200 OVC250 06/M03 A3003 RMK AO2 PRESFR SLP168 T00561028"	"-9999.00"	"-9999.00"	"30.03"	"1016.8"	"0"	"0"	"42.1"	"5.6"	"0"	"0"	"10.0"	"16.1"	"180"	"South"	"-9999.0"	"-9999.0"	"36.6"	"2.5"	"9.2"	"14.8"	
"20130219"	"Overcast"	"13"	"54"	"28.9"	"-1.7"	"0"	"0"	"-9999"	"-9999"	"55"	"cloudy"	"METAR KBOS 191854Z COR 20010KT 10SM FEW045 SCT160 OVC200 07/M02 A2995 RMK AO2 SLP141 T00671017"	"-9999.00"	"-9999.00"	"29.95"	"1014.1"	"0"	"0"	"44.1"	"6.7"	"0"	"0"	"10.0"	"16.1"	"200"	"SSW"	"-9999.0"	"-9999.0"	"38.1"	"3.4"	"11.5"	"18.5"	
"20130219"	"Overcast"	"14"	"54"	"28.9"	"-1.7"	"0"	"0"	"-9999"	"-9999"	"55"	"cloudy"	"METAR KBOS 191954Z 19010KT 10SM FEW045 SCT160 OVC200 07/M02 A2992 RMK AO2 SLP129 T00671017"	"-9999.00"	"-9999.00"	"29.91"	"1012.9"	"0"	"0"	"44.1"	"6.7"	"0"	"0"	"10.0"	"16.1"	"190"	"South"	"-9999.0"	"-9999.0"	"38.1"	"3.4"	"11.5"	"18.5"	
"20130219"	"Overcast"	"15"	"54"	"32.0"	"0.0"	"0"	"0"	"-9999"	"-9999"	"63"	"cloudy"	"METAR KBOS 192054Z 18012KT 10SM FEW045 SCT160 OVC200 07/00 A2988 RMK AO2 SLP116 T00670000 58037"	"-9999.00"	"-9999.00"	"29.88"	"1011.6"	"0"	"0"	"44.1"	"6.7"	"0"	"0"	"10.0"	"16.1"	"180"	"South"	"-9999.0"	"-9999.0"	"37.4"	"3.0"	"13.8"	"22.2"	
"20130219"	"Light Rain"	"16"	"54"	"34.0"	"1.1"	"0"	"0"	"-9999"	"-9999"	"71"	"rain"	"METAR KBOS 192154Z 18011KT 10SM -RA SCT037 BKN047 BKN065 OVC130 06/01 A2985 RMK AO2 RAB18 SLP107 P0001 T00610011"	"0.01"	"0.3"	"29.85"	"1010.7"	"1"	"0"	"43.0"	"6.1"	"0"	"0"	"10.0"	"16.1"	"180"	"South"	"-9999.0"	"-9999.0"	"36.4"	"2.4"	"12.7"	"20.4"	
"20130219"	"Light Rain"	"17"	"54"	"35.1"	"1.7"	"0"	"0"	"-9999"	"-9999"	"83"	"rain"	"METAR KBOS 192254Z 14010KT 10SM -RA BKN043 OVC130 04/02 A2981 RMK AO2 SLP093 P0000 T00440017"	"0.00"	"0.0"	"29.81"	"1009.3"	"1"	"0"	"39.9"	"4.4"	"0"	"0"	"10.0"	"16.1"	"140"	"SE"	"-9999.0"	"-9999.0"	"32.9"	"0.5"	"11.5"	"18.5"	
"20130219"	"Light Rain"	"19"	"26"	"37.4"	"3.0"	"0"	"0"	"-9999"	"-9999"	"93"	"rain"	"SPECI KBOS 200026Z 18006KT 5SM -RA BR FEW010 BKN017 OVC025 04/03 A2975 RMK AO2 P0007"	"0.07"	"1.8"	"29.75"	"1007.3"	"1"	"0"	"39.2"	"4.0"	"0"	"0"	"5.0"	"8.0"	"180"	"South"	"-9999.0"	"-9999.0"	"34.2"	"1.2"	"6.9"	"11.1"	
"20130219"	"Light Rain"	"19"	"44"	"37.4"	"3.0"	"0"	"0"	"-9999"	"-9999"	"93"	"rain"	"SPECI KBOS 200044Z 13006KT 5SM -RA BR SCT017 SCT028 OVC047 04/03 A2973 RMK AO2 P0009"	"0.09"	"2.3"	"29.73"	"1006.7"	"1"	"0"	"39.2"	"4.0"	"0"	"0"	"5.0"	"8.0"	"130"	"SE"	"-9999.0"	"-9999.0"	"34.2"	"1.2"	"6.9"	"11.1"	
"20130219"	"Rain"	"19"	"54"	"37.0"	"2.8"	"0"	"0"	"-9999"	"-9999"	"89"	"rain"	"METAR KBOS 200054Z 13006KT 3SM RA BR FEW016 SCT040 OVC045 04/03 A2972 RMK AO2 SLP065 P0011 T00440028"	"0.11"	"2.8"	"29.73"	"1006.5"	"1"	"0"	"39.9"	"4.4"	"0"	"0"	"3.0"	"4.8"	"130"	"SE"	"-9999.0"	"-9999.0"	"35.1"	"1.7"	"6.9"	"11.1"	
"20130219"	"Light Rain"	"20"	"54"	"37.9"	"3.3"	"0"	"0"	"-9999"	"-9999"	"93"	"rain"	"METAR KBOS 200154Z 14012KT 7SM -RA FEW017 SCT038 OVC049 04/03 A2965 RMK AO2 PRESFR SLP040 P0009 T00440033"	"0.09"	"2.3"	"29.65"	"1004.0"	"1"	"0"	"39.9"	"4.4"	"0"	"0"	"7.0"	"11.3"	"140"	"SE"	"-9999.0"	"-9999.0"	"32.1"	"0.1"	"13.8"	"22.2"	
"20130219"	"Rain"	"21"	"27"	"39.2"	"4.0"	"0"	"0"	"-9999"	"-9999"	"93"	"rain"	"SPECI KBOS 200227Z 19007KT 4SM RA BR SCT012 BKN024 OVC045 05/04 A2964 RMK AO2 P0002"	"0.02"	"0.5"	"29.64"	"1003.6"	"1"	"0"	"41.0"	"5.0"	"0"	"0"	"4.0"	"6.4"	"190"	"South"	"-9999.0"	"-9999.0"	"35.8"	"2.1"	"8.1"	"13.0"	
"20130219"	"Heavy Rain"	"21"	"33"	"39.2"	"4.0"	"0"	"0"	"-9999"	"-9999"	"93"	"rain"	"SPECI KBOS 200233Z 20008KT 3SM +RA BR BKN012 BKN022 OVC045 05/04 A2964 RMK AO2 P0004"	"0.04"	"1.0"	"29.64"	"1003.6"	"1"	"0"	"41.0"	"5.0"	"0"	"0"	"3.0"	"4.8"	"200"	"SSW"	"-9999.0"	"-9999.0"	"35.2"	"1.8"	"9.2"	"14.8"	
"20130219"	"Heavy Rain"	"21"	"39"	"39.2"	"4.0"	"0"	"0"	"-9999"	"-9999"	"93"	"rain"	"SPECI KBOS 200239Z 21006KT 2SM +RA BR SCT008 BKN013 OVC045 05/04 A2964 RMK AO2 P0007"	"0.07"	"1.8"	"29.64"	"1003.6"	"1"	"0"	"41.0"	"5.0"	"0"	"0"	"2.0"	"3.2"	"210"	"SSW"	"-9999.0"	"-9999.0"	"36.4"	"2.5"	"6.9"	"11.1"	
"20130219"	"Rain"	"21"	"52"	"39.2"	"4.0"	"0"	"0"	"-9999"	"-9999"	"87"	"rain"	"SPECI KBOS 200252Z 21006KT 3SM RA BR BKN008 BKN013 OVC021 06/04 A2962 RMK AO2 P0014"	"0.14"	"3.6"	"29.62"	"1002.9"	"1"	"0"	"42.8"	"6.0"	"0"	"0"	"3.0"	"4.8"	"210"	"SSW"	"-9999.0"	"-9999.0"	"38.6"	"3.7"	"6.9"	"11.1"	
"20130219"	"Rain"	"21"	"54"	"41.0"	"5.0"	"0"	"0"	"-9999"	"-9999"	"96"	"rain"	"METAR KBOS 200254Z 20006KT 4SM RA BR BKN008 BKN013 OVC021 06/05 A2962 RMK AO2 SLP031 P0015 60035 T00560050 56048"	"0.15"	"3.8"	"29.62"	"1003.1"	"1"	"0"	"42.1"	"5.6"	"0"	"0"	"4.0"	"6.4"	"200"	"SSW"	"-9999.0"	"-9999.0"	"37.7"	"3.2"	"6.9"	"11.1"	
"20130219"	"Light Rain"	"22"	"42"	"41.0"	"5.0"	"0"	"0"	"-9999"	"-9999"	"93"	"rain"	"SPECI KBOS 200342Z 23004KT 6SM -RA BR SCT015 OVC040 06/05 A2960 RMK AO2 P0005"	"0.05"	"1.3"	"29.60"	"1002.3"	"1"	"0"	"42.8"	"6.0"	"0"	"0"	"6.0"	"9.7"	"230"	"SW"	"-9999.0"	"-9999.0"	"40.1"	"4.5"	"4.6"	"7.4"	
"20130219"	"Light Rain"	"22"	"54"	"42.1"	"5.6"	"0"	"0"	"-9999"	"-9999"	"93"	"rain"	"METAR KBOS 200354Z 23004KT 7SM -RA SCT015 OVC040 07/06 A2959 RMK AO2 SLP019 P0006 T00670056"	"0.06"	"1.5"	"29.59"	"1001.9"	"1"	"0"	"44.1"	"6.7"	"0"	"0"	"7.0"	"11.3"	"230"	"SW"	"-9999.0"	"-9999.0"	"41.5"	"5.3"	"4.6"	"7.4"	
"20130219"	"Light Rain"	"23"	"19"	"41.0"	"5.0"	"0"	"0"	"-9999"	"-9999"	"100"	"rain"	"SPECI KBOS 200419Z 21006KT 1 3/4SM -RA BR SCT065 OVC090 05/05 A2959 RMK AO2 VIS 3/4 E CIG 070 E P0001"	"0.01"	"0.3"	"29.59"	"1001.9"	"1"	"0"	"41.0"	"5.0"	"0"	"0"	"1.8"	"2.8"	"210"	"SSW"	"-9999.0"	"-9999.0"	"36.4"	"2.5"	"6.9"	"11.1"	
"20130219"	"Light Rain"	"23"	"33"	"39.2"	"4.0"	"0"	"0"	"-9999"	"-9999"	"93"	"rain"	"SPECI KBOS 200433Z 22006KT 3SM -RA BR FEW019 BKN037 OVC100 05/04 A2960 RMK AO2 VIS 1/2 E P0001"	"0.01"	"0.3"	"29.60"	"1002.3"	"1"	"0"	"41.0"	"5.0"	"0"	"0"	"3.0"	"4.8"	"220"	"SW"	"-9999.0"	"-9999.0"	"36.4"	"2.5"	"6.9"	"11.1"	
"20130219"	"Light Rain"	"23"	"49"	"41.0"	"5.0"	"0"	"0"	"-9999"	"-9999"	"93"	"rain"	"SPECI KBOS 200449Z 25006KT 5SM -RA BR BKN015 BKN023 OVC100 06/05 A2958 RMK AO2 VIS 1/2 E P0001 400721033"	"0.01"	"0.3"	"29.58"	"1001.6"	"1"	"0"	"42.8"	"6.0"	"0"	"0"	"5.0"	"8.0"	"250"	"WSW"	"-9999.0"	"-9999.0"	"38.6"	"3.7"	"6.9"	"11.1"	
"20130219"	"Light Rain"	"23"	"54"	"41.0"	"5.0"	"0"	"0"	"-9999"	"-9999"	"96"	"rain"	"METAR KBOS 200454Z 23007KT 8SM -RA BKN015 BKN023 OVC100 06/05 A2958 RMK AO2 VIS 1 E SLP017 P0001 T00560050 400721033"	"0.01"	"0.3"	"29.58"	"1001.7"	"1"	"0"	"42.1"	"5.6"	"0"	"0"	"8.0"	"12.9"	"230"	"SW"	"-9999.0"	"-9999.0"	"37.1"	"2.8"	"8.1"	"13.0"	
"20130218"	"Overcast"	"00"	"54"	"-0.0"	"-17.8"	"0"	"0"	"-9999"	"-9999"	"47"	"cloudy"	"METAR KBOS 180554Z 29020G31KT 10SM OVC110 M08/M18 A2968 RMK AO2 PK WND 29031/0546 SLP049 T10831178 11050 21083 51020"	"-9999.00"	"-9999.00"	"29.68"	"1004.9"	"0"	"0"	"17.1"	"-8.3"	"0"	"0"	"10.0"	"16.1"	"290"	"WNW"	"35.7"	"57.4"	"-0.6"	"-18.1"	"23.0"	"37.0"	
"20130218"	"Overcast"	"01"	"54"	"-0.9"	"-18.3"	"0"	"0"	"-9999"	"-9999"	"45"	"cloudy"	"METAR KBOS 180654Z 29022G33KT 10SM SCT110 OVC150 M08/M18 A2970 RMK AO2 PK WND 29035/0637 SLP056 T10831183"	"-9999.00"	"-9999.00"	"29.70"	"1005.6"	"0"	"0"	"17.1"	"-8.3"	"0"	"0"	"10.0"	"16.1"	"290"	"WNW"	"38.0"	"61.1"	"-1.4"	"-18.5"	"25.3"	"40.7"	
"20130218"	"Overcast"	"02"	"54"	"-0.9"	"-18.3"	"0"	"0"	"-9999"	"-9999"	"45"	"cloudy"	"METAR KBOS 180754Z 29021G29KT 10SM OVC100 M08/M18 A2973 RMK AO2 PK WND 30034/0713 SLP065 T10831183"	"-9999.00"	"-9999.00"	"29.73"	"1006.5"	"0"	"0"	"17.1"	"-8.3"	"0"	"0"	"10.0"	"16.1"	"290"	"WNW"	"33.4"	"53.7"	"-1.0"	"-18.3"	"24.2"	"38.9"	
"20130218"	"Mostly Cloudy"	"03"	"54"	"-0.9"	"-18.3"	"0"	"0"	"-9999"	"-9999"	"47"	"mostlycloudy"	"METAR KBOS 180854Z 30018G27KT 10SM BKN150 M09/M18 A2977 RMK AO2 PK WND 29037/0812 SLP078 T10891183 53029"	"-9999.00"	"-9999.00"	"29.76"	"1007.8"	"0"	"0"	"16.0"	"-8.9"	"0"	"0"	"10.0"	"16.1"	"300"	"WNW"	"31.1"	"50.0"	"-1.3"	"-18.5"	"20.7"	"33.3"	
"20130218"	"Mostly Cloudy"	"04"	"54"	"-0.0"	"-17.8"	"0"	"0"	"-9999"	"-9999"	"49"	"mostlycloudy"	"METAR KBOS 180954Z 29017G24KT 10SM FEW150 BKN250 M09/M18 A2980 RMK AO2 PK WND 29031/0901 SLP092 T10891178"	"-9999.00"	"-9999.00"	"29.81"	"1009.2"	"0"	"0"	"16.0"	"-8.9"	"0"	"0"	"10.0"	"16.1"	"290"	"WNW"	"27.6"	"44.4"	"-0.9"	"-18.3"	"19.6"	"31.5"	
"20130218"	"Scattered Clouds"	"05"	"54"	"-0.0"	"-17.8"	"0"	"0"	"-9999"	"-9999"	"49"	"partlycloudy"	"METAR KBOS 181054Z 29020G29KT 10SM FEW120 SCT220 SCT250 M09/M18 A2984 RMK AO2 PK WND 29031/1035 SLP103 T10891178"	"-9999.00"	"-9999.00"	"29.84"	"1010.3"	"0"	"0"	"16.0"	"-8.9"	"0"	"0"	"10.0"	"16.1"	"290"	"WNW"	"33.4"	"53.7"	"-2.1"	"-18.9"	"23.0"	"37.0"	
"20130218"	"Partly Cloudy"	"06"	"54"	"-0.9"	"-18.3"	"0"	"0"	"-9999"	"-9999"	"47"	"partlycloudy"	"METAR KBOS 181154Z 29017G28KT 10SM FEW250 M09/M18 A2988 RMK AO2 PK WND 28032/1102 SLP116 70002 T10891183 11083 21089 53038"	"-9999.00"	"-9999.00"	"29.88"	"1011.6"	"0"	"0"	"16.0"	"-8.9"	"0"	"0"	"10.0"	"16.1"	"290"	"WNW"	"32.2"	"51.9"	"-0.9"	"-18.3"	"19.6"	"31.5"	
"20130218"	"Partly Cloudy"	"07"	"54"	"-0.0"	"-17.8"	"0"	"0"	"-9999"	"-9999"	"47"	"partlycloudy"	"METAR KBOS 181254Z 29021G30KT 10SM FEW250 M08/M18 A2991 RMK AO2 PK WND 29030/1254 SLP126 T10831178"	"-9999.00"	"-9999.00"	"29.91"	"1012.6"	"0"	"0"	"17.1"	"-8.3"	"0"	"0"	"10.0"	"16.1"	"290"	"WNW"	"34.5"	"55.6"	"-1.0"	"-18.3"	"24.2"	"38.9"	
"20130218"	"Partly Cloudy"	"08"	"54"	"-0.0"	"-17.8"	"0"	"0"	"-9999"	"-9999"	"43"	"partlycloudy"	"METAR KBOS 181354Z 30020G35KT 10SM FEW250 M07/M18 A2993 RMK AO2 PK WND 28035/1349 SLP134 T10721178"	"-9999.00"	"-9999.00"	"29.93"	"1013.4"	"0"	"0"	"19.0"	"-7.2"	"0"	"0"	"10.0"	"16.1"	"300"	"WNW"	"40.3"	"64.8"	"2.0"	"-16.7"	"23.0"	"37.0"	
"20130218"	"Partly Cloudy"	"09"	"54"	"1.0"	"-17.2"	"0"	"0"	"-9999"	"-9999"	"39"	"partlycloudy"	"METAR KBOS 181454Z 29023G33KT 10SM FEW250 M05/M17 A2994 RMK AO2 PK WND 29035/1439 SLP138 T10501172 51021"	"-9999.00"	"-9999.00"	"29.94"	"1013.8"	"0"	"0"	"23.0"	"-5.0"	"0"	"0"	"10.0"	"16.1"	"290"	"WNW"	"38.0"	"61.1"	"6.3"	"-14.3"	"26.5"	"42.6"	
"20130218"	"Clear"	"10"	"54"	"-2.0"	"-18.9"	"0"	"0"	"-9999"	"-9999"	"30"	"clear"	"METAR KBOS 181554Z 30020G31KT 10SM CLR M03/M19 A2995 RMK AO2 PK WND 28037/1459 SLP142 T10331189"	"-9999.00"	"-9999.00"	"29.95"	"1014.2"	"0"	"0"	"26.1"	"-3.3"	"0"	"0"	"10.0"	"16.1"	"300"	"WNW"	"35.7"	"57.4"	"11.3"	"-11.5"	"23.0"	"37.0"	
"20130218"	"Clear"	"11"	"54"	"1.0"	"-17.2"	"0"	"0"	"-9999"	"-9999"	"30"	"clear"	"METAR KBOS 181654Z 28019G29KT 10SM CLR M02/M17 A2996 RMK AO2 PK WND 31034/1630 SLP145 T10171172"	"-9999.00"	"-9999.00"	"29.96"	"1014.5"	"0"	"0"	"28.9"	"-1.7"	"0"	"0"	"10.0"	"16.1"	"280"	"West"	"33.4"	"53.7"	"15.4"	"-9.2"	"21.9"	"35.2"	
"20130218"	"Clear"	"12"	"54"	"-0.9"	"-18.3"	"0"	"0"	"-9999"	"-9999"	"26"	"clear"	"METAR KBOS 181754Z 30019G35KT 10SM CLR M01/M18 A2997 RMK AO2 PK WND 30035/1745 SLP148 T10061183 11006 21089 51010"	"-9999.00"	"-9999.00"	"29.97"	"1014.8"	"0"	"0"	"30.9"	"-0.6"	"0"	"0"	"10.0"	"16.1"	"300"	"WNW"	"40.3"	"64.8"	"18.1"	"-7.7"	"21.9"	"35.2"	
"20130218"	"Clear"	"13"	"54"	"-0.0"	"-17.8"	"0"	"0"	"-9999"	"-9999"	"27"	"clear"	"METAR KBOS 181854Z 28020G26KT 10SM CLR M01/M18 A2998 RMK AO2 PK WND 31031/1817 SLP153 T10061178"	"-9999.00"	"-9999.00"	"29.99"	"1015.3"	"0"	"0"	"30.9"	"-0.6"	"0"	"0"	"10.0"	"16.1"	"280"	"West"	"29.9"	"48.2"	"17.8"	"-7.9"	"23.0"	"37.0"	
"20130218"	"Clear"	"14"	"54"	"-2.0"	"-18.9"	"0"	"0"	"-9999"	"-9999"	"24"	"clear"	"METAR KBOS 181954Z 30019G28KT 10SM CLR M01/M19 A3000 RMK AO2 PK WND 27031/1855 SLP159 T10061189"	"-9999.00"	"-9999.00"	"30.00"	"1015.9"	"0"	"0"	"30.9"	"-0.6"	"0"	"0"	"10.0"	"16.1"	"300"	"WNW"	"32.2"	"51.9"	"18.1"	"-7.7"	"21.9"	"35.2"	
"20130218"	"Clear"	"15"	"54"	"-2.0"	"-18.9"	"0"	"0"	"-9999"	"-9999"	"24"	"clear"	"METAR KBOS 182054Z 29012KT 10SM CLR M01/M19 A3003 RMK AO2 PK WND 29026/2037 SLP168 T10061189 53020"	"-9999.00"	"-9999.00"	"30.03"	"1016.8"	"0"	"0"	"30.9"	"-0.6"	"0"	"0"	"10.0"	"16.1"	"290"	"WNW"	"-9999.0"	"-9999.0"	"20.7"	"-6.3"	"13.8"	"22.2"	
"20130218"	"Partly Cloudy"	"16"	"54"	"-2.9"	"-19.4"	"0"	"0"	"-9999"	"-9999"	"23"	"partlycloudy"	"METAR KBOS 182154Z 29016G23KT 10SM FEW050 M01/M19 A3005 RMK AO2 SLP175 T10061194"	"-9999.00"	"-9999.00"	"30.05"	"1017.5"	"0"	"0"	"30.9"	"-0.6"	"0"	"0"	"10.0"	"16.1"	"290"	"WNW"	"26.5"	"42.6"	"19.1"	"-7.2"	"18.4"	"29.6"	
"20130218"	"Partly Cloudy"	"17"	"54"	"-0.9"	"-18.3"	"0"	"0"	"-9999"	"-9999"	"27"	"partlycloudy"	"METAR KBOS 182254Z 27013KT 10SM FEW050 M01/M18 A3007 RMK AO2 SLP182 T10111183"	"-9999.00"	"-9999.00"	"30.07"	"1018.2"	"0"	"0"	"30.0"	"-1.1"	"0"	"0"	"10.0"	"16.1"	"270"	"West"	"-9999.0"	"-9999.0"	"19.1"	"-7.2"	"15.0"	"24.1"	
"20130218"	"Clear"	"18"	"54"	"-0.9"	"-18.3"	"0"	"0"	"-9999"	"-9999"	"28"	"clear"	"METAR KBOS 182354Z 27013KT 10SM CLR M02/M18 A3009 RMK AO2 SLP189 T10171183 10006 21022 51022"	"-9999.00"	"-9999.00"	"30.09"	"1018.9"	"0"	"0"	"28.9"	"-1.7"	"0"	"0"	"10.0"	"16.1"	"270"	"West"	"-9999.0"	"-9999.0"	"17.7"	"-7.9"	"15.0"	"24.1"	
"20130218"	"Clear"	"19"	"54"	"-0.0"	"-17.8"	"0"	"0"	"-9999"	"-9999"	"30"	"clear"	"METAR KBOS 190054Z 27011G18KT 10SM CLR M02/M18 A3011 RMK AO2 PK WND 25026/0029 SLP197 T10221178"	"-9999.00"	"-9999.00"	"30.12"	"1019.7"	"0"	"0"	"28.0"	"-2.2"	"0"	"0"	"10.0"	"16.1"	"270"	"West"	"20.7"	"33.3"	"17.5"	"-8.0"	"12.7"	"20.4"	
"20130218"	"Clear"	"20"	"54"	"-0.0"	"-17.8"	"0"	"0"	"-9999"	"-9999"	"31"	"clear"	"METAR KBOS 190154Z 26013KT 10SM CLR M03/M18 A3013 RMK AO2 SLP201 T10281178"	"-9999.00"	"-9999.00"	"30.13"	"1020.1"	"0"	"0"	"27.0"	"-2.8"	"0"	"0"	"10.0"	"16.1"	"260"	"West"	"-9999.0"	"-9999.0"	"15.2"	"-9.4"	"15.0"	"24.1"	
"20130218"	"Clear"	"21"	"54"	"1.9"	"-16.7"	"0"	"0"	"-9999"	"-9999"	"35"	"clear"	"METAR KBOS 190254Z 26012G20KT 10SM CLR M03/M17 A3013 RMK AO2 SLP203 T10331167 51014"	"-9999.00"	"-9999.00"	"30.13"	"1020.3"	"0"	"0"	"26.1"	"-3.3"	"0"	"0"	"10.0"	"16.1"	"260"	"West"	"23.0"	"37.0"	"14.5"	"-9.7"	"13.8"	"22.2"	
"20130218"	"Clear"	"22"	"54"	"1.9"	"-16.7"	"0"	"0"	"-9999"	"-9999"	"35"	"clear"	"METAR KBOS 190354Z 26016G23KT 10SM CLR M03/M17 A3015 RMK AO2 SLP209 T10331167"	"-9999.00"	"-9999.00"	"30.15"	"1020.9"	"0"	"0"	"26.1"	"-3.3"	"0"	"0"	"10.0"	"16.1"	"260"	"West"	"26.5"	"42.6"	"12.7"	"-10.7"	"18.4"	"29.6"	
"20130218"	"Clear"	"23"	"54"	"1.9"	"-16.7"	"0"	"0"	"-9999"	"-9999"	"35"	"clear"	"METAR KBOS 190454Z 27012KT 10SM CLR M03/M17 A3016 RMK AO2 SLP211 T10331167 400061089"	"-9999.00"	"-9999.00"	"30.16"	"1021.1"	"0"	"0"	"26.1"	"-3.3"	"0"	"0"	"10.0"	"16.1"	"270"	"West"	"-9999.0"	"-9999.0"	"14.5"	"-9.7"	"13.8"	"22.2"	
"20130217"	"Light Snow"	"00"	"54"	"18.0"	"-7.8"	"0"	"0"	"-9999"	"-9999"	"59"	"snow"	"METAR KBOS 170554Z 36012KT 9SM -SN SCT035 OVC060 M01/M08 A2969 RMK AO2 SNB50 SLP052 P0000 60000 T10061078 10022 21006 56031"	"0.00"	"0.0"	"29.69"	"1005.2"	"0"	"1"	"30.9"	"-0.6"	"0"	"0"	"9.0"	"14.5"	"360"	"North"	"-9999.0"	"-9999.0"	"20.7"	"-6.3"	"13.8"	"22.2"	
"20130217"	"Light Snow"	"01"	"54"	"18.0"	"-7.8"	"0"	"0"	"-9999"	"-9999"	"64"	"snow"	"METAR KBOS 170654Z 36016G24KT 7SM -SN OVC035 M02/M08 A2965 RMK AO2 SLP040 P0000 T10171078"	"0.00"	"0.0"	"29.65"	"1004.0"	"0"	"1"	"28.9"	"-1.7"	"0"	"0"	"7.0"	"11.3"	"360"	"North"	"27.6"	"44.4"	"16.5"	"-8.6"	"18.4"	"29.6"	
"20130217"	"Light Snow"	"02"	"54"	"14.0"	"-10.0"	"0"	"0"	"-9999"	"-9999"	"54"	"snow"	"METAR KBOS 170754Z 01015KT 9SM -SN BKN049 OVC060 M02/M10 A2962 RMK AO2 SLP030 P0000 T10171100"	"0.00"	"0.0"	"29.62"	"1003.0"	"0"	"1"	"28.9"	"-1.7"	"0"	"0"	"9.0"	"14.5"	"10"	"North"	"-9999.0"	"-9999.0"	"16.9"	"-8.4"	"17.3"	"27.8"	
"20130217"	"Overcast"	"03"	"54"	"10.0"	"-12.2"	"0"	"0"	"-9999"	"-9999"	"47"	"cloudy"	"METAR KBOS 170854Z 33017G20KT 10SM OVC060 M02/M12 A2958 RMK AO2 SNE13 SLP017 P0000 60000 T10221122 57035"	"0.00"	"0.0"	"29.58"	"1001.7"	"0"	"0"	"28.0"	"-2.2"	"0"	"0"	"10.0"	"16.1"	"330"	"NNW"	"23.0"	"37.0"	"14.9"	"-9.5"	"19.6"	"31.5"	
"20130217"	"Light Snow"	"04"	"54"	"14.0"	"-10.0"	"0"	"0"	"-9999"	"-9999"	"65"	"snow"	"METAR KBOS 170954Z 32017G25KT 5SM -SN BKN039 BKN048 OVC060 M04/M10 A2957 RMK AO2 PK WND 32027/0933 SNB36 SLP013 P0000 T10441100"	"0.00"	"0.0"	"29.57"	"1001.3"	"0"	"1"	"24.1"	"-4.4"	"0"	"0"	"5.0"	"8.0"	"320"	"NW"	"28.8"	"46.3"	"9.8"	"-12.4"	"19.6"	"31.5"	
"20130217"	"Light Snow"	"05"	"23"	"14.0"	"-10.0"	"0"	"0"	"-9999"	"-9999"	"64"	"snow"	"SPECI KBOS 171023Z 33016G25KT 2 1/2SM -SN BKN035 OVC060 M04/M10 A2956 RMK AO2 PK WND 33026/0958 P0000"	"0.00"	"0.0"	"29.56"	"1000.9"	"0"	"1"	"24.8"	"-4.0"	"0"	"0"	"2.5"	"4.0"	"330"	"NNW"	"28.8"	"46.3"	"11.1"	"-11.6"	"18.4"	"29.6"	
"20130217"	"Light Snow"	"05"	"39"	"15.8"	"-9.0"	"0"	"0"	"-9999"	"-9999"	"74"	"snow"	"SPECI KBOS 171039Z 33017G24KT 1 1/2SM -SN OVC027 M05/M09 A2954 RMK AO2 PK WND 33026/1025 P0000"	"0.00"	"0.0"	"29.54"	"1000.2"	"0"	"1"	"23.0"	"-5.0"	"0"	"0"	"1.5"	"2.4"	"330"	"NNW"	"27.6"	"44.4"	"8.3"	"-13.1"	"19.6"	"31.5"	
"20130217"	"Light Snow"	"05"	"54"	"16.0"	"-8.9"	"0"	"0"	"-9999"	"-9999"	"74"	"snow"	"METAR KBOS 171054Z 32016KT 1 1/2SM -SN OVC021 M05/M09 A2954 RMK AO2 PK WND 33026/1025 SLP002 P0000 T10501089"	"0.00"	"0.0"	"29.54"	"1000.2"	"0"	"1"	"23.0"	"-5.0"	"0"	"0"	"1.5"	"2.4"	"320"	"NW"	"-9999.0"	"-9999.0"	"8.7"	"-12.9"	"18.4"	"29.6"	
"20130217"	"Light Snow"	"06"	"31"	"15.8"	"-9.0"	"0"	"0"	"-9999"	"-9999"	"80"	"snow"	"SPECI KBOS 171131Z 32019G30KT 3/4SM R04R/5000VP6000FT -SN VV015 M06/M09 A2949 RMK AO2 PK WND 32030/1129 P0000"	"0.00"	"0.0"	"29.49"	"998.5"	"0"	"1"	"21.2"	"-6.0"	"0"	"0"	"0.8"	"1.2"	"320"	"NW"	"34.5"	"55.6"	"5.2"	"-14.9"	"21.9"	"35.2"	
"20130217"	"Light Snow"	"06"	"37"	"15.8"	"-9.0"	"0"	"0"	"-9999"	"-9999"	"80"	"snow"	"SPECI KBOS 171137Z 32018G30KT 3/4SM R04R/5500VP6000FT -SN VV014 M06/M09 A2950 RMK AO2 PK WND 32030/1129 P0000"	"0.00"	"0.0"	"29.50"	"998.9"	"0"	"1"	"21.2"	"-6.0"	"0"	"0"	"0.8"	"1.2"	"320"	"NW"	"34.5"	"55.6"	"5.6"	"-14.7"	"20.7"	"33.3"	
"20130217"	"Light Snow"	"06"	"54"	"16.0"	"-8.9"	"0"	"0"	"-9999"	"-9999"	"81"	"snow"	"METAR KBOS 171154Z 32020G27KT 3/4SM R04R/4000V5000FT -SN VV011 M06/M09 A2949 RMK AO2 PK WND 32030/1129 SLP985 P0000 60000 70001 T10611089 11006 21061 58032"	"0.00"	"0.0"	"29.49"	"998.5"	"0"	"1"	"21.0"	"-6.1"	"0"	"0"	"0.8"	"1.2"	"320"	"NW"	"31.1"	"50.0"	"4.6"	"-15.2"	"23.0"	"37.0"	
"20130217"	"Heavy Snow"	"07"	"54"	"16.0"	"-8.9"	"1"	"0"	"-9999"	"-9999"	"85"	"snow"	"METAR KBOS 171254Z 32017G29KT 1/4SM R04R/3000V4000FT +SN FZFG VV010 M07/M09 A2945 RMK AO2 PK WND 31029/1252 SLP973 P0001 T10671089"	"0.01"	"0.3"	"29.45"	"997.3"	"0"	"1"	"19.9"	"-6.7"	"0"	"0"	"0.2"	"0.4"	"320"	"NW"	"33.4"	"53.7"	"4.3"	"-15.4"	"19.6"	"31.5"	
"20130217"	"Heavy Snow"	"08"	"54"	"15.1"	"-9.4"	"0"	"0"	"-9999"	"-9999"	"81"	"snow"	"METAR KBOS 171354Z 31018G27KT 1/4SM R04R/2200V3500FT +SN VV010 M07/M09 A2942 RMK AO2 PK WND 32031/1312 SLP960 P0000 T10671094"	"0.00"	"0.0"	"29.42"	"996.0"	"0"	"1"	"19.9"	"-6.7"	"0"	"0"	"0.2"	"0.4"	"310"	"NW"	"31.1"	"50.0"	"3.9"	"-15.6"	"20.7"	"33.3"	
"20130217"	"Heavy Snow"	"09"	"18"	"15.8"	"-9.0"	"1"	"0"	"-9999"	"-9999"	"86"	"snow"	"SPECI KBOS 171418Z 31019G29KT 1/4SM R04R/2000V2800FT +SN FZFG VV009 M07/M09 A2940 RMK AO2 PK WND 32038/1357 P0001"	"0.01"	"0.3"	"29.40"	"995.5"	"0"	"1"	"19.4"	"-7.0"	"0"	"0"	"0.2"	"0.4"	"310"	"NW"	"33.4"	"53.7"	"2.8"	"-16.2"	"21.9"	"35.2"	
"20130217"	"Heavy Snow"	"09"	"54"	"15.1"	"-9.4"	"1"	"0"	"-9999"	"-9999"	"85"	"snow"	"METAR KBOS 171454Z 31018G27KT 1/4SM R04R/1400V3000FT +SN FZFG VV009 M07/M09 A2939 RMK AO2 PK WND 32038/1357 SLP951 P0001 60002 T10721094 56035"	"0.01"	"0.3"	"29.39"	"995.1"	"0"	"1"	"19.0"	"-7.2"	"0"	"0"	"0.2"	"0.4"	"310"	"NW"	"31.1"	"50.0"	"2.7"	"-16.3"	"20.7"	"33.3"	
"20130217"	"Snow"	"10"	"54"	"15.1"	"-9.4"	"0"	"0"	"-9999"	"-9999"	"81"	"snow"	"METAR KBOS 171554Z 30021G29KT 1/2SM R04R/2800V3500FT SN VV010 M07/M09 A2938 RMK AO2 PK WND 30032/1512 SLP947 P0000 T10671094"	"0.00"	"0.0"	"29.38"	"994.7"	"0"	"1"	"19.9"	"-6.7"	"0"	"0"	"0.5"	"0.8"	"300"	"WNW"	"33.4"	"53.7"	"2.8"	"-16.2"	"24.2"	"38.9"	
"20130217"	"Snow"	"11"	"54"	"15.1"	"-9.4"	"0"	"0"	"-9999"	"-9999"	"81"	"snow"	"METAR KBOS 171654Z 30024G31KT 1/2SM R04R/2600V4000FT SN OVC015 M07/M09 A2938 RMK AO2 PK WND 30032/1559 SLP947 P0000 T10671094"	"0.00"	"0.0"	"29.38"	"994.7"	"0"	"1"	"19.9"	"-6.7"	"0"	"0"	"0.5"	"0.8"	"300"	"WNW"	"35.7"	"57.4"	"1.8"	"-16.8"	"27.6"	"44.4"	
"20130217"	"Snow"	"12"	"54"	"15.1"	"-9.4"	"0"	"0"	"-9999"	"-9999"	"81"	"snow"	"METAR KBOS 171754Z 29019G28KT 1/2SM R04R/3000V3500FT SN VV014 M07/M09 A2938 RMK AO2 PK WND 30032/1729 TWR VIS 1 SLP947 P0000 60002 T10671094 11061 21072 55003"	"0.00"	"0.0"	"29.38"	"994.7"	"0"	"1"	"19.9"	"-6.7"	"0"	"0"	"0.5"	"0.8"	"290"	"WNW"	"32.2"	"51.9"	"3.5"	"-15.8"	"21.9"	"35.2"	
"20130217"	"Light Snow"	"13"	"23"	"15.8"	"-9.0"	"0"	"0"	"-9999"	"-9999"	"80"	"snow"	"SPECI KBOS 171823Z 30017G29KT 3/4SM R04R/4000V6000FT -SN OVC017 M06/M09 A2938 RMK AO2 PK WND 29031/1758 TWR VIS 1 P0000"	"0.00"	"0.0"	"29.38"	"994.8"	"0"	"1"	"21.2"	"-6.0"	"0"	"0"	"0.8"	"1.2"	"300"	"WNW"	"33.4"	"53.7"	"6.0"	"-14.5"	"19.6"	"31.5"	
"20130217"	"Light Snow"	"13"	"54"	"14.0"	"-10.0"	"0"	"0"	"-9999"	"-9999"	"74"	"snow"	"METAR KBOS 171854Z 31019G36KT 3/4SM R04R/2200VP6000FT -SN BLSN BKN021 OVC030 M06/M10 A2938 RMK AO2 PK WND 30036/1845 TWR VIS 1 1/2 SLP949 P0000 T10611100"	"0.00"	"0.0"	"29.38"	"994.9"	"0"	"1"	"21.0"	"-6.1"	"0"	"0"	"0.8"	"1.2"	"310"	"NW"	"41.4"	"66.7"	"5.0"	"-15.0"	"21.9"	"35.2"	
"20130217"	"Light Snow"	"13"	"59"	"14.0"	"-10.0"	"0"	"0"	"-9999"	"-9999"	"74"	"snow"	"SPECI KBOS 171859Z 30022G30KT 1SM R04R/3000VP6000FT -SN BKN025 OVC034 M06/M10 A2939 RMK AO2 PK WND 30029/1858 TWR VIS 1 1/2 VIS 1/4 E P0000"	"0.00"	"0.0"	"29.39"	"995.1"	"0"	"1"	"21.2"	"-6.0"	"0"	"0"	"1.0"	"1.6"	"300"	"WNW"	"34.5"	"55.6"	"4.2"	"-15.5"	"25.3"	"40.7"	
"20130217"	"Light Snow"	"14"	"10"	"12.2"	"-11.0"	"0"	"0"	"-9999"	"-9999"	"68"	"snow"	"SPECI KBOS 171910Z 32019G29KT 1 1/2SM R04R/4000VP6000FT -SN OVC033 M06/M11 A2939 RMK AO2 PK WND 31029/1905 SFC VIS 2 1/2 VIS 3/4 E CIG 025 E P0000"	"0.00"	"0.0"	"29.39"	"995.1"	"0"	"1"	"21.2"	"-6.0"	"0"	"0"	"1.5"	"2.4"	"320"	"NW"	"33.4"	"53.7"	"5.2"	"-14.9"	"21.9"	"35.2"	
"20130217"	"Light Snow"	"14"	"18"	"12.2"	"-11.0"	"0"	"0"	"-9999"	"-9999"	"63"	"snow"	"SPECI KBOS 171918Z 30024G35KT 2SM R04R/4000VP6000FT -SN FEW028 OVC034 M05/M11 A2939 RMK AO2 PK WND 31035/1918 VIS 1/2 E P0000"	"0.00"	"0.0"	"29.39"	"995.1"	"0"	"1"	"23.0"	"-5.0"	"0"	"0"	"2.0"	"3.2"	"300"	"WNW"	"40.3"	"64.8"	"6.0"	"-14.5"	"27.6"	"44.4"	
"20130217"	"Blowing Snow"	"14"	"38"	"8.6"	"-13.0"	"0"	"0"	"-9999"	"-9999"	"54"	"snow"	"SPECI KBOS 171938Z 30029G38KT 1 1/2SM R04R/5000VP6000FT BLSN BKN036 OVC046 M05/M13 A2940 RMK AO2 PK WND 30040/1925 VIS 3/4V4 SNE37 P0000"	"0.00"	"0.0"	"29.40"	"995.5"	"0"	"1"	"23.0"	"-5.0"	"0"	"0"	"1.5"	"2.4"	"300"	"WNW"	"43.7"	"70.4"	"4.6"	"-15.2"	"33.4"	"53.7"	
"20130217"	"Blowing Snow"	"14"	"54"	"7.0"	"-13.9"	"0"	"0"	"-9999"	"-9999"	"50"	"snow"	"METAR KBOS 171954Z 30021G34KT 2 1/2SM R04R/4000VP6000FT BLSN BKN040 OVC050 M05/M14 A2940 RMK AO2 PK WND 30040/1925 VIS 1/2 E SNE52 SLP956 P0000 T10501139"	"0.00"	"0.0"	"29.40"	"995.6"	"0"	"1"	"23.0"	"-5.0"	"0"	"0"	"2.5"	"4.0"	"300"	"WNW"	"39.1"	"63.0"	"6.9"	"-13.9"	"24.2"	"38.9"	
"20130217"	"Blowing Snow"	"15"	"05"	"6.8"	"-14.0"	"0"	"0"	"-9999"	"-9999"	"50"	"snow"	"SPECI KBOS 172005Z 30031G45KT 1 1/4SM R04R/5500VP6000FT BLSN SCT034 BKN041 OVC070 M05/M14 A2941 RMK AO2 PK WND 29045/2004 VIS 3/4V2 1/2"	"-9999.00"	"-9999.00"	"29.41"	"995.8"	"0"	"1"	"23.0"	"-5.0"	"0"	"0"	"1.2"	"2.0"	"300"	"WNW"	"51.8"	"83.3"	"4.1"	"-15.5"	"35.7"	"57.4"	
"20130217"	"Blowing Snow"	"15"	"15"	"6.8"	"-14.0"	"0"	"0"	"-9999"	"-9999"	"46"	"snow"	"SPECI KBOS 172015Z 29021G33KT 3SM R04R/5000VP6000FT BLSN SCT046 OVC070 M04/M14 A2941 RMK AO2 PK WND 29045/2004 VIS 1 E SNB06E14 P0000"	"0.00"	"0.0"	"29.41"	"995.8"	"0"	"1"	"24.8"	"-4.0"	"0"	"0"	"3.0"	"4.8"	"290"	"WNW"	"38.0"	"61.1"	"9.3"	"-12.6"	"24.2"	"38.9"	
"20130217"	"Overcast"	"15"	"54"	"3.9"	"-15.6"	"0"	"0"	"-9999"	"-9999"	"44"	"cloudy"	"METAR KBOS 172054Z 30021G32KT 9SM OVC060 M05/M16 A2944 RMK AO2 PK WND 29045/2004 SNB06E14 SLP967 P0000 60000 T10501156 53019"	"0.00"	"0.0"	"29.44"	"996.7"	"0"	"0"	"23.0"	"-5.0"	"0"	"0"	"9.0"	"14.5"	"300"	"WNW"	"36.8"	"59.3"	"6.9"	"-13.9"	"24.2"	"38.9"	
"20130217"	"Overcast"	"16"	"54"	"1.9"	"-16.7"	"0"	"0"	"-9999"	"-9999"	"42"	"cloudy"	"METAR KBOS 172154Z 30021G41KT 9SM OVC070 M06/M17 A2947 RMK AO2 PK WND 29041/2149 VIS 1 E UPB2057E03 SLP980 P0000 T10561167"	"0.00"	"0.0"	"29.47"	"998.0"	"0"	"0"	"21.9"	"-5.6"	"0"	"0"	"9.0"	"14.5"	"300"	"WNW"	"47.2"	"75.9"	"5.5"	"-14.7"	"24.2"	"38.9"	
"20130217"	"Overcast"	"17"	"54"	"1.9"	"-16.7"	"0"	"0"	"-9999"	"-9999"	"40"	"cloudy"	"METAR KBOS 172254Z 30024G37KT 10SM OVC070 M05/M17 A2950 RMK AO2 PK WND 28042/2226 VIS 2 E SLP989 T10501167"	"-9999.00"	"-9999.00"	"29.50"	"998.9"	"0"	"0"	"23.0"	"-5.0"	"0"	"0"	"10.0"	"16.1"	"300"	"WNW"	"42.6"	"68.5"	"6.0"	"-14.5"	"27.6"	"44.4"	
"20130217"	"Overcast"	"18"	"54"	"1.0"	"-17.2"	"0"	"0"	"-9999"	"-9999"	"39"	"cloudy"	"METAR KBOS 172354Z 30023G36KT 10SM OVC085 M05/M17 A2951 RMK AO2 PK WND 29047/2320 VIS 2 1/2 E SLP993 60000 T10501172 11044 21067 51026"	"-9999.00"	"-9999.00"	"29.51"	"999.3"	"0"	"0"	"23.0"	"-5.0"	"0"	"0"	"10.0"	"16.1"	"300"	"WNW"	"41.4"	"66.7"	"6.3"	"-14.3"	"26.5"	"42.6"	
"20130217"	"Overcast"	"19"	"54"	"1.9"	"-16.7"	"0"	"0"	"-9999"	"-9999"	"42"	"cloudy"	"METAR KBOS 180054Z 30021G33KT 10SM BKN095 OVC120 M06/M17 A2954 RMK AO2 PK WND 29041/0002 SLP003 T10561167"	"-9999.00"	"-9999.00"	"29.54"	"1000.3"	"0"	"0"	"21.9"	"-5.6"	"0"	"0"	"10.0"	"16.1"	"300"	"WNW"	"38.0"	"61.1"	"5.5"	"-14.7"	"24.2"	"38.9"	
"20130217"	"Overcast"	"20"	"54"	"1.0"	"-17.2"	"0"	"0"	"-9999"	"-9999"	"40"	"cloudy"	"METAR KBOS 180154Z 29020G29KT 10SM BKN100 OVC120 M06/M17 A2958 RMK AO2 PK WND 31032/0117 SLP015 T10561172"	"-9999.00"	"-9999.00"	"29.58"	"1001.5"	"0"	"0"	"21.9"	"-5.6"	"0"	"0"	"10.0"	"16.1"	"290"	"WNW"	"33.4"	"53.7"	"5.8"	"-14.6"	"23.0"	"37.0"	
"20130217"	"Overcast"	"21"	"54"	"-0.0"	"-17.8"	"0"	"0"	"-9999"	"-9999"	"42"	"cloudy"	"METAR KBOS 180254Z 29018G27KT 10SM OVC100 M07/M18 A2962 RMK AO2 PK WND 27030/0232 SLP029 T10671178 53036"	"-9999.00"	"-9999.00"	"29.62"	"1002.9"	"0"	"0"	"19.9"	"-6.7"	"0"	"0"	"10.0"	"16.1"	"290"	"WNW"	"31.1"	"50.0"	"3.9"	"-15.6"	"20.7"	"33.3"	
"20130217"	"Overcast"	"22"	"54"	"-0.0"	"-17.8"	"0"	"0"	"-9999"	"-9999"	"43"	"cloudy"	"METAR KBOS 180354Z 30017G30KT 10SM OVC110 M07/M18 A2964 RMK AO2 PK WND 29032/0335 SLP037 T10721178"	"-9999.00"	"-9999.00"	"29.64"	"1003.7"	"0"	"0"	"19.0"	"-7.2"	"0"	"0"	"10.0"	"16.1"	"300"	"WNW"	"34.5"	"55.6"	"3.2"	"-16.0"	"19.6"	"31.5"	
"20130217"	"Overcast"	"23"	"54"	"-0.0"	"-17.8"	"0"	"0"	"-9999"	"-9999"	"45"	"cloudy"	"METAR KBOS 180454Z 29014G26KT 10SM OVC100 M08/M18 A2966 RMK AO2 PK WND 29033/0414 SLP043 T10781178 400001078"	"-9999.00"	"-9999.00"	"29.66"	"1004.3"	"0"	"0"	"18.0"	"-7.8"	"0"	"0"	"10.0"	"16.1"	"290"	"WNW"	"29.9"	"48.2"	"3.1"	"-16.0"	"16.1"	"25.9"	
"20130216"	"Mostly Cloudy"	"00"	"54"	"32.0"	"0.0"	"0"	"0"	"-9999"	"-9999"	"89"	"mostlycloudy"	"METAR KBOS 160554Z 00000KT 6SM BR BKN090 02/00 A2995 RMK AO2 SLP141 T00170000 10056 20011 55004"	"-9999.00"	"-9999.00"	"29.95"	"1014.1"	"0"	"0"	"35.1"	"1.7"	"0"	"0"	"6.0"	"9.7"	"0"	"North"	"-9999.0"	"-9999.0"	"-999"	"-999"	"0.0"	"0.0"	
"20130216"	"Scattered Clouds"	"01"	"54"	"32.0"	"0.0"	"0"	"0"	"-9999"	"-9999"	"86"	"partlycloudy"	"METAR KBOS 160654Z 31004KT 7SM SCT095 02/00 A2995 RMK AO2 SLP140 T00220000"	"-9999.00"	"-9999.00"	"29.95"	"1014.0"	"0"	"0"	"36.0"	"2.2"	"0"	"0"	"7.0"	"11.3"	"310"	"NW"	"-9999.0"	"-9999.0"	"32.1"	"0.0"	"4.6"	"7.4"	
"20130216"	"Overcast"	"02"	"54"	"32.0"	"0.0"	"0"	"0"	"-9999"	"-9999"	"89"	"cloudy"	"METAR KBOS 160754Z 00000KT 6SM BR OVC060 02/00 A2992 RMK AO2 SLP132 T00170000"	"-9999.00"	"-9999.00"	"29.92"	"1013.2"	"0"	"0"	"35.1"	"1.7"	"0"	"0"	"6.0"	"9.7"	"0"	"North"	"-9999.0"	"-9999.0"	"-999"	"-999"	"0.0"	"0.0"	
"20130216"	"Overcast"	"03"	"54"	"33.1"	"0.6"	"0"	"0"	"-9999"	"-9999"	"83"	"cloudy"	"METAR KBOS 160854Z 34004KT 9SM FEW044 BKN060 OVC110 03/01 A2992 RMK AO2 SLP131 T00330006 56010"	"-9999.00"	"-9999.00"	"29.92"	"1013.1"	"0"	"0"	"37.9"	"3.3"	"0"	"0"	"9.0"	"14.5"	"340"	"NNW"	"-9999.0"	"-9999.0"	"34.4"	"1.3"	"4.6"	"7.4"	
"20130216"	"Overcast"	"04"	"54"	"26.1"	"-3.3"	"0"	"0"	"-9999"	"-9999"	"67"	"cloudy"	"METAR KBOS 160954Z 33010KT 10SM SCT060 OVC110 02/M03 A2993 RMK AO2 CIG 060 E SLP135 T00221033"	"-9999.00"	"-9999.00"	"29.93"	"1013.5"	"0"	"0"	"36.0"	"2.2"	"0"	"0"	"10.0"	"16.1"	"330"	"NNW"	"-9999.0"	"-9999.0"	"28.0"	"-2.2"	"11.5"	"18.5"	
"20130216"	"Overcast"	"05"	"54"	"28.0"	"-2.2"	"0"	"0"	"-9999"	"-9999"	"76"	"cloudy"	"METAR KBOS 161054Z 32014KT 10SM BKN038 OVC060 02/M02 A2993 RMK AO2 SLP136 T00171022"	"-9999.00"	"-9999.00"	"29.94"	"1013.6"	"0"	"0"	"35.1"	"1.7"	"0"	"0"	"10.0"	"16.1"	"320"	"NW"	"-9999.0"	"-9999.0"	"25.2"	"-3.8"	"16.1"	"25.9"	
"20130216"	"Overcast"	"06"	"54"	"28.0"	"-2.2"	"0"	"0"	"-9999"	"-9999"	"79"	"cloudy"	"METAR KBOS 161154Z 33011G16KT 10SM OVC038 01/M02 A2993 RMK AO2 SLP136 T00111022 10033 20006 51004"	"-9999.00"	"-9999.00"	"29.94"	"1013.6"	"0"	"0"	"34.0"	"1.1"	"0"	"0"	"10.0"	"16.1"	"330"	"NNW"	"18.4"	"29.6"	"25.0"	"-3.9"	"12.7"	"20.4"	
"20130216"	"Overcast"	"07"	"54"	"28.0"	"-2.2"	"0"	"0"	"-9999"	"-9999"	"79"	"cloudy"	"METAR KBOS 161254Z 34010KT 10SM OVC038 01/M02 A2994 RMK AO2 SLP139 T00111022"	"-9999.00"	"-9999.00"	"29.94"	"1013.9"	"0"	"0"	"34.0"	"1.1"	"0"	"0"	"10.0"	"16.1"	"340"	"NNW"	"-9999.0"	"-9999.0"	"25.5"	"-3.6"	"11.5"	"18.5"	
"20130216"	"Light Snow"	"08"	"23"	"28.4"	"-2.0"	"0"	"0"	"-9999"	"-9999"	"81"	"snow"	"SPECI KBOS 161323Z 33008KT 2SM -SN SCT014 SCT030 OVC036 01/M02 A2995 RMK AO2 SNB06 P0000"	"0.00"	"0.0"	"29.95"	"1014.1"	"0"	"1"	"33.8"	"1.0"	"0"	"0"	"2.0"	"3.2"	"330"	"NNW"	"-9999.0"	"-9999.0"	"26.4"	"-3.1"	"9.2"	"14.8"	
"20130216"	"Light Snow"	"08"	"27"	"28.4"	"-2.0"	"0"	"0"	"-9999"	"-9999"	"81"	"snow"	"SPECI KBOS 161327Z 33009KT 1 3/4SM R04R/6000VP6000FT -SN SCT012 BKN025 OVC036 01/M02 A2995 RMK AO2 TWR VIS 2 SNB06 P0000"	"0.00"	"0.0"	"29.95"	"1014.1"	"0"	"1"	"33.8"	"1.0"	"0"	"0"	"1.8"	"2.8"	"330"	"NNW"	"-9999.0"	"-9999.0"	"25.8"	"-3.4"	"10.4"	"16.7"	
"20130216"	"Light Snow"	"08"	"54"	"28.9"	"-1.7"	"0"	"0"	"-9999"	"-9999"	"85"	"snow"	"METAR KBOS 161354Z 33009KT 1 1/4SM R04R/5500VP6000FT -SN BR FEW010 BKN021 OVC027 01/M02 A2995 RMK AO2 TWR VIS 1 1/2 SNB06 SLP140 P0000 T00061017"	"0.00"	"0.0"	"29.95"	"1014.0"	"0"	"1"	"33.1"	"0.6"	"0"	"0"	"1.2"	"2.0"	"330"	"NNW"	"-9999.0"	"-9999.0"	"24.9"	"-3.9"	"10.4"	"16.7"	
"20130216"	"Light Snow"	"09"	"24"	"28.4"	"-2.0"	"0"	"0"	"-9999"	"-9999"	"81"	"snow"	"SPECI KBOS 161424Z 34008KT 1SM R04R/3500VP6000FT -SN BR SCT008 BKN021 OVC035 01/M02 A2994 RMK AO2 TWR VIS 1 1/2 P0000"	"0.00"	"0.0"	"29.94"	"1013.8"	"0"	"1"	"33.8"	"1.0"	"0"	"0"	"1.0"	"1.6"	"340"	"NNW"	"-9999.0"	"-9999.0"	"26.4"	"-3.1"	"9.2"	"14.8"	
"20130216"	"Light Snow"	"09"	"54"	"30.0"	"-1.1"	"0"	"0"	"-9999"	"-9999"	"89"	"snow"	"METAR KBOS 161454Z 36006KT 1SM R04R/3500VP6000FT -SN BR FEW006 OVC015 01/M01 A2993 RMK AO2 TWR VIS 1 1/2 SLP134 P0001 60001 T00061011 58002"	"0.01"	"0.3"	"29.93"	"1013.4"	"0"	"1"	"33.1"	"0.6"	"0"	"0"	"1.0"	"1.6"	"360"	"North"	"-9999.0"	"-9999.0"	"26.9"	"-2.8"	"6.9"	"11.1"	
"20130216"	"Overcast"	"10"	"37"	"30.2"	"-1.0"	"0"	"0"	"-9999"	"-9999"	"87"	"cloudy"	"SPECI KBOS 161537Z 34008KT 1 1/2SM FEW010 OVC036 01/M01 A2993 RMK AO2 SFC VIS 9 SNE37 P0000"	"0.00"	"0.0"	"29.93"	"1013.4"	"0"	"0"	"33.8"	"1.0"	"0"	"0"	"1.5"	"2.4"	"340"	"NNW"	"-9999.0"	"-9999.0"	"26.4"	"-3.1"	"9.2"	"14.8"	
"20130216"	"Overcast"	"10"	"54"	"30.0"	"-1.1"	"0"	"0"	"-9999"	"-9999"	"85"	"cloudy"	"METAR KBOS 161554Z 36007KT 10SM OVC036 01/M01 A2993 RMK AO2 SNE37 SLP133 P0000 T00111011"	"0.00"	"0.0"	"29.93"	"1013.3"	"0"	"0"	"34.0"	"1.1"	"0"	"0"	"10.0"	"16.1"	"360"	"North"	"-9999.0"	"-9999.0"	"27.2"	"-2.6"	"8.1"	"13.0"	
"20130216"	"Light Snow"	"11"	"49"	"28.4"	"-2.0"	"0"	"0"	"-9999"	"-9999"	"81"	"snow"	"SPECI KBOS 161649Z 34006KT 2 1/2SM -SN SCT013 OVC038 01/M02 A2992 RMK AO2 SNB19 P0000"	"0.00"	"0.0"	"29.92"	"1013.1"	"0"	"1"	"33.8"	"1.0"	"0"	"0"	"2.5"	"4.0"	"340"	"NNW"	"-9999.0"	"-9999.0"	"27.7"	"-2.4"	"6.9"	"11.1"	
"20130216"	"Light Snow"	"11"	"54"	"30.0"	"-1.1"	"0"	"0"	"-9999"	"-9999"	"85"	"snow"	"METAR KBOS 161654Z 34008KT 2SM -SN BR SCT013 OVC038 01/M01 A2991 RMK AO2 SNB19 SLP128 P0000 T00111011"	"0.00"	"0.0"	"29.91"	"1012.8"	"0"	"1"	"34.0"	"1.1"	"0"	"0"	"2.0"	"3.2"	"340"	"NNW"	"-9999.0"	"-9999.0"	"26.6"	"-3.0"	"9.2"	"14.8"	
"20130216"	"Light Snow"	"12"	"06"	"30.2"	"-1.0"	"0"	"0"	"-9999"	"-9999"	"87"	"snow"	"SPECI KBOS 161706Z 34006KT 1 1/2SM R04R/4500VP6000FT -SN BR SCT013 OVC038 01/M01 A2990 RMK AO2 P0000"	"0.00"	"0.0"	"29.90"	"1012.4"	"0"	"1"	"33.8"	"1.0"	"0"	"0"	"1.5"	"2.4"	"340"	"NNW"	"-9999.0"	"-9999.0"	"27.7"	"-2.4"	"6.9"	"11.1"	
"20130216"	"Light Snow"	"12"	"24"	"30.2"	"-1.0"	"0"	"0"	"-9999"	"-9999"	"87"	"snow"	"SPECI KBOS 161724Z 34006KT 2SM R04R/6000VP6000FT -SN BR BKN013 BKN020 OVC029 01/M01 A2990 RMK AO2 P0000"	"0.00"	"0.0"	"29.90"	"1012.4"	"0"	"1"	"33.8"	"1.0"	"0"	"0"	"2.0"	"3.2"	"340"	"NNW"	"-9999.0"	"-9999.0"	"27.7"	"-2.4"	"6.9"	"11.1"	
"20130216"	"Light Snow"	"12"	"54"	"30.9"	"-0.6"	"0"	"0"	"-9999"	"-9999"	"85"	"snow"	"METAR KBOS 161754Z 36005KT 3SM -SN BR SCT013 BKN023 OVC030 02/M01 A2989 RMK AO2 SLP120 P0000 60001 T00171006 10017 20006 58013"	"0.00"	"0.0"	"29.89"	"1012.0"	"0"	"1"	"35.1"	"1.7"	"0"	"0"	"3.0"	"4.8"	"360"	"North"	"-9999.0"	"-9999.0"	"30.1"	"-1.1"	"5.8"	"9.3"	
"20130216"	"Overcast"	"13"	"54"	"28.9"	"-1.7"	"0"	"0"	"-9999"	"-9999"	"76"	"cloudy"	"METAR KBOS 161854Z 03004KT 7SM FEW016 SCT025 OVC045 02/M02 A2987 RMK AO2 SNE24B41E51 SLP115 P0000 T00221017"	"0.00"	"0.0"	"29.87"	"1011.5"	"0"	"0"	"36.0"	"2.2"	"0"	"0"	"7.0"	"11.3"	"30"	"NNE"	"-9999.0"	"-9999.0"	"32.1"	"0.0"	"4.6"	"7.4"	
"20130216"	"Overcast"	"14"	"54"	"27.0"	"-2.8"	"0"	"0"	"-9999"	"-9999"	"67"	"cloudy"	"METAR KBOS 161954Z 36008KT 7SM FEW015 BKN035 OVC045 03/M03 A2985 RMK AO2 SNB05E47 SLP109 VIS LWR E-S P0000 T00281028"	"0.00"	"0.0"	"29.86"	"1010.9"	"0"	"0"	"37.0"	"2.8"	"0"	"0"	"7.0"	"11.3"	"360"	"North"	"-9999.0"	"-9999.0"	"30.4"	"-0.9"	"9.2"	"14.8"	
"20130216"	"Overcast"	"15"	"54"	"26.1"	"-3.3"	"0"	"0"	"-9999"	"-9999"	"62"	"cloudy"	"METAR KBOS 162054Z 35007KT 10SM FEW025 BKN045 OVC060 03/M03 A2984 RMK AO2 SLP104 60000 T00331033 57017"	"-9999.00"	"-9999.00"	"29.84"	"1010.4"	"0"	"0"	"37.9"	"3.3"	"0"	"0"	"10.0"	"16.1"	"350"	"North"	"-9999.0"	"-9999.0"	"32.1"	"0.0"	"8.1"	"13.0"	
"20130216"	"Overcast"	"16"	"54"	"28.9"	"-1.7"	"0"	"0"	"-9999"	"-9999"	"78"	"cloudy"	"METAR KBOS 162154Z 09006KT 10SM FEW045 OVC055 02/M02 A2983 RMK AO2 SLP100 T00171017"	"-9999.00"	"-9999.00"	"29.83"	"1010.0"	"0"	"0"	"35.1"	"1.7"	"0"	"0"	"10.0"	"16.1"	"90"	"East"	"-9999.0"	"-9999.0"	"29.3"	"-1.5"	"6.9"	"11.1"	
"20130216"	"Overcast"	"17"	"54"	"30.0"	"-1.1"	"0"	"0"	"-9999"	"-9999"	"79"	"cloudy"	"METAR KBOS 162254Z 06003KT 10SM OVC060 02/M01 A2982 RMK AO2 SLP098 T00221011"	"-9999.00"	"-9999.00"	"29.82"	"1009.8"	"0"	"0"	"36.0"	"2.2"	"0"	"0"	"10.0"	"16.1"	"60"	"ENE"	"-9999.0"	"-9999.0"	"33.3"	"0.7"	"3.5"	"5.6"	
"20130216"	"Light Snow"	"18"	"54"	"27.0"	"-2.8"	"0"	"0"	"-9999"	"-9999"	"70"	"snow"	"METAR KBOS 162354Z 33008KT 3SM -SN OVC028 02/M03 A2983 RMK AO2 TWR VIS 4 SNB45 SLP101 P0000 60000 T00221028 10033 20017 55002"	"0.00"	"0.0"	"29.83"	"1010.1"	"0"	"1"	"36.0"	"2.2"	"0"	"0"	"3.0"	"4.8"	"330"	"NNW"	"-9999.0"	"-9999.0"	"29.0"	"-1.6"	"9.2"	"14.8"	
"20130216"	"Light Snow"	"19"	"54"	"26.1"	"-3.3"	"0"	"0"	"-9999"	"-9999"	"70"	"snow"	"METAR KBOS 170054Z 02010KT 8SM -SN SCT028 OVC040 02/M03 A2981 RMK AO2 SLP094 P0000 T00171033"	"0.00"	"0.0"	"29.81"	"1009.4"	"0"	"1"	"35.1"	"1.7"	"0"	"0"	"8.0"	"12.9"	"20"	"NNE"	"-9999.0"	"-9999.0"	"26.9"	"-2.9"	"11.5"	"18.5"	
"20130216"	"Overcast"	"20"	"54"	"21.0"	"-6.1"	"0"	"0"	"-9999"	"-9999"	"57"	"cloudy"	"METAR KBOS 170154Z 36010KT 10SM FEW028 BKN055 OVC065 02/M06 A2980 RMK AO2 SNE25 SLP089 P0000 T00171061"	"0.00"	"0.0"	"29.80"	"1008.9"	"0"	"0"	"35.1"	"1.7"	"0"	"0"	"10.0"	"16.1"	"360"	"North"	"-9999.0"	"-9999.0"	"26.9"	"-2.9"	"11.5"	"18.5"	
"20130216"	"Overcast"	"21"	"54"	"18.0"	"-7.8"	"0"	"0"	"-9999"	"-9999"	"52"	"cloudy"	"METAR KBOS 170254Z 34011G16KT 10SM SCT030 OVC055 01/M08 A2978 RMK AO2 SLP084 60000 T00111078 56018"	"-9999.00"	"-9999.00"	"29.78"	"1008.4"	"0"	"0"	"34.0"	"1.1"	"0"	"0"	"10.0"	"16.1"	"340"	"NNW"	"18.4"	"29.6"	"25.0"	"-3.9"	"12.7"	"20.4"	
"20130216"	"Overcast"	"22"	"28"	"17.6"	"-8.0"	"0"	"0"	"-9999"	"-9999"	"52"	"cloudy"	"SPECI KBOS 170328Z 35010KT 10SM OVC027 01/M08 A2977 RMK AO2"	"-9999.00"	"-9999.00"	"29.77"	"1008.0"	"0"	"0"	"33.8"	"1.0"	"0"	"0"	"10.0"	"16.1"	"350"	"North"	"-9999.0"	"-9999.0"	"25.3"	"-3.7"	"11.5"	"18.5"	
"20130216"	"Light Snow"	"22"	"54"	"18.0"	"-7.8"	"0"	"0"	"-9999"	"-9999"	"54"	"snow"	"METAR KBOS 170354Z 34010KT 10SM -SN BKN027 BKN055 OVC080 01/M08 A2975 RMK AO2 SNB52 SLP072 P0000 T00061078"	"0.00"	"0.0"	"29.75"	"1007.2"	"0"	"1"	"33.1"	"0.6"	"0"	"0"	"10.0"	"16.1"	"340"	"NNW"	"-9999.0"	"-9999.0"	"24.4"	"-4.2"	"11.5"	"18.5"	
"20130216"	"Overcast"	"23"	"09"	"17.6"	"-8.0"	"0"	"0"	"-9999"	"-9999"	"52"	"cloudy"	"SPECI KBOS 170409Z 35010KT 9SM SCT030 BKN055 OVC080 01/M08 A2973 RMK AO2 SNE08 P0000"	"0.00"	"0.0"	"29.73"	"1006.7"	"0"	"0"	"33.8"	"1.0"	"0"	"0"	"9.0"	"14.5"	"350"	"North"	"-9999.0"	"-9999.0"	"25.3"	"-3.7"	"11.5"	"18.5"	
"20130216"	"Overcast"	"23"	"54"	"18.0"	"-7.8"	"0"	"0"	"-9999"	"-9999"	"56"	"cloudy"	"METAR KBOS 170454Z 35011KT 10SM SCT030 OVC055 00/M08 A2971 RMK AO2 SNE08 SLP061 P0000 T00001078 400330000"	"0.00"	"0.0"	"29.71"	"1006.1"	"0"	"0"	"32.0"	"0.0"	"0"	"0"	"10.0"	"16.1"	"350"	"North"	"-9999.0"	"-9999.0"	"22.5"	"-5.3"	"12.7"	"20.4"	
"20130215"	"Partly Cloudy"	"00"	"54"	"23.0"	"-5.0"	"0"	"0"	"-9999"	"-9999"	"69"	"partlycloudy"	"METAR KBOS 150554Z 23007KT 10SM FEW110 00/M05 A3000 RMK AO2 SLP159 T00001050 10022 20000 51004"	"-9999.00"	"-9999.00"	"30.00"	"1015.9"	"0"	"0"	"32.0"	"0.0"	"0"	"0"	"10.0"	"16.1"	"230"	"SW"	"-9999.0"	"-9999.0"	"24.8"	"-4.0"	"8.1"	"13.0"	
"20130215"	"Partly Cloudy"	"01"	"54"	"23.0"	"-5.0"	"0"	"0"	"-9999"	"-9999"	"72"	"partlycloudy"	"METAR KBOS 150654Z 21007KT 10SM FEW120 M01/M05 A3001 RMK AO2 SLP161 T10061050"	"-9999.00"	"-9999.00"	"30.01"	"1016.1"	"0"	"0"	"30.9"	"-0.6"	"0"	"0"	"10.0"	"16.1"	"210"	"SSW"	"-9999.0"	"-9999.0"	"23.5"	"-4.7"	"8.1"	"13.0"	
"20130215"	"Clear"	"02"	"54"	"24.1"	"-4.4"	"0"	"0"	"-9999"	"-9999"	"79"	"clear"	"METAR KBOS 150754Z 20005KT 10SM CLR M01/M04 A3000 RMK AO2 SLP158 T10111044"	"-9999.00"	"-9999.00"	"30.00"	"1015.8"	"0"	"0"	"30.0"	"-1.1"	"0"	"0"	"10.0"	"16.1"	"200"	"SSW"	"-9999.0"	"-9999.0"	"24.1"	"-4.4"	"5.8"	"9.3"	
"20130215"	"Clear"	"03"	"54"	"26.1"	"-3.3"	"0"	"0"	"-9999"	"-9999"	"79"	"clear"	"METAR KBOS 150854Z 21007KT 10SM CLR 00/M03 A3000 RMK AO2 SLP157 T00001033 58001"	"-9999.00"	"-9999.00"	"30.00"	"1015.7"	"0"	"0"	"32.0"	"0.0"	"0"	"0"	"10.0"	"16.1"	"210"	"SSW"	"-9999.0"	"-9999.0"	"24.8"	"-4.0"	"8.1"	"13.0"	
"20130215"	"Clear"	"04"	"54"	"26.1"	"-3.3"	"0"	"0"	"-9999"	"-9999"	"85"	"clear"	"METAR KBOS 150954Z 20005KT 8SM CLR M01/M03 A3000 RMK AO2 SLP159 T10111033"	"-9999.00"	"-9999.00"	"30.00"	"1015.9"	"0"	"0"	"30.0"	"-1.1"	"0"	"0"	"8.0"	"12.9"	"200"	"SSW"	"-9999.0"	"-9999.0"	"24.1"	"-4.4"	"5.8"	"9.3"	
"20130215"	"Mostly Cloudy"	"05"	"54"	"28.0"	"-2.2"	"0"	"0"	"-9999"	"-9999"	"89"	"mostlycloudy"	"METAR KBOS 151054Z 19008KT 6SM BR SCT075 BKN180 M01/M02 A3000 RMK AO2 SLP159 T10061022"	"-9999.00"	"-9999.00"	"30.00"	"1015.9"	"0"	"0"	"30.9"	"-0.6"	"0"	"0"	"6.0"	"9.7"	"190"	"South"	"-9999.0"	"-9999.0"	"22.8"	"-5.1"	"9.2"	"14.8"	
"20130215"	"Mostly Cloudy"	"06"	"54"	"28.9"	"-1.7"	"0"	"0"	"-9999"	"-9999"	"88"	"mostlycloudy"	"METAR KBOS 151154Z 23007KT 4SM BR SCT075 BKN180 00/M02 A3000 RMK AO2 SLP158 T00001017 10000 21011 50001"	"-9999.00"	"-9999.00"	"30.00"	"1015.8"	"0"	"0"	"32.0"	"0.0"	"0"	"0"	"4.0"	"6.4"	"230"	"SW"	"-9999.0"	"-9999.0"	"24.8"	"-4.0"	"8.1"	"13.0"	
"20130215"	"Mostly Cloudy"	"07"	"54"	"32.0"	"0.0"	"0"	"0"	"-9999"	"-9999"	"92"	"mostlycloudy"	"METAR KBOS 151254Z 19008KT 3SM BR FEW070 BKN200 01/00 A3001 RMK AO2 SLP161 T00110000"	"-9999.00"	"-9999.00"	"30.01"	"1016.1"	"0"	"0"	"34.0"	"1.1"	"0"	"0"	"3.0"	"4.8"	"190"	"South"	"-9999.0"	"-9999.0"	"26.6"	"-3.0"	"9.2"	"14.8"	
"20130215"	"Clear"	"08"	"54"	"32.0"	"0.0"	"0"	"0"	"-9999"	"-9999"	"86"	"clear"	"METAR KBOS 151354Z 18008KT 6SM BR CLR 02/00 A3001 RMK AO2 SLP160 T00220000"	"-9999.00"	"-9999.00"	"30.01"	"1016.0"	"0"	"0"	"36.0"	"2.2"	"0"	"0"	"6.0"	"9.7"	"180"	"South"	"-9999.0"	"-9999.0"	"29.0"	"-1.6"	"9.2"	"14.8"	
"20130215"	"Partly Cloudy"	"09"	"54"	"30.0"	"-1.1"	"0"	"0"	"-9999"	"-9999"	"68"	"partlycloudy"	"METAR KBOS 151454Z 21012KT 7SM FEW200 04/M01 A3001 RMK AO2 SLP161 T00441011 51003"	"-9999.00"	"-9999.00"	"30.01"	"1016.1"	"0"	"0"	"39.9"	"4.4"	"0"	"0"	"7.0"	"11.3"	"210"	"SSW"	"-9999.0"	"-9999.0"	"32.1"	"0.1"	"13.8"	"22.2"	
"20130215"	"Scattered Clouds"	"10"	"54"	"30.0"	"-1.1"	"0"	"0"	"-9999"	"-9999"	"60"	"partlycloudy"	"METAR KBOS 151554Z 21015KT 10SM SCT200 06/M01 A3000 RMK AO2 SLP157 T00611011"	"-9999.00"	"-9999.00"	"30.00"	"1015.7"	"0"	"0"	"43.0"	"6.1"	"0"	"0"	"10.0"	"16.1"	"210"	"SSW"	"-9999.0"	"-9999.0"	"35.1"	"1.7"	"17.3"	"27.8"	
"20130215"	"Scattered Clouds"	"11"	"54"	"30.0"	"-1.1"	"0"	"0"	"-9999"	"-9999"	"56"	"partlycloudy"	"METAR KBOS 151654Z 21017KT 10SM SCT200 07/M01 A2997 RMK AO2 SLP148 T00721011"	"-9999.00"	"-9999.00"	"29.97"	"1014.8"	"0"	"0"	"45.0"	"7.2"	"0"	"0"	"10.0"	"16.1"	"210"	"SSW"	"-9999.0"	"-9999.0"	"37.1"	"2.8"	"19.6"	"31.5"	
"20130215"	"Scattered Clouds"	"12"	"54"	"30.9"	"-0.6"	"0"	"0"	"-9999"	"-9999"	"54"	"partlycloudy"	"METAR KBOS 151754Z 19010KT 10SM SCT200 08/M01 A2994 RMK AO2 SLP139 T00831006 10083 20000 58022"	"-9999.00"	"-9999.00"	"29.94"	"1013.9"	"0"	"0"	"46.9"	"8.3"	"0"	"0"	"10.0"	"16.1"	"190"	"South"	"-9999.0"	"-9999.0"	"-999"	"-999"	"11.5"	"18.5"	
"20130215"	"Scattered Clouds"	"13"	"54"	"32.0"	"0.0"	"0"	"0"	"-9999"	"-9999"	"58"	"partlycloudy"	"METAR KBOS 151854Z 20012KT 10SM FEW050 SCT200 08/00 A2993 RMK AO2 SLP135 T00780000"	"-9999.00"	"-9999.00"	"29.93"	"1013.5"	"0"	"0"	"46.0"	"7.8"	"0"	"0"	"10.0"	"16.1"	"200"	"SSW"	"-9999.0"	"-9999.0"	"39.9"	"4.4"	"13.8"	"22.2"	
"20130215"	"Scattered Clouds"	"14"	"54"	"33.1"	"0.6"	"0"	"0"	"-9999"	"-9999"	"61"	"partlycloudy"	"METAR KBOS 151954Z 19011KT 10SM FEW050 SCT200 08/01 A2992 RMK AO2 SLP132 T00780006"	"-9999.00"	"-9999.00"	"29.92"	"1013.2"	"0"	"0"	"46.0"	"7.8"	"0"	"0"	"10.0"	"16.1"	"190"	"South"	"-9999.0"	"-9999.0"	"40.2"	"4.6"	"12.7"	"20.4"	
"20130215"	"Scattered Clouds"	"15"	"54"	"33.1"	"0.6"	"0"	"0"	"-9999"	"-9999"	"63"	"partlycloudy"	"METAR KBOS 152054Z 19011KT 10SM FEW050 SCT200 07/01 A2992 RMK AO2 SLP129 T00720006 56009"	"-9999.00"	"-9999.00"	"29.91"	"1012.9"	"0"	"0"	"45.0"	"7.2"	"0"	"0"	"10.0"	"16.1"	"190"	"South"	"-9999.0"	"-9999.0"	"38.9"	"3.8"	"12.7"	"20.4"	
"20130215"	"Partly Cloudy"	"16"	"54"	"33.1"	"0.6"	"0"	"0"	"-9999"	"-9999"	"68"	"partlycloudy"	"METAR KBOS 152154Z 20010KT 10SM FEW200 06/01 A2992 RMK AO2 SLP131 T00610006"	"-9999.00"	"-9999.00"	"29.92"	"1013.1"	"0"	"0"	"43.0"	"6.1"	"0"	"0"	"10.0"	"16.1"	"200"	"SSW"	"-9999.0"	"-9999.0"	"36.8"	"2.7"	"11.5"	"18.5"	
"20130215"	"Partly Cloudy"	"17"	"54"	"32.0"	"0.0"	"0"	"0"	"-9999"	"-9999"	"70"	"partlycloudy"	"METAR KBOS 152254Z 19009KT 10SM FEW200 05/00 A2992 RMK AO2 SLP131 T00500000"	"-9999.00"	"-9999.00"	"29.92"	"1013.1"	"0"	"0"	"41.0"	"5.0"	"0"	"0"	"10.0"	"16.1"	"190"	"South"	"-9999.0"	"-9999.0"	"34.7"	"1.5"	"10.4"	"16.7"	
"20130215"	"Partly Cloudy"	"18"	"54"	"33.1"	"0.6"	"0"	"0"	"-9999"	"-9999"	"73"	"partlycloudy"	"METAR KBOS 152354Z 21010KT 10SM FEW200 05/01 A2993 RMK AO2 SLP136 T00500006 10083 20044 53006"	"-9999.00"	"-9999.00"	"29.94"	"1013.6"	"0"	"0"	"41.0"	"5.0"	"0"	"0"	"10.0"	"16.1"	"210"	"SSW"	"-9999.0"	"-9999.0"	"34.3"	"1.3"	"11.5"	"18.5"	
"20130215"	"Clear"	"19"	"54"	"33.1"	"0.6"	"0"	"0"	"-9999"	"-9999"	"77"	"clear"	"METAR KBOS 160054Z 22008KT 10SM CLR 04/01 A2994 RMK AO2 SLP137 T00440006"	"-9999.00"	"-9999.00"	"29.94"	"1013.7"	"0"	"0"	"39.9"	"4.4"	"0"	"0"	"10.0"	"16.1"	"220"	"SW"	"-9999.0"	"-9999.0"	"33.9"	"1.1"	"9.2"	"14.8"	
"20130215"	"Clear"	"20"	"54"	"33.1"	"0.6"	"0"	"0"	"-9999"	"-9999"	"79"	"clear"	"METAR KBOS 160154Z 21007KT 10SM CLR 04/01 A2995 RMK AO2 SLP140 T00390006"	"-9999.00"	"-9999.00"	"29.95"	"1014.0"	"0"	"0"	"39.0"	"3.9"	"0"	"0"	"10.0"	"16.1"	"210"	"SSW"	"-9999.0"	"-9999.0"	"33.4"	"0.8"	"8.1"	"13.0"	
"20130215"	"Clear"	"21"	"54"	"33.1"	"0.6"	"0"	"0"	"-9999"	"-9999"	"79"	"clear"	"METAR KBOS 160254Z 21006KT 10SM CLR 04/01 A2996 RMK AO2 SLP145 T00390006 53009"	"-9999.00"	"-9999.00"	"29.96"	"1014.5"	"0"	"0"	"39.0"	"3.9"	"0"	"0"	"10.0"	"16.1"	"210"	"SSW"	"-9999.0"	"-9999.0"	"34.0"	"1.1"	"6.9"	"11.1"	
"20130215"	"Mostly Cloudy"	"22"	"54"	"32.0"	"0.0"	"0"	"0"	"-9999"	"-9999"	"82"	"mostlycloudy"	"METAR KBOS 160354Z 17005KT 8SM BKN070 03/00 A2995 RMK AO2 SLP142 T00280000"	"-9999.00"	"-9999.00"	"29.95"	"1014.2"	"0"	"0"	"37.0"	"2.8"	"0"	"0"	"8.0"	"12.9"	"170"	"South"	"-9999.0"	"-9999.0"	"32.4"	"0.2"	"5.8"	"9.3"	
"20130215"	"Mostly Cloudy"	"23"	"54"	"32.0"	"0.0"	"0"	"0"	"-9999"	"-9999"	"89"	"mostlycloudy"	"METAR KBOS 160454Z 17006KT 7SM BKN080 02/00 A2995 RMK AO2 SLP140 T00170000 400831011"	"-9999.00"	"-9999.00"	"29.95"	"1014.0"	"0"	"0"	"35.1"	"1.7"	"0"	"0"	"7.0"	"11.3"	"170"	"South"	"-9999.0"	"-9999.0"	"29.3"	"-1.5"	"6.9"	"11.1"	
"20130214"	"Overcast"	"00"	"54"	"28.0"	"-2.2"	"0"	"0"	"-9999"	"-9999"	"76"	"cloudy"	"METAR KBOS 140554Z 34003KT 10SM SCT060 OVC080 02/M02 A2974 RMK AO2 SLP072 T00171022 10017 20006 53004"	"-9999.00"	"-9999.00"	"29.75"	"1007.2"	"0"	"0"	"35.1"	"1.7"	"0"	"0"	"10.0"	"16.1"	"340"	"NNW"	"-9999.0"	"-9999.0"	"32.2"	"0.1"	"3.5"	"5.6"	
"20130214"	"Light Snow"	"01"	"54"	"27.0"	"-2.8"	"0"	"0"	"-9999"	"-9999"	"75"	"snow"	"METAR KBOS 140654Z 01005KT 9SM -SN OVC044 01/M03 A2972 RMK AO2 SNB49 SLP064 P0000 T00111028"	"0.00"	"0.0"	"29.72"	"1006.4"	"0"	"1"	"34.0"	"1.1"	"0"	"0"	"9.0"	"14.5"	"10"	"North"	"-9999.0"	"-9999.0"	"28.8"	"-1.8"	"5.8"	"9.3"	
"20130214"	"Overcast"	"02"	"54"	"24.1"	"-4.4"	"0"	"0"	"-9999"	"-9999"	"64"	"cloudy"	"METAR KBOS 140754Z 00000KT 10SM BKN060 OVC085 02/M04 A2973 RMK AO2 SNE0658 SLP065 P0000 T00171044"	"0.00"	"0.0"	"29.73"	"1006.5"	"0"	"0"	"35.1"	"1.7"	"0"	"0"	"10.0"	"16.1"	"0"	"North"	"-9999.0"	"-9999.0"	"-999"	"-999"	"0.0"	"0.0"	
"20130214"	"Mostly Cloudy"	"03"	"54"	"23.0"	"-5.0"	"0"	"0"	"-9999"	"-9999"	"64"	"mostlycloudy"	"METAR KBOS 140854Z 33006KT 10SM BKN036 01/M05 A2974 RMK AO2 SLP070 60000 T00111050 55002"	"-9999.00"	"-9999.00"	"29.74"	"1007.0"	"0"	"0"	"34.0"	"1.1"	"0"	"0"	"10.0"	"16.1"	"330"	"NNW"	"-9999.0"	"-9999.0"	"28.0"	"-2.2"	"6.9"	"11.1"	
"20130214"	"Overcast"	"04"	"54"	"21.0"	"-6.1"	"0"	"0"	"-9999"	"-9999"	"61"	"cloudy"	"METAR KBOS 140954Z 34012KT 10SM BKN047 OVC100 01/M06 A2976 RMK AO2 SLP076 T00061061"	"-9999.00"	"-9999.00"	"29.76"	"1007.6"	"0"	"0"	"33.1"	"0.6"	"0"	"0"	"10.0"	"16.1"	"340"	"NNW"	"-9999.0"	"-9999.0"	"23.4"	"-4.8"	"13.8"	"22.2"	
"20130214"	"Mostly Cloudy"	"05"	"54"	"19.9"	"-6.7"	"0"	"0"	"-9999"	"-9999"	"59"	"mostlycloudy"	"METAR KBOS 141054Z 35009KT 10SM BKN048 01/M07 A2977 RMK AO2 SLP079 T00061067"	"-9999.00"	"-9999.00"	"29.77"	"1007.9"	"0"	"0"	"33.1"	"0.6"	"0"	"0"	"10.0"	"16.1"	"350"	"North"	"-9999.0"	"-9999.0"	"24.9"	"-3.9"	"10.4"	"16.7"	
"20130214"	"Partly Cloudy"	"06"	"54"	"19.0"	"-7.2"	"0"	"0"	"-9999"	"-9999"	"59"	"partlycloudy"	"METAR KBOS 141154Z COR 34009KT 10SM FEW050 00/M07 A2980 RMK AO2 SLP091 60000 T00001072 10017 20000 53021"	"-9999.00"	"-9999.00"	"29.80"	"1009.1"	"0"	"0"	"32.0"	"0.0"	"0"	"0"	"10.0"	"16.1"	"340"	"NNW"	"-9999.0"	"-9999.0"	"23.6"	"-4.7"	"10.4"	"16.7"	
"20130214"	"Partly Cloudy"	"07"	"54"	"19.0"	"-7.2"	"0"	"0"	"-9999"	"-9999"	"54"	"partlycloudy"	"METAR KBOS 141254Z 35008KT 10SM FEW050 01/M07 A2983 RMK AO2 SLP100 T00111072"	"-9999.00"	"-9999.00"	"29.83"	"1010.0"	"0"	"0"	"34.0"	"1.1"	"0"	"0"	"10.0"	"16.1"	"350"	"North"	"-9999.0"	"-9999.0"	"26.6"	"-3.0"	"9.2"	"14.8"	
"20130214"	"Partly Cloudy"	"08"	"54"	"19.0"	"-7.2"	"0"	"0"	"-9999"	"-9999"	"50"	"partlycloudy"	"METAR KBOS 141354Z 36009KT 10SM FEW050 02/M07 A2986 RMK AO2 SLP110 T00221072"	"-9999.00"	"-9999.00"	"29.86"	"1011.0"	"0"	"0"	"36.0"	"2.2"	"0"	"0"	"10.0"	"16.1"	"360"	"North"	"-9999.0"	"-9999.0"	"28.5"	"-2.0"	"10.4"	"16.7"	
"20130214"	"Scattered Clouds"	"09"	"54"	"17.1"	"-8.3"	"0"	"0"	"-9999"	"-9999"	"43"	"partlycloudy"	"METAR KBOS 141454Z 36010KT 10SM FEW060 SCT200 03/M08 A2988 RMK AO2 SLP119 T00331083 51028"	"-9999.00"	"-9999.00"	"29.88"	"1011.9"	"0"	"0"	"37.9"	"3.3"	"0"	"0"	"10.0"	"16.1"	"360"	"North"	"-9999.0"	"-9999.0"	"30.5"	"-0.9"	"11.5"	"18.5"	
"20130214"	"Partly Cloudy"	"10"	"54"	"19.0"	"-7.2"	"0"	"0"	"-9999"	"-9999"	"45"	"partlycloudy"	"METAR KBOS 141554Z 01008KT 10SM FEW055 04/M07 A2990 RMK AO2 SLP122 T00391072"	"-9999.00"	"-9999.00"	"29.89"	"1012.2"	"0"	"0"	"39.0"	"3.9"	"0"	"0"	"10.0"	"16.1"	"10"	"North"	"-9999.0"	"-9999.0"	"32.8"	"0.4"	"9.2"	"14.8"	
"20130214"	"Partly Cloudy"	"11"	"54"	"18.0"	"-7.8"	"0"	"0"	"-9999"	"-9999"	"41"	"partlycloudy"	"METAR KBOS 141654Z 32006KT 10SM FEW055 04/M08 A2990 RMK AO2 SLP124 T00441078"	"-9999.00"	"-9999.00"	"29.90"	"1012.4"	"0"	"0"	"39.9"	"4.4"	"0"	"0"	"10.0"	"16.1"	"320"	"NW"	"-9999.0"	"-9999.0"	"35.1"	"1.7"	"6.9"	"11.1"	
"20130214"	"Partly Cloudy"	"12"	"54"	"19.0"	"-7.2"	"0"	"0"	"-9999"	"-9999"	"41"	"partlycloudy"	"METAR KBOS 141754Z 31007KT 280V360 10SM FEW055 05/M07 A2990 RMK AO2 SLP123 T00501072 10050 20000 50004"	"-9999.00"	"-9999.00"	"29.90"	"1012.3"	"0"	"0"	"41.0"	"5.0"	"0"	"0"	"10.0"	"16.1"	"310"	"NW"	"-9999.0"	"-9999.0"	"35.8"	"2.1"	"8.1"	"13.0"	
"20130214"	"Partly Cloudy"	"13"	"54"	"19.0"	"-7.2"	"0"	"0"	"-9999"	"-9999"	"40"	"partlycloudy"	"METAR KBOS 141854Z 35007KT 10SM FEW055 06/M07 A2990 RMK AO2 SLP123 T00561072"	"-9999.00"	"-9999.00"	"29.90"	"1012.3"	"0"	"0"	"42.1"	"5.6"	"0"	"0"	"10.0"	"16.1"	"350"	"North"	"-9999.0"	"-9999.0"	"37.1"	"2.8"	"8.1"	"13.0"	
"20130214"	"Clear"	"14"	"54"	"26.1"	"-3.3"	"0"	"0"	"-9999"	"-9999"	"62"	"clear"	"METAR KBOS 141954Z 13009KT 10SM CLR 03/M03 A2991 RMK AO2 SLP126 T00331033"	"-9999.00"	"-9999.00"	"29.91"	"1012.6"	"0"	"0"	"37.9"	"3.3"	"0"	"0"	"10.0"	"16.1"	"130"	"SE"	"-9999.0"	"-9999.0"	"30.9"	"-0.6"	"10.4"	"16.7"	
"20130214"	"Clear"	"15"	"54"	"26.1"	"-3.3"	"0"	"0"	"-9999"	"-9999"	"62"	"clear"	"METAR KBOS 142054Z 12008KT 10SM CLR 03/M03 A2993 RMK AO2 SLP134 T00331033 53011"	"-9999.00"	"-9999.00"	"29.93"	"1013.4"	"0"	"0"	"37.9"	"3.3"	"0"	"0"	"10.0"	"16.1"	"120"	"ESE"	"-9999.0"	"-9999.0"	"31.5"	"-0.3"	"9.2"	"14.8"	
"20130214"	"Clear"	"16"	"54"	"27.0"	"-2.8"	"0"	"0"	"-9999"	"-9999"	"67"	"clear"	"METAR KBOS 142154Z 12009KT 10SM CLR 03/M03 A2995 RMK AO2 SLP140 T00281028"	"-9999.00"	"-9999.00"	"29.95"	"1014.0"	"0"	"0"	"37.0"	"2.8"	"0"	"0"	"10.0"	"16.1"	"120"	"ESE"	"-9999.0"	"-9999.0"	"29.8"	"-1.2"	"10.4"	"16.7"	
"20130214"	"Clear"	"17"	"54"	"26.1"	"-3.3"	"0"	"0"	"-9999"	"-9999"	"67"	"clear"	"METAR KBOS 142254Z 13009KT 10SM CLR 02/M03 A2996 RMK AO2 SLP146 T00221033"	"-9999.00"	"-9999.00"	"29.96"	"1014.6"	"0"	"0"	"36.0"	"2.2"	"0"	"0"	"10.0"	"16.1"	"130"	"SE"	"-9999.0"	"-9999.0"	"28.5"	"-2.0"	"10.4"	"16.7"	
"20130214"	"Clear"	"18"	"54"	"24.1"	"-4.4"	"0"	"0"	"-9999"	"-9999"	"64"	"clear"	"METAR KBOS 142354Z 18008KT 10SM CLR 02/M04 A2998 RMK AO2 SLP152 T00171044 10056 20017 52018"	"-9999.00"	"-9999.00"	"29.98"	"1015.2"	"0"	"0"	"35.1"	"1.7"	"0"	"0"	"10.0"	"16.1"	"180"	"South"	"-9999.0"	"-9999.0"	"27.9"	"-2.3"	"9.2"	"14.8"	
"20130214"	"Clear"	"19"	"54"	"24.1"	"-4.4"	"0"	"0"	"-9999"	"-9999"	"64"	"clear"	"METAR KBOS 150054Z 20008KT 10SM CLR 02/M04 A2997 RMK AO2 SLP149 T00171044"	"-9999.00"	"-9999.00"	"29.97"	"1014.9"	"0"	"0"	"35.1"	"1.7"	"0"	"0"	"10.0"	"16.1"	"200"	"SSW"	"-9999.0"	"-9999.0"	"27.9"	"-2.3"	"9.2"	"14.8"	
"20130214"	"Clear"	"20"	"54"	"24.1"	"-4.4"	"0"	"0"	"-9999"	"-9999"	"64"	"clear"	"METAR KBOS 150154Z 23009KT 10SM CLR 02/M04 A2999 RMK AO2 SLP153 T00171044"	"-9999.00"	"-9999.00"	"29.99"	"1015.3"	"0"	"0"	"35.1"	"1.7"	"0"	"0"	"10.0"	"16.1"	"230"	"SW"	"-9999.0"	"-9999.0"	"27.4"	"-2.6"	"10.4"	"16.7"	
"20130214"	"Clear"	"21"	"54"	"24.1"	"-4.4"	"0"	"0"	"-9999"	"-9999"	"64"	"clear"	"METAR KBOS 150254Z 22008KT 10SM CLR 02/M04 A2999 RMK AO2 SLP154 T00171044 53003"	"-9999.00"	"-9999.00"	"29.99"	"1015.4"	"0"	"0"	"35.1"	"1.7"	"0"	"0"	"10.0"	"16.1"	"220"	"SW"	"-9999.0"	"-9999.0"	"27.9"	"-2.3"	"9.2"	"14.8"	
"20130214"	"Clear"	"22"	"54"	"23.0"	"-5.0"	"0"	"0"	"-9999"	"-9999"	"66"	"clear"	"METAR KBOS 150354Z 23008KT 10SM CLR 01/M05 A2999 RMK AO2 SLP156 T00061050"	"-9999.00"	"-9999.00"	"29.99"	"1015.6"	"0"	"0"	"33.1"	"0.6"	"0"	"0"	"10.0"	"16.1"	"230"	"SW"	"-9999.0"	"-9999.0"	"25.5"	"-3.6"	"9.2"	"14.8"	
"20130214"	"Partly Cloudy"	"23"	"54"	"23.0"	"-5.0"	"0"	"0"	"-9999"	"-9999"	"66"	"partlycloudy"	"METAR KBOS 150454Z 22007KT 10SM FEW120 01/M05 A3000 RMK AO2 SLP158 T00061050 400560000"	"-9999.00"	"-9999.00"	"30.00"	"1015.8"	"0"	"0"	"33.1"	"0.6"	"0"	"0"	"10.0"	"16.1"	"220"	"SW"	"-9999.0"	"-9999.0"	"26.1"	"-3.3"	"8.1"	"13.0"	
"20130213"	"Partly Cloudy"	"00"	"54"	"23.0"	"-5.0"	"0"	"0"	"-9999"	"-9999"	"61"	"partlycloudy"	"METAR KBOS 130554Z 27011KT 10SM FEW050 02/M05 A2984 RMK AO2 SLP105 T00171050 10039 20017 55002"	"-9999.00"	"-9999.00"	"29.84"	"1010.5"	"0"	"0"	"35.1"	"1.7"	"0"	"0"	"10.0"	"16.1"	"270"	"West"	"-9999.0"	"-9999.0"	"26.4"	"-3.1"	"12.7"	"20.4"	
"20130213"	"Partly Cloudy"	"01"	"54"	"23.0"	"-5.0"	"0"	"0"	"-9999"	"-9999"	"64"	"partlycloudy"	"METAR KBOS 130654Z 28009KT 10SM FEW050 01/M05 A2983 RMK AO2 SLP099 T00111050"	"-9999.00"	"-9999.00"	"29.83"	"1009.9"	"0"	"0"	"34.0"	"1.1"	"0"	"0"	"10.0"	"16.1"	"280"	"West"	"-9999.0"	"-9999.0"	"26.0"	"-3.3"	"10.4"	"16.7"	
"20130213"	"Clear"	"02"	"54"	"21.0"	"-6.1"	"0"	"0"	"-9999"	"-9999"	"59"	"clear"	"METAR KBOS 130754Z 27010KT 10SM CLR 01/M06 A2983 RMK AO2 SLP101 T00111061"	"-9999.00"	"-9999.00"	"29.83"	"1010.1"	"0"	"0"	"34.0"	"1.1"	"0"	"0"	"10.0"	"16.1"	"270"	"West"	"-9999.0"	"-9999.0"	"25.5"	"-3.6"	"11.5"	"18.5"	
"20130213"	"Partly Cloudy"	"03"	"54"	"21.0"	"-6.1"	"0"	"0"	"-9999"	"-9999"	"59"	"partlycloudy"	"METAR KBOS 130854Z 26011G18KT 10SM FEW040 01/M06 A2985 RMK AO2 SLP107 T00111061 53002"	"-9999.00"	"-9999.00"	"29.85"	"1010.7"	"0"	"0"	"34.0"	"1.1"	"0"	"0"	"10.0"	"16.1"	"260"	"West"	"20.7"	"33.3"	"25.0"	"-3.9"	"12.7"	"20.4"	
"20130213"	"Partly Cloudy"	"04"	"54"	"21.0"	"-6.1"	"0"	"0"	"-9999"	"-9999"	"59"	"partlycloudy"	"METAR KBOS 130954Z 27011G17KT 10SM FEW040 01/M06 A2986 RMK AO2 SLP109 T00111061"	"-9999.00"	"-9999.00"	"29.86"	"1010.9"	"0"	"0"	"34.0"	"1.1"	"0"	"0"	"10.0"	"16.1"	"270"	"West"	"19.6"	"31.5"	"25.0"	"-3.9"	"12.7"	"20.4"	
"20130213"	"Partly Cloudy"	"05"	"54"	"21.0"	"-6.1"	"0"	"0"	"-9999"	"-9999"	"61"	"partlycloudy"	"METAR KBOS 131054Z COR 27007KT 10SM FEW040 01/M06 A2986 RMK AO2 SLP111 T00061061"	"-9999.00"	"-9999.00"	"29.86"	"1011.1"	"0"	"0"	"33.1"	"0.6"	"0"	"0"	"10.0"	"16.1"	"270"	"West"	"-9999.0"	"-9999.0"	"26.1"	"-3.3"	"8.1"	"13.0"	
"20130213"	"Partly Cloudy"	"06"	"54"	"19.9"	"-6.7"	"0"	"0"	"-9999"	"-9999"	"64"	"partlycloudy"	"METAR KBOS 131154Z 24007KT 10SM FEW050 M01/M07 A2987 RMK AO2 SLP113 T10061067 10017 21006 51006"	"-9999.00"	"-9999.00"	"29.87"	"1011.3"	"0"	"0"	"30.9"	"-0.6"	"0"	"0"	"10.0"	"16.1"	"240"	"WSW"	"-9999.0"	"-9999.0"	"23.5"	"-4.7"	"8.1"	"13.0"	
"20130213"	"Clear"	"07"	"54"	"21.9"	"-5.6"	"0"	"0"	"-9999"	"-9999"	"61"	"clear"	"METAR KBOS 131254Z 28007KT 10SM CLR 01/M06 A2987 RMK AO2 SLP113 T00111056"	"-9999.00"	"-9999.00"	"29.87"	"1011.3"	"0"	"0"	"34.0"	"1.1"	"0"	"0"	"10.0"	"16.1"	"280"	"West"	"-9999.0"	"-9999.0"	"27.2"	"-2.6"	"8.1"	"13.0"	
"20130213"	"Clear"	"08"	"54"	"21.9"	"-5.6"	"0"	"0"	"-9999"	"-9999"	"57"	"clear"	"METAR KBOS 131354Z 27007KT 10SM CLR 02/M06 A2987 RMK AO2 SLP115 T00221056"	"-9999.00"	"-9999.00"	"29.87"	"1011.5"	"0"	"0"	"36.0"	"2.2"	"0"	"0"	"10.0"	"16.1"	"270"	"West"	"-9999.0"	"-9999.0"	"29.6"	"-1.3"	"8.1"	"13.0"	
"20130213"	"Partly Cloudy"	"09"	"54"	"21.9"	"-5.6"	"0"	"0"	"-9999"	"-9999"	"54"	"partlycloudy"	"METAR KBOS 131454Z 30006G15KT 10SM FEW070 03/M06 A2986 RMK AO2 SLP109 T00281056 58004"	"-9999.00"	"-9999.00"	"29.86"	"1010.9"	"0"	"0"	"37.0"	"2.8"	"0"	"0"	"10.0"	"16.1"	"300"	"WNW"	"17.3"	"27.8"	"31.6"	"-0.2"	"6.9"	"11.1"	
"20130213"	"Partly Cloudy"	"10"	"54"	"21.9"	"-5.6"	"0"	"0"	"-9999"	"-9999"	"53"	"partlycloudy"	"METAR KBOS 131554Z 27005KT 10SM FEW060 03/M06 A2984 RMK AO2 SLP103 T00331056"	"-9999.00"	"-9999.00"	"29.84"	"1010.3"	"0"	"0"	"37.9"	"3.3"	"0"	"0"	"10.0"	"16.1"	"270"	"West"	"-9999.0"	"-9999.0"	"33.5"	"0.8"	"5.8"	"9.3"	
"20130213"	"Partly Cloudy"	"11"	"54"	"21.9"	"-5.6"	"0"	"0"	"-9999"	"-9999"	"53"	"partlycloudy"	"METAR KBOS 131654Z 25005KT 10SM FEW045 03/M06 A2983 RMK AO2 SLP101 T00331056"	"-9999.00"	"-9999.00"	"29.83"	"1010.1"	"0"	"0"	"37.9"	"3.3"	"0"	"0"	"10.0"	"16.1"	"250"	"WSW"	"-9999.0"	"-9999.0"	"33.5"	"0.8"	"5.8"	"9.3"	
"20130213"	"Scattered Clouds"	"12"	"54"	"23.0"	"-5.0"	"0"	"0"	"-9999"	"-9999"	"51"	"partlycloudy"	"METAR KBOS 131754Z VRB05KT 10SM SCT042 04/M05 A2981 RMK AO2 SLP095 T00441050 10044 21011 58014"	"-9999.00"	"-9999.00"	"29.81"	"1009.5"	"0"	"0"	"39.9"	"4.4"	"0"	"0"	"10.0"	"16.1"	"0"	"Variable"	"-9999.0"	"-9999.0"	"35.8"	"2.1"	"5.8"	"9.3"	
"20130213"	"Mostly Cloudy"	"13"	"54"	"23.0"	"-5.0"	"0"	"0"	"-9999"	"-9999"	"51"	"mostlycloudy"	"METAR KBOS 131854Z 27006KT 10SM BKN044 04/M05 A2980 RMK AO2 SLP091 T00441050"	"-9999.00"	"-9999.00"	"29.80"	"1009.1"	"0"	"0"	"39.9"	"4.4"	"0"	"0"	"10.0"	"16.1"	"270"	"West"	"-9999.0"	"-9999.0"	"35.1"	"1.7"	"6.9"	"11.1"	
"20130213"	"Scattered Clouds"	"14"	"54"	"21.9"	"-5.6"	"0"	"0"	"-9999"	"-9999"	"47"	"partlycloudy"	"METAR KBOS 131954Z 27005KT 10SM SCT046 05/M06 A2978 RMK AO2 SLP084 T00501056"	"-9999.00"	"-9999.00"	"29.78"	"1008.4"	"0"	"0"	"41.0"	"5.0"	"0"	"0"	"10.0"	"16.1"	"270"	"West"	"-9999.0"	"-9999.0"	"37.1"	"2.8"	"5.8"	"9.3"	
"20130213"	"Scattered Clouds"	"15"	"54"	"21.9"	"-5.6"	"0"	"0"	"-9999"	"-9999"	"47"	"partlycloudy"	"METAR KBOS 132054Z 29003KT 10SM FEW050 SCT250 05/M06 A2976 RMK AO2 SLP076 T00501056 58019"	"-9999.00"	"-9999.00"	"29.76"	"1007.6"	"0"	"0"	"41.0"	"5.0"	"0"	"0"	"10.0"	"16.1"	"290"	"WNW"	"-9999.0"	"-9999.0"	"39.0"	"3.9"	"3.5"	"5.6"	
"20130213"	"Scattered Clouds"	"16"	"54"	"25.0"	"-3.9"	"0"	"0"	"-9999"	"-9999"	"64"	"partlycloudy"	"METAR KBOS 132154Z 13007KT 10SM FEW065 SCT200 SCT250 02/M04 A2977 RMK AO2 SLP079 T00221039"	"-9999.00"	"-9999.00"	"29.77"	"1007.9"	"0"	"0"	"36.0"	"2.2"	"0"	"0"	"10.0"	"16.1"	"130"	"SE"	"-9999.0"	"-9999.0"	"29.6"	"-1.3"	"8.1"	"13.0"	
"20130213"	"Mostly Cloudy"	"17"	"54"	"26.1"	"-3.3"	"0"	"0"	"-9999"	"-9999"	"70"	"mostlycloudy"	"METAR KBOS 132254Z 13007KT 10SM BKN200 02/M03 A2976 RMK AO2 SLP078 T00171033"	"-9999.00"	"-9999.00"	"29.76"	"1007.8"	"0"	"0"	"35.1"	"1.7"	"0"	"0"	"10.0"	"16.1"	"130"	"SE"	"-9999.0"	"-9999.0"	"28.6"	"-1.9"	"8.1"	"13.0"	
"20130213"	"Overcast"	"18"	"54"	"26.1"	"-3.3"	"0"	"0"	"-9999"	"-9999"	"70"	"cloudy"	"METAR KBOS 132354Z 15006KT 10SM OVC180 02/M03 A2975 RMK AO2 SLP075 T00171033 10056 20017 58001"	"-9999.00"	"-9999.00"	"29.75"	"1007.5"	"0"	"0"	"35.1"	"1.7"	"0"	"0"	"10.0"	"16.1"	"150"	"SSE"	"-9999.0"	"-9999.0"	"29.3"	"-1.5"	"6.9"	"11.1"	
"20130213"	"Overcast"	"19"	"54"	"26.1"	"-3.3"	"0"	"0"	"-9999"	"-9999"	"73"	"cloudy"	"METAR KBOS 140054Z 15003KT 10SM OVC160 01/M03 A2975 RMK AO2 SLP074 T00111033"	"-9999.00"	"-9999.00"	"29.75"	"1007.4"	"0"	"0"	"34.0"	"1.1"	"0"	"0"	"10.0"	"16.1"	"150"	"SSE"	"-9999.0"	"-9999.0"	"31.0"	"-0.6"	"3.5"	"5.6"	
"20130213"	"Overcast"	"20"	"54"	"26.1"	"-3.3"	"0"	"0"	"-9999"	"-9999"	"75"	"cloudy"	"METAR KBOS 140154Z 04003KT 10SM OVC160 01/M03 A2975 RMK AO2 SLP072 T00061033"	"-9999.00"	"-9999.00"	"29.75"	"1007.2"	"0"	"0"	"33.1"	"0.6"	"0"	"0"	"10.0"	"16.1"	"40"	"NE"	"-9999.0"	"-9999.0"	"30.0"	"-1.1"	"3.5"	"5.6"	
"20130213"	"Overcast"	"21"	"54"	"27.0"	"-2.8"	"0"	"0"	"-9999"	"-9999"	"75"	"cloudy"	"METAR KBOS 140254Z 00000KT 10SM OVC100 01/M03 A2973 RMK AO2 SLP067 T00111028 58008"	"-9999.00"	"-9999.00"	"29.73"	"1006.7"	"0"	"0"	"34.0"	"1.1"	"0"	"0"	"10.0"	"16.1"	"0"	"North"	"-9999.0"	"-9999.0"	"-999"	"-999"	"0.0"	"0.0"	
"20130213"	"Overcast"	"22"	"54"	"28.9"	"-1.7"	"0"	"0"	"-9999"	"-9999"	"82"	"cloudy"	"METAR KBOS 140354Z 01004KT 10SM BKN075 BKN095 OVC120 01/M02 A2972 RMK AO2 SLP064 T00111017"	"-9999.00"	"-9999.00"	"29.72"	"1006.4"	"0"	"0"	"34.0"	"1.1"	"0"	"0"	"10.0"	"16.1"	"10"	"North"	"-9999.0"	"-9999.0"	"29.8"	"-1.2"	"4.6"	"7.4"	
"20130213"	"Overcast"	"23"	"54"	"28.0"	"-2.2"	"0"	"0"	"-9999"	"-9999"	"76"	"cloudy"	"METAR KBOS 140454Z 36003KT 10SM SCT070 OVC100 02/M02 A2970 RMK AO2 SLP057 T00171022 400561011"	"-9999.00"	"-9999.00"	"29.70"	"1005.7"	"0"	"0"	"35.1"	"1.7"	"0"	"0"	"10.0"	"16.1"	"360"	"North"	"-9999.0"	"-9999.0"	"32.2"	"0.1"	"3.5"	"5.6"	
"20130212"	"Mostly Cloudy"	"00"	"39"	"37.4"	"3.0"	"0"	"0"	"-9999"	"-9999"	"87"	"mostlycloudy"	"SPECI KBOS 120539Z 28007KT 3SM BR SCT013 BKN100 05/03 A2961 RMK AO2 SFC VIS 6"	"-9999.00"	"-9999.00"	"29.61"	"1002.6"	"0"	"0"	"41.0"	"5.0"	"0"	"0"	"3.0"	"4.8"	"280"	"West"	"-9999.0"	"-9999.0"	"35.8"	"2.1"	"8.1"	"13.0"	
"20130212"	"Mostly Cloudy"	"00"	"54"	"37.9"	"3.3"	"0"	"0"	"-9999"	"-9999"	"93"	"mostlycloudy"	"METAR KBOS 120554Z 28010KT 3SM BR SCT013 BKN100 04/03 A2961 RMK AO2 SFC VIS 6 SLP028 60000 T00440033 10072 20039 56001"	"-9999.00"	"-9999.00"	"29.62"	"1002.8"	"0"	"0"	"39.9"	"4.4"	"0"	"0"	"3.0"	"4.8"	"280"	"West"	"-9999.0"	"-9999.0"	"32.9"	"0.5"	"11.5"	"18.5"	
"20130212"	"Overcast"	"01"	"54"	"34.0"	"1.1"	"0"	"0"	"-9999"	"-9999"	"79"	"cloudy"	"METAR KBOS 120654Z 28010KT 10SM OVC090 04/01 A2962 RMK AO2 SLP029 T00440011"	"-9999.00"	"-9999.00"	"29.62"	"1002.9"	"0"	"0"	"39.9"	"4.4"	"0"	"0"	"10.0"	"16.1"	"280"	"West"	"-9999.0"	"-9999.0"	"32.9"	"0.5"	"11.5"	"18.5"	
"20130212"	"Clear"	"02"	"54"	"28.9"	"-1.7"	"0"	"0"	"-9999"	"-9999"	"67"	"clear"	"METAR KBOS 120754Z 28018G26KT 10SM CLR 04/M02 A2961 RMK AO2 PK WND 29028/0735 SLP025 T00391017"	"-9999.00"	"-9999.00"	"29.61"	"1002.5"	"0"	"0"	"39.0"	"3.9"	"0"	"0"	"10.0"	"16.1"	"280"	"West"	"29.9"	"48.2"	"29.0"	"-1.6"	"20.7"	"33.3"	
"20130212"	"Clear"	"03"	"54"	"28.0"	"-2.2"	"0"	"0"	"-9999"	"-9999"	"68"	"clear"	"METAR KBOS 120854Z 27014KT 10SM CLR 03/M02 A2963 RMK AO2 PK WND 28029/0834 SLP031 T00331022 53004"	"-9999.00"	"-9999.00"	"29.62"	"1003.1"	"0"	"0"	"37.9"	"3.3"	"0"	"0"	"10.0"	"16.1"	"270"	"West"	"-9999.0"	"-9999.0"	"28.9"	"-1.7"	"16.1"	"25.9"	
"20130212"	"Clear"	"04"	"54"	"27.0"	"-2.8"	"0"	"0"	"-9999"	"-9999"	"67"	"clear"	"METAR KBOS 120954Z 27015KT 10SM CLR 03/M03 A2964 RMK AO2 SLP035 T00281028"	"-9999.00"	"-9999.00"	"29.64"	"1003.5"	"0"	"0"	"37.0"	"2.8"	"0"	"0"	"10.0"	"16.1"	"270"	"West"	"-9999.0"	"-9999.0"	"27.4"	"-2.6"	"17.3"	"27.8"	
"20130212"	"Clear"	"05"	"54"	"27.0"	"-2.8"	"0"	"0"	"-9999"	"-9999"	"67"	"clear"	"METAR KBOS 121054Z 28015G18KT 10SM CLR 03/M03 A2965 RMK AO2 SLP040 T00281028"	"-9999.00"	"-9999.00"	"29.65"	"1004.0"	"0"	"0"	"37.0"	"2.8"	"0"	"0"	"10.0"	"16.1"	"280"	"West"	"20.7"	"33.3"	"27.4"	"-2.6"	"17.3"	"27.8"	
"20130212"	"Partly Cloudy"	"06"	"54"	"26.1"	"-3.3"	"0"	"0"	"-9999"	"-9999"	"65"	"partlycloudy"	"METAR KBOS 121154Z 26008G16KT 10SM FEW070 03/M03 A2967 RMK AO2 SLP046 70020 T00281033 10050 20022 53015"	"-9999.00"	"-9999.00"	"29.67"	"1004.6"	"0"	"0"	"37.0"	"2.8"	"0"	"0"	"10.0"	"16.1"	"260"	"West"	"18.4"	"29.6"	"30.4"	"-0.9"	"9.2"	"14.8"	
"20130212"	"Mostly Cloudy"	"07"	"54"	"26.1"	"-3.3"	"0"	"0"	"-9999"	"-9999"	"62"	"mostlycloudy"	"METAR KBOS 121254Z 26012G20KT 10SM BKN048 03/M03 A2969 RMK AO2 SLP053 T00331033"	"-9999.00"	"-9999.00"	"29.69"	"1005.3"	"0"	"0"	"37.9"	"3.3"	"0"	"0"	"10.0"	"16.1"	"260"	"West"	"23.0"	"37.0"	"29.6"	"-1.3"	"13.8"	"22.2"	
"20130212"	"Partly Cloudy"	"08"	"54"	"28.0"	"-2.2"	"0"	"0"	"-9999"	"-9999"	"68"	"partlycloudy"	"METAR KBOS 121354Z 23011G16KT 10SM FEW050 03/M02 A2970 RMK AO2 SLP055 T00331022"	"-9999.00"	"-9999.00"	"29.70"	"1005.5"	"0"	"0"	"37.9"	"3.3"	"0"	"0"	"10.0"	"16.1"	"230"	"SW"	"18.4"	"29.6"	"30.0"	"-1.1"	"12.7"	"20.4"	
"20130212"	"Partly Cloudy"	"09"	"54"	"26.1"	"-3.3"	"0"	"0"	"-9999"	"-9999"	"55"	"partlycloudy"	"METAR KBOS 121454Z 27014G21KT 10SM FEW046 05/M03 A2970 RMK AO2 SLP056 T00501033 51010"	"-9999.00"	"-9999.00"	"29.70"	"1005.6"	"0"	"0"	"41.0"	"5.0"	"0"	"0"	"10.0"	"16.1"	"270"	"West"	"24.2"	"38.9"	"32.8"	"0.4"	"16.1"	"25.9"	
"20130212"	"Scattered Clouds"	"10"	"54"	"25.0"	"-3.9"	"0"	"0"	"-9999"	"-9999"	"51"	"partlycloudy"	"METAR KBOS 121554Z 27013G26KT 10SM SCT049 06/M04 A2970 RMK AO2 PK WND 26027/1523 SLP056 T00561039"	"-9999.00"	"-9999.00"	"29.70"	"1005.6"	"0"	"0"	"42.1"	"5.6"	"0"	"0"	"10.0"	"16.1"	"270"	"West"	"29.9"	"48.2"	"34.5"	"1.4"	"15.0"	"24.1"	
"20130212"	"Scattered Clouds"	"11"	"54"	"24.1"	"-4.4"	"0"	"0"	"-9999"	"-9999"	"47"	"partlycloudy"	"METAR KBOS 121654Z 29020G30KT 10SM SCT049 06/M04 A2969 RMK AO2 PK WND 28030/1646 SLP054 T00611044"	"-9999.00"	"-9999.00"	"29.69"	"1005.4"	"0"	"0"	"43.0"	"6.1"	"0"	"0"	"10.0"	"16.1"	"290"	"WNW"	"34.5"	"55.6"	"33.8"	"1.0"	"23.0"	"37.0"	
"20130212"	"Mostly Cloudy"	"12"	"54"	"25.0"	"-3.9"	"0"	"0"	"-9999"	"-9999"	"49"	"mostlycloudy"	"METAR KBOS 121754Z 28021G27KT 10SM BKN049 06/M04 A2971 RMK AO2 PK WND 28031/1706 SLP059 T00611039 10061 20028 53003"	"-9999.00"	"-9999.00"	"29.71"	"1005.9"	"0"	"0"	"43.0"	"6.1"	"0"	"0"	"10.0"	"16.1"	"280"	"West"	"31.1"	"50.0"	"33.5"	"0.9"	"24.2"	"38.9"	
"20130212"	"Mostly Cloudy"	"13"	"54"	"25.0"	"-3.9"	"0"	"0"	"-9999"	"-9999"	"49"	"mostlycloudy"	"METAR KBOS 121854Z 27017G23KT 10SM BKN049 06/M04 A2971 RMK AO2 PK WND 26029/1811 SLP061 T00611039"	"-9999.00"	"-9999.00"	"29.71"	"1006.1"	"0"	"0"	"43.0"	"6.1"	"0"	"0"	"10.0"	"16.1"	"270"	"West"	"26.5"	"42.6"	"34.5"	"1.4"	"19.6"	"31.5"	
"20130212"	"Mostly Cloudy"	"14"	"54"	"26.1"	"-3.3"	"0"	"0"	"-9999"	"-9999"	"51"	"mostlycloudy"	"METAR KBOS 121954Z 27017G25KT 10SM BKN050 06/M03 A2973 RMK AO2 PK WND 28027/1941 SLP067 T00611033"	"-9999.00"	"-9999.00"	"29.73"	"1006.7"	"0"	"0"	"43.0"	"6.1"	"0"	"0"	"10.0"	"16.1"	"270"	"West"	"28.8"	"46.3"	"34.5"	"1.4"	"19.6"	"31.5"	
"20130212"	"Mostly Cloudy"	"15"	"54"	"26.1"	"-3.3"	"0"	"0"	"-9999"	"-9999"	"55"	"mostlycloudy"	"METAR KBOS 122054Z COR 27016G23KT 10SM BKN042 05/M03 A2975 RMK AO2 PK WND 27027/1955 SLP074 T00501033 53015"	"-9999.00"	"-9999.00"	"29.75"	"1007.4"	"0"	"0"	"41.0"	"5.0"	"0"	"0"	"10.0"	"16.1"	"270"	"West"	"26.5"	"42.6"	"32.2"	"0.1"	"18.4"	"29.6"	
"20130212"	"Mostly Cloudy"	"16"	"54"	"26.1"	"-3.3"	"0"	"0"	"-9999"	"-9999"	"55"	"mostlycloudy"	"METAR KBOS 122154Z 26011G20KT 10SM BKN040 05/M03 A2975 RMK AO2 SLP075 T00501033"	"-9999.00"	"-9999.00"	"29.75"	"1007.5"	"0"	"0"	"41.0"	"5.0"	"0"	"0"	"10.0"	"16.1"	"260"	"West"	"23.0"	"37.0"	"33.9"	"1.0"	"12.7"	"20.4"	
"20130212"	"Mostly Cloudy"	"17"	"54"	"26.1"	"-3.3"	"0"	"0"	"-9999"	"-9999"	"55"	"mostlycloudy"	"METAR KBOS 122254Z 28010G18KT 10SM BKN047 05/M03 A2976 RMK AO2 SLP075 T00501033"	"-9999.00"	"-9999.00"	"29.75"	"1007.5"	"0"	"0"	"41.0"	"5.0"	"0"	"0"	"10.0"	"16.1"	"280"	"West"	"20.7"	"33.3"	"34.3"	"1.3"	"11.5"	"18.5"	
"20130212"	"Mostly Cloudy"	"18"	"54"	"26.1"	"-3.3"	"0"	"0"	"-9999"	"-9999"	"60"	"mostlycloudy"	"METAR KBOS 122354Z 26010G19KT 10SM BKN045 04/M03 A2978 RMK AO2 SLP085 T00391033 10067 20039 53011"	"-9999.00"	"-9999.00"	"29.78"	"1008.5"	"0"	"0"	"39.0"	"3.9"	"0"	"0"	"10.0"	"16.1"	"260"	"West"	"21.9"	"35.2"	"31.8"	"-0.1"	"11.5"	"18.5"	
"20130212"	"Mostly Cloudy"	"19"	"54"	"26.1"	"-3.3"	"0"	"0"	"-9999"	"-9999"	"60"	"mostlycloudy"	"METAR KBOS 130054Z 25016KT 10SM BKN045 04/M03 A2985 RMK AO2 SLP106 T00391033"	"-9999.00"	"-9999.00"	"29.85"	"1010.6"	"0"	"0"	"39.0"	"3.9"	"0"	"0"	"10.0"	"16.1"	"250"	"WSW"	"-9999.0"	"-9999.0"	"29.6"	"-1.3"	"18.4"	"29.6"	
"20130212"	"Overcast"	"20"	"54"	"26.1"	"-3.3"	"0"	"0"	"-9999"	"-9999"	"60"	"cloudy"	"METAR KBOS 130154Z 26013G17KT 10SM OVC041 04/M03 A2988 RMK AO2 SLP117 T00391033"	"-9999.00"	"-9999.00"	"29.88"	"1011.7"	"0"	"0"	"39.0"	"3.9"	"0"	"0"	"10.0"	"16.1"	"260"	"West"	"19.6"	"31.5"	"30.6"	"-0.8"	"15.0"	"24.1"	
"20130212"	"Mostly Cloudy"	"21"	"54"	"25.0"	"-3.9"	"0"	"0"	"-9999"	"-9999"	"60"	"mostlycloudy"	"METAR KBOS 130254Z 28011G16KT 10SM BKN041 03/M04 A2985 RMK AO2 SLP108 T00331039 50023"	"-9999.00"	"-9999.00"	"29.85"	"1010.8"	"0"	"0"	"37.9"	"3.3"	"0"	"0"	"10.0"	"16.1"	"280"	"West"	"18.4"	"29.6"	"30.0"	"-1.1"	"12.7"	"20.4"	
"20130212"	"Partly Cloudy"	"22"	"54"	"25.0"	"-3.9"	"0"	"0"	"-9999"	"-9999"	"62"	"partlycloudy"	"METAR KBOS 130354Z 27009G17KT 10SM FEW040 03/M04 A2984 RMK AO2 SLP103 T00281039"	"-9999.00"	"-9999.00"	"29.84"	"1010.3"	"0"	"0"	"37.0"	"2.8"	"0"	"0"	"10.0"	"16.1"	"270"	"West"	"19.6"	"31.5"	"29.8"	"-1.2"	"10.4"	"16.7"	
"20130212"	"Partly Cloudy"	"23"	"54"	"24.1"	"-4.4"	"0"	"0"	"-9999"	"-9999"	"62"	"partlycloudy"	"METAR KBOS 130454Z 28008KT 10SM FEW045 02/M04 A2983 RMK AO2 SLP100 T00221044 400670022"	"-9999.00"	"-9999.00"	"29.83"	"1010.0"	"0"	"0"	"36.0"	"2.2"	"0"	"0"	"10.0"	"16.1"	"280"	"West"	"-9999.0"	"-9999.0"	"29.0"	"-1.6"	"9.2"	"14.8"	
"20130211"	"Light Snow"	"00"	"03"	"15.8"	"-9.0"	"0"	"0"	"-9999"	"-9999"	"59"	"snow"	"SPECI KBOS 110503Z 26003KT 2 1/2SM -SN FEW001 M02/M09 A3036 RMK AO2 TWR VIS 4 P0000"	"0.00"	"0.0"	"30.36"	"1028.0"	"0"	"1"	"28.4"	"-2.0"	"0"	"0"	"2.5"	"4.0"	"260"	"West"	"-9999.0"	"-9999.0"	"24.6"	"-4.1"	"3.5"	"5.6"	
"20130211"	"Mostly Cloudy"	"00"	"15"	"14.0"	"-10.0"	"0"	"0"	"-9999"	"-9999"	"59"	"mostlycloudy"	"SPECI KBOS 110515Z COR 00000KT 9SM FEW020 BKN250 M03/M10 A3035 RMK AO2 SNE11 P0000"	"0.00"	"0.0"	"30.35"	"1027.7"	"0"	"0"	"26.6"	"-3.0"	"0"	"0"	"9.0"	"14.5"	"0"	"North"	"-9999.0"	"-9999.0"	"-999"	"-999"	"0.0"	"0.0"	
"20130211"	"Mostly Cloudy"	"00"	"54"	"12.0"	"-11.1"	"0"	"0"	"-9999"	"-9999"	"66"	"mostlycloudy"	"METAR KBOS 110554Z 20007KT 10SM FEW020 BKN250 M06/M11 A3035 RMK AO2 SNE11 SLP277 P0000 60000 T10561111 10011 21067 58004"	"0.00"	"0.0"	"30.35"	"1027.7"	"0"	"0"	"21.9"	"-5.6"	"0"	"0"	"10.0"	"16.1"	"200"	"SSW"	"-9999.0"	"-9999.0"	"12.5"	"-10.8"	"8.1"	"13.0"	
"20130211"	"Mostly Cloudy"	"01"	"54"	"15.1"	"-9.4"	"0"	"0"	"-9999"	"-9999"	"66"	"mostlycloudy"	"METAR KBOS 110654Z 18006KT 10SM FEW120 BKN250 M04/M09 A3032 RMK AO2 SLP266 T10391094"	"-9999.00"	"-9999.00"	"30.32"	"1026.6"	"0"	"0"	"25.0"	"-3.9"	"0"	"0"	"10.0"	"16.1"	"180"	"South"	"-9999.0"	"-9999.0"	"17.1"	"-8.3"	"6.9"	"11.1"	
"20130211"	"Mostly Cloudy"	"02"	"54"	"14.0"	"-10.0"	"0"	"0"	"-9999"	"-9999"	"65"	"mostlycloudy"	"METAR KBOS 110754Z 17004KT 10SM FEW120 BKN250 M04/M10 A3029 RMK AO2 SLP257 T10441100"	"-9999.00"	"-9999.00"	"30.29"	"1025.7"	"0"	"0"	"24.1"	"-4.4"	"0"	"0"	"10.0"	"16.1"	"170"	"South"	"-9999.0"	"-9999.0"	"18.2"	"-7.7"	"4.6"	"7.4"	
"20130211"	"Mostly Cloudy"	"03"	"54"	"15.1"	"-9.4"	"0"	"0"	"-9999"	"-9999"	"69"	"mostlycloudy"	"METAR KBOS 110854Z 19005KT 10SM FEW120 BKN250 M04/M09 A3029 RMK AO2 SLP254 60000 T10441094 56023"	"-9999.00"	"-9999.00"	"30.28"	"1025.4"	"0"	"0"	"24.1"	"-4.4"	"0"	"0"	"10.0"	"16.1"	"190"	"South"	"-9999.0"	"-9999.0"	"17.0"	"-8.3"	"5.8"	"9.3"	
"20130211"	"Overcast"	"04"	"54"	"16.0"	"-8.9"	"0"	"0"	"-9999"	"-9999"	"69"	"cloudy"	"METAR KBOS 110954Z 17005KT 10SM BKN130 OVC250 M04/M09 A3027 RMK AO2 SLP248 T10391089"	"-9999.00"	"-9999.00"	"30.27"	"1024.8"	"0"	"0"	"25.0"	"-3.9"	"0"	"0"	"10.0"	"16.1"	"170"	"South"	"-9999.0"	"-9999.0"	"18.1"	"-7.7"	"5.8"	"9.3"	
"20130211"	"Overcast"	"05"	"54"	"17.1"	"-8.3"	"0"	"0"	"-9999"	"-9999"	"69"	"cloudy"	"METAR KBOS 111054Z 19006KT 9SM BKN130 OVC250 M03/M08 A3026 RMK AO2 SLP244 T10331083"	"-9999.00"	"-9999.00"	"30.25"	"1024.4"	"0"	"0"	"26.1"	"-3.3"	"0"	"0"	"9.0"	"14.5"	"190"	"South"	"-9999.0"	"-9999.0"	"18.4"	"-7.5"	"6.9"	"11.1"	
"20130211"	"Overcast"	"06"	"54"	"19.0"	"-7.2"	"0"	"0"	"-9999"	"-9999"	"72"	"cloudy"	"METAR KBOS 111154Z 18007KT 10SM BKN100 OVC140 M03/M07 A3023 RMK AO2 SLP237 60000 T10281072 11028 21067 58017"	"-9999.00"	"-9999.00"	"30.23"	"1023.7"	"0"	"0"	"27.0"	"-2.8"	"0"	"0"	"10.0"	"16.1"	"180"	"South"	"-9999.0"	"-9999.0"	"18.7"	"-7.4"	"8.1"	"13.0"	
"20130211"	"Overcast"	"07"	"54"	"21.0"	"-6.1"	"0"	"0"	"-9999"	"-9999"	"75"	"cloudy"	"METAR KBOS 111254Z 17006KT 10SM BKN065 OVC080 M02/M06 A3021 RMK AO2 SLP228 T10221061"	"-9999.00"	"-9999.00"	"30.21"	"1022.8"	"0"	"0"	"28.0"	"-2.2"	"0"	"0"	"10.0"	"16.1"	"170"	"South"	"-9999.0"	"-9999.0"	"20.8"	"-6.2"	"6.9"	"11.1"	
"20130211"	"Light Snow"	"08"	"54"	"23.0"	"-5.0"	"0"	"0"	"-9999"	"-9999"	"75"	"snow"	"METAR KBOS 111354Z 16009KT 150V220 5SM -SNPL FEW030 OVC050 M01/M05 A3017 RMK AO2 SNB43PLB51 SLP215 P0000 T10111050"	"0.00"	"0.0"	"30.17"	"1021.5"	"0"	"1"	"30.0"	"-1.1"	"0"	"0"	"5.0"	"8.0"	"160"	"SSE"	"-9999.0"	"-9999.0"	"21.1"	"-6.1"	"10.4"	"16.7"	
"20130211"	"Light Freezing Rain"	"09"	"32"	"26.6"	"-3.0"	"0"	"0"	"-9999"	"-9999"	"80"	"sleet"	"SPECI KBOS 111432Z 15010KT 7SM -FZRAPL OVC055 00/M03 A3013 RMK AO2 FZRAB26SNE25 P0002"	"0.02"	"0.5"	"30.13"	"1020.2"	"1"	"0"	"32.0"	"0.0"	"0"	"0"	"7.0"	"11.3"	"150"	"SSE"	"-9999.0"	"-9999.0"	"23.0"	"-5.0"	"11.5"	"18.5"	
"20130211"	"Light Ice Pellets"	"09"	"54"	"28.0"	"-2.2"	"0"	"0"	"-9999"	"-9999"	"82"	"sleet"	"METAR KBOS 111454Z COR 15010KT 10SM -PLFZRA FEW027 OVC065 01/M02 A3011 RMK AO2 PRESFR SLP194 FZRAB26SNE25 P0002 60002 T00061022 58043"	"0.02"	"0.5"	"30.11"	"1019.4"	"1"	"0"	"33.1"	"0.6"	"0"	"0"	"10.0"	"16.1"	"150"	"SSE"	"-9999.0"	"-9999.0"	"24.4"	"-4.2"	"11.5"	"18.5"	
"20130211"	"Light Rain"	"09"	"59"	"28.4"	"-2.0"	"0"	"0"	"-9999"	"-9999"	"81"	"rain"	"SPECI KBOS 111459Z 14009KT 9SM -RA FEW027 OVC065 01/M02 A3010 RMK AO2 PRESFR RAB56PLE56FZRAE56 P0000"	"0.00"	"0.0"	"30.10"	"1019.2"	"1"	"0"	"33.8"	"1.0"	"0"	"0"	"9.0"	"14.5"	"140"	"SE"	"-9999.0"	"-9999.0"	"25.8"	"-3.4"	"10.4"	"16.7"	
"20130211"	"Light Rain"	"10"	"54"	"30.9"	"-0.6"	"0"	"0"	"-9999"	"-9999"	"89"	"rain"	"METAR KBOS 111554Z 14008KT 6SM -RA BR FEW028 OVC034 01/M01 A3005 RMK AO2 SLP176 RAB56PLE56FZRAE56 P0003 T00111006"	"0.03"	"0.8"	"30.05"	"1017.6"	"1"	"0"	"34.0"	"1.1"	"0"	"0"	"6.0"	"9.7"	"140"	"SE"	"-9999.0"	"-9999.0"	"26.6"	"-3.0"	"9.2"	"14.8"	
"20130211"	"Light Rain"	"11"	"32"	"32.0"	"0.0"	"0"	"0"	"-9999"	"-9999"	"87"	"rain"	"SPECI KBOS 111632Z 15008KT 6SM -RA BR SCT015 BKN021 OVC029 02/00 A3000 RMK AO2 PRESFR P0002"	"0.02"	"0.5"	"30.00"	"1015.8"	"1"	"0"	"35.6"	"2.0"	"0"	"0"	"6.0"	"9.7"	"150"	"SSE"	"-9999.0"	"-9999.0"	"28.6"	"-1.9"	"9.2"	"14.8"	
"20130211"	"Light Rain"	"11"	"44"	"32.0"	"0.0"	"0"	"0"	"-9999"	"-9999"	"87"	"rain"	"SPECI KBOS 111644Z 14007KT 5SM -RA BR BKN013 OVC020 02/00 A2999 RMK AO2 P0002"	"0.02"	"0.5"	"29.99"	"1015.5"	"1"	"0"	"35.6"	"2.0"	"0"	"0"	"5.0"	"8.0"	"140"	"SE"	"-9999.0"	"-9999.0"	"29.2"	"-1.5"	"8.1"	"13.0"	
"20130211"	"Light Rain"	"11"	"54"	"32.0"	"0.0"	"0"	"0"	"-9999"	"-9999"	"89"	"rain"	"METAR KBOS 111654Z 14007KT 2SM -RA BR BKN011 OVC018 02/00 A2997 RMK AO2 SFC VIS 3 UPB50E54 PRESFR SLP149 P0002 T00170000"	"0.02"	"0.5"	"29.97"	"1014.9"	"1"	"0"	"35.1"	"1.7"	"0"	"0"	"2.0"	"3.2"	"140"	"SE"	"-9999.0"	"-9999.0"	"28.6"	"-1.9"	"8.1"	"13.0"	
"20130211"	"Light Rain"	"12"	"17"	"33.8"	"1.0"	"0"	"0"	"-9999"	"-9999"	"93"	"rain"	"SPECI KBOS 111717Z 14005KT 2SM -RA BR OVC009 02/01 A2994 RMK AO2 SFC VIS 4 P0001"	"0.01"	"0.3"	"29.94"	"1013.8"	"1"	"0"	"35.6"	"2.0"	"0"	"0"	"2.0"	"3.2"	"140"	"SE"	"-9999.0"	"-9999.0"	"30.7"	"-0.7"	"5.8"	"9.3"	
"20130211"	"Light Rain"	"12"	"54"	"35.1"	"1.7"	"0"	"0"	"-9999"	"-9999"	"97"	"rain"	"METAR KBOS 111754Z 16006KT 2SM -RA BR OVC007 02/02 A2990 RMK AO2 SFC VIS 3 SLP125 P0003 60010 T00220017 10022 21028 58069"	"0.03"	"0.8"	"29.90"	"1012.5"	"1"	"0"	"36.0"	"2.2"	"0"	"0"	"2.0"	"3.2"	"160"	"SSE"	"-9999.0"	"-9999.0"	"30.3"	"-0.9"	"6.9"	"11.1"	
"20130211"	"Light Rain"	"13"	"54"	"37.0"	"2.8"	"0"	"0"	"-9999"	"-9999"	"93"	"rain"	"METAR KBOS 111854Z 19008KT 2SM -RA BR OVC007 04/03 A2983 RMK AO2 SFC VIS 4 SLP102 P0004 T00390028"	"0.04"	"1.0"	"29.83"	"1010.2"	"1"	"0"	"39.0"	"3.9"	"0"	"0"	"2.0"	"3.2"	"190"	"South"	"-9999.0"	"-9999.0"	"32.8"	"0.4"	"9.2"	"14.8"	
"20130211"	"Light Rain"	"14"	"54"	"37.9"	"3.3"	"0"	"0"	"-9999"	"-9999"	"93"	"rain"	"METAR KBOS 111954Z 19009KT 2SM -RA BR SCT009 BKN013 OVC028 04/03 A2979 RMK AO2 SFC VIS 3 SLP086 P0001 T00440033"	"0.01"	"0.3"	"29.79"	"1008.6"	"1"	"0"	"39.9"	"4.4"	"0"	"0"	"2.0"	"3.2"	"190"	"South"	"-9999.0"	"-9999.0"	"33.4"	"0.8"	"10.4"	"16.7"	
"20130211"	"Light Rain"	"15"	"03"	"39.2"	"4.0"	"0"	"0"	"-9999"	"-9999"	"93"	"rain"	"SPECI KBOS 112003Z 20009KT 6SM -RA BR SCT009 BKN013 OVC028 05/04 A2978 RMK AO2 P0000"	"0.00"	"0.0"	"29.78"	"1008.4"	"1"	"0"	"41.0"	"5.0"	"0"	"0"	"6.0"	"9.7"	"200"	"SSW"	"-9999.0"	"-9999.0"	"34.7"	"1.5"	"10.4"	"16.7"	
"20130211"	"Overcast"	"15"	"54"	"41.0"	"5.0"	"0"	"0"	"-9999"	"-9999"	"96"	"cloudy"	"METAR KBOS 112054Z 21006KT 10SM SCT009 BKN013 OVC033 06/05 A2976 RMK AO2 RAE50 SLP076 P0000 60005 T00560050 56049"	"0.00"	"0.0"	"29.76"	"1007.6"	"0"	"0"	"42.1"	"5.6"	"0"	"0"	"10.0"	"16.1"	"210"	"SSW"	"-9999.0"	"-9999.0"	"37.7"	"3.2"	"6.9"	"11.1"	
"20130211"	"Light Rain"	"16"	"19"	"41.0"	"5.0"	"0"	"0"	"-9999"	"-9999"	"93"	"rain"	"SPECI KBOS 112119Z 22007KT 2 1/2SM -RA BR BKN009 BKN013 OVC033 06/05 A2975 RMK AO2 SFC VIS 4 VIS 1/2 E RAB2059 P0001"	"0.01"	"0.3"	"29.75"	"1007.3"	"1"	"0"	"42.8"	"6.0"	"0"	"0"	"2.5"	"4.0"	"220"	"SW"	"-9999.0"	"-9999.0"	"38.0"	"3.3"	"8.1"	"13.0"	
"20130211"	"Light Rain"	"16"	"38"	"42.8"	"6.0"	"0"	"0"	"-9999"	"-9999"	"100"	"rain"	"SPECI KBOS 112138Z 21006KT 1 3/4SM -RA BR OVC007 06/06 A2973 RMK AO2 TWR VIS 2 1/2 VIS 1/4 E RAB2059 P0005"	"0.05"	"1.3"	"29.73"	"1006.7"	"1"	"0"	"42.8"	"6.0"	"0"	"0"	"1.8"	"2.8"	"210"	"SSW"	"-9999.0"	"-9999.0"	"38.6"	"3.7"	"6.9"	"11.1"	
"20130211"	"Overcast"	"16"	"52"	"41.0"	"5.0"	"0"	"0"	"-9999"	"-9999"	"93"	"cloudy"	"SPECI KBOS 112152Z 20005KT 2 1/2SM BR OVC007 06/05 A2973 RMK AO2 SFC VIS 3 VIS 1/4 E RAB2059E51 P0005"	"0.05"	"1.3"	"29.73"	"1006.7"	"0"	"0"	"42.8"	"6.0"	"0"	"0"	"2.5"	"4.0"	"200"	"SSW"	"-9999.0"	"-9999.0"	"39.3"	"4.0"	"5.8"	"9.3"	
"20130211"	"Overcast"	"16"	"54"	"41.0"	"5.0"	"0"	"0"	"-9999"	"-9999"	"96"	"cloudy"	"METAR KBOS 112154Z 21006KT 2SM BR OVC007 06/05 A2973 RMK AO2 TWR VIS 2 1/2 VIS 1/4 E RAB2059E51 SLP065 P0005 T00560050"	"0.05"	"1.3"	"29.73"	"1006.5"	"0"	"0"	"42.1"	"5.6"	"0"	"0"	"2.0"	"3.2"	"210"	"SSW"	"-9999.0"	"-9999.0"	"37.7"	"3.2"	"6.9"	"11.1"	
"20130211"	"Overcast"	"17"	"48"	"41.0"	"5.0"	"0"	"0"	"-9999"	"-9999"	"93"	"cloudy"	"SPECI KBOS 112248Z 23005KT 2 1/2SM R04R/2200VP6000FT BR OVC007 06/05 A2971 RMK AO2 VIS 1/4 E DZB09E26 P0000"	"0.00"	"0.0"	"29.71"	"1006.0"	"0"	"0"	"42.8"	"6.0"	"0"	"0"	"2.5"	"4.0"	"230"	"SW"	"-9999.0"	"-9999.0"	"39.3"	"4.0"	"5.8"	"9.3"	
"20130211"	"Overcast"	"17"	"54"	"43.0"	"6.1"	"0"	"0"	"-9999"	"-9999"	"93"	"cloudy"	"METAR KBOS 112254Z VRB04KT 2 1/2SM R04R/2000VP6000FT BR OVC007 07/06 A2970 RMK AO2 SFC VIS 4 DZB09E26 SLP057 P0000 T00720061"	"0.00"	"0.0"	"29.70"	"1005.7"	"0"	"0"	"45.0"	"7.2"	"0"	"0"	"2.5"	"4.0"	"0"	"Variable"	"-9999.0"	"-9999.0"	"42.6"	"5.9"	"4.6"	"7.4"	
"20130211"	"Overcast"	"18"	"12"	"42.8"	"6.0"	"0"	"0"	"-9999"	"-9999"	"100"	"cloudy"	"SPECI KBOS 112312Z 20005KT 1SM R04R/P6000FT BR OVC005 06/06 A2970 RMK AO2 TWR VIS 2 1/2 VIS 1/4 E"	"-9999.00"	"-9999.00"	"29.70"	"1005.6"	"0"	"0"	"42.8"	"6.0"	"0"	"0"	"1.0"	"1.6"	"200"	"SSW"	"-9999.0"	"-9999.0"	"39.3"	"4.0"	"5.8"	"9.3"	
"20130211"	"Overcast"	"18"	"23"	"41.0"	"5.0"	"0"	"0"	"-9999"	"-9999"	"93"	"cloudy"	"SPECI KBOS 112323Z 19004KT 3/4SM R04R/3000VP6000FT BR OVC005 06/05 A2969 RMK AO2 TWR VIS 2 1/2"	"-9999.00"	"-9999.00"	"29.69"	"1005.3"	"0"	"0"	"42.8"	"6.0"	"0"	"0"	"0.8"	"1.2"	"190"	"South"	"-9999.0"	"-9999.0"	"40.1"	"4.5"	"4.6"	"7.4"	
"20130211"	"Fog"	"18"	"49"	"39.2"	"4.0"	"1"	"0"	"-9999"	"-9999"	"100"	"fog"	"SPECI KBOS 112349Z 21005KT 1/2SM R04R/2200V4000FT FG SCT005 OVC012 04/04 A2969 RMK AO2 TWR VIS 2 1/2"	"-9999.00"	"-9999.00"	"29.69"	"1005.3"	"0"	"0"	"39.2"	"4.0"	"0"	"0"	"0.5"	"0.8"	"210"	"SSW"	"-9999.0"	"-9999.0"	"35.0"	"1.7"	"5.8"	"9.3"	
"20130211"	"Light Drizzle"	"18"	"54"	"39.9"	"4.4"	"0"	"0"	"-9999"	"-9999"	"92"	"rain"	"METAR KBOS 112354Z 21005KT 1SM R04R/2400VP6000FT -DZ BR FEW005 OVC012 06/04 A2969 RMK AO2 TWR VIS 2 1/2 DZB50 SLP052 P0000 60010 T00560044 10072 20022 56014"	"0.00"	"0.0"	"29.69"	"1005.2"	"0"	"0"	"42.1"	"5.6"	"0"	"0"	"1.0"	"1.6"	"210"	"SSW"	"-9999.0"	"-9999.0"	"38.4"	"3.6"	"5.8"	"9.3"	
"20130211"	"Overcast"	"19"	"24"	"39.2"	"4.0"	"0"	"0"	"-9999"	"-9999"	"87"	"cloudy"	"SPECI KBOS 120024Z 23006KT 2 1/2SM BR OVC012 06/04 A2968 RMK AO2 SFC VIS 4 VIS 1/4 E DZE24 P0000"	"0.00"	"0.0"	"29.68"	"1005.0"	"0"	"0"	"42.8"	"6.0"	"0"	"0"	"2.5"	"4.0"	"230"	"SW"	"-9999.0"	"-9999.0"	"38.6"	"3.7"	"6.9"	"11.1"	
"20130211"	"Overcast"	"19"	"54"	"42.1"	"5.6"	"0"	"0"	"-9999"	"-9999"	"100"	"cloudy"	"METAR KBOS 120054Z 23004KT 2 1/2SM BR OVC010 06/06 A2966 RMK AO2 SFC VIS 3 VIS 1/4 E DZE24 SLP043 P0000 T00560056"	"0.00"	"0.0"	"29.66"	"1004.3"	"0"	"0"	"42.1"	"5.6"	"0"	"0"	"2.5"	"4.0"	"230"	"SW"	"-9999.0"	"-9999.0"	"39.2"	"4.0"	"4.6"	"7.4"	
"20130211"	"Overcast"	"20"	"51"	"39.2"	"4.0"	"0"	"0"	"-9999"	"-9999"	"93"	"cloudy"	"SPECI KBOS 120151Z 22004KT 2 1/2SM R04R/6000VP6000FT BR OVC008 05/04 A2964 RMK AO2 SFC VIS 3 VIS 1/2 E"	"-9999.00"	"-9999.00"	"29.64"	"1003.6"	"0"	"0"	"41.0"	"5.0"	"0"	"0"	"2.5"	"4.0"	"220"	"SW"	"-9999.0"	"-9999.0"	"38.0"	"3.3"	"4.6"	"7.4"	
"20130211"	"Overcast"	"20"	"54"	"41.0"	"5.0"	"0"	"0"	"-9999"	"-9999"	"96"	"cloudy"	"METAR KBOS 120154Z 23006KT 2 1/2SM R04R/6000VP6000FT BR OVC008 06/05 A2964 RMK AO2 SFC VIS 3 VIS 1/2 E SLP035 T00560050"	"-9999.00"	"-9999.00"	"29.64"	"1003.5"	"0"	"0"	"42.1"	"5.6"	"0"	"0"	"2.5"	"4.0"	"230"	"SW"	"-9999.0"	"-9999.0"	"37.7"	"3.2"	"6.9"	"11.1"	
"20130211"	"Overcast"	"21"	"54"	"41.0"	"5.0"	"0"	"0"	"-9999"	"-9999"	"93"	"cloudy"	"METAR KBOS 120254Z 23008KT 2 1/2SM BR OVC008 06/05 A2962 RMK AO2 SFC VIS 6 SLP029 60000 T00610050 56015"	"-9999.00"	"-9999.00"	"29.62"	"1002.9"	"0"	"0"	"43.0"	"6.1"	"0"	"0"	"2.5"	"4.0"	"230"	"SW"	"-9999.0"	"-9999.0"	"37.7"	"3.2"	"9.2"	"14.8"	
"20130211"	"Overcast"	"22"	"19"	"42.8"	"6.0"	"0"	"0"	"-9999"	"-9999"	"93"	"cloudy"	"SPECI KBOS 120319Z 26009KT 6SM BR OVC008 07/06 A2962 RMK AO2"	"-9999.00"	"-9999.00"	"29.62"	"1002.9"	"0"	"0"	"44.6"	"7.0"	"0"	"0"	"6.0"	"9.7"	"260"	"West"	"-9999.0"	"-9999.0"	"39.2"	"4.0"	"10.4"	"16.7"	
"20130211"	"Overcast"	"22"	"54"	"37.9"	"3.3"	"0"	"0"	"-9999"	"-9999"	"93"	"cloudy"	"METAR KBOS 120354Z 31006KT 3SM BR OVC008 04/03 A2961 RMK AO2 SFC VIS 6 SLP026 T00440033"	"-9999.00"	"-9999.00"	"29.61"	"1002.6"	"0"	"0"	"39.9"	"4.4"	"0"	"0"	"3.0"	"4.8"	"310"	"NW"	"-9999.0"	"-9999.0"	"35.1"	"1.7"	"6.9"	"11.1"	
"20130211"	"Overcast"	"23"	"54"	"37.9"	"3.3"	"0"	"0"	"-9999"	"-9999"	"96"	"cloudy"	"METAR KBOS 120454Z 29007KT 3SM BR OVC008 04/03 A2962 RMK AO2 SFC VIS 5 SLP029 T00390033 400721067"	"-9999.00"	"-9999.00"	"29.62"	"1002.9"	"0"	"0"	"39.0"	"3.9"	"0"	"0"	"3.0"	"4.8"	"290"	"WNW"	"-9999.0"	"-9999.0"	"33.4"	"0.8"	"8.1"	"13.0"	
"20130210"	"Clear"	"00"	"54"	"1.9"	"-16.7"	"0"	"0"	"-9999"	"-9999"	"56"	"clear"	"METAR KBOS 100554Z 31015G22KT 10SM CLR M09/M17 A3020 RMK AO2 PK WND 32026/0526 SLP226 T10941167 11072 21094 53020 $"	"-9999.00"	"-9999.00"	"30.20"	"1022.6"	"0"	"0"	"15.1"	"-9.4"	"0"	"0"	"10.0"	"16.1"	"310"	"NW"	"25.3"	"40.7"	"-1.1"	"-18.4"	"17.3"	"27.8"	
"20130210"	"Clear"	"01"	"54"	"1.9"	"-16.7"	"0"	"0"	"-9999"	"-9999"	"56"	"clear"	"METAR KBOS 100654Z 31012G22KT 10SM CLR M09/M17 A3022 RMK AO2 PK WND 31026/0617 SLP233 T10941167 $"	"-9999.00"	"-9999.00"	"30.22"	"1023.3"	"0"	"0"	"15.1"	"-9.4"	"0"	"0"	"10.0"	"16.1"	"310"	"NW"	"25.3"	"40.7"	"0.5"	"-17.5"	"13.8"	"22.2"	
"20130210"	"Clear"	"02"	"54"	"1.9"	"-16.7"	"0"	"0"	"-9999"	"-9999"	"54"	"clear"	"METAR KBOS 100754Z 32013KT 10SM CLR M09/M17 A3023 RMK AO2 SLP235 T10891167 $"	"-9999.00"	"-9999.00"	"30.23"	"1023.5"	"0"	"0"	"16.0"	"-8.9"	"0"	"0"	"10.0"	"16.1"	"320"	"NW"	"-9999.0"	"-9999.0"	"1.1"	"-17.2"	"15.0"	"24.1"	
"20130210"	"Clear"	"03"	"54"	"1.9"	"-16.7"	"0"	"0"	"-9999"	"-9999"	"54"	"clear"	"METAR KBOS 100854Z 31017KT 10SM CLR M09/M17 A3025 RMK AO2 SLP243 T10891167 53017 $"	"-9999.00"	"-9999.00"	"30.25"	"1024.3"	"0"	"0"	"16.0"	"-8.9"	"0"	"0"	"10.0"	"16.1"	"310"	"NW"	"-9999.0"	"-9999.0"	"-0.9"	"-18.3"	"19.6"	"31.5"	
"20130210"	"Clear"	"04"	"54"	"1.0"	"-17.2"	"0"	"0"	"-9999"	"-9999"	"52"	"clear"	"METAR KBOS 100954Z 31011KT 10SM CLR M09/M17 A3028 RMK AO2 SLP253 T10891172 $"	"-9999.00"	"-9999.00"	"30.28"	"1025.3"	"0"	"0"	"16.0"	"-8.9"	"0"	"0"	"10.0"	"16.1"	"310"	"NW"	"-9999.0"	"-9999.0"	"2.3"	"-16.5"	"12.7"	"20.4"	
"20130210"	"Partly Cloudy"	"05"	"54"	"-0.0"	"-17.8"	"0"	"0"	"-9999"	"-9999"	"51"	"partlycloudy"	"METAR KBOS 101054Z 30010KT 10SM FEW030 M09/M18 A3031 RMK AO2 SLP263 T10941178 $"	"-9999.00"	"-9999.00"	"30.31"	"1026.3"	"0"	"0"	"15.1"	"-9.4"	"0"	"0"	"10.0"	"16.1"	"300"	"WNW"	"-9999.0"	"-9999.0"	"1.8"	"-16.8"	"11.5"	"18.5"	
"20130210"	"Partly Cloudy"	"06"	"54"	"1.0"	"-17.2"	"0"	"0"	"-9999"	"-9999"	"54"	"partlycloudy"	"METAR KBOS 101154Z 31010KT 10SM FEW030 M09/M17 A3033 RMK AO2 SLP270 70001 T10941172 11089 21094 51027 $"	"-9999.00"	"-9999.00"	"30.33"	"1027.0"	"0"	"0"	"15.1"	"-9.4"	"0"	"0"	"10.0"	"16.1"	"310"	"NW"	"-9999.0"	"-9999.0"	"1.8"	"-16.8"	"11.5"	"18.5"	
"20130210"	"Partly Cloudy"	"07"	"54"	"1.9"	"-16.7"	"0"	"0"	"-9999"	"-9999"	"54"	"partlycloudy"	"METAR KBOS 101254Z 32007KT 10SM FEW030 M09/M17 A3036 RMK AO2 SLP281 T10891167 $"	"-9999.00"	"-9999.00"	"30.36"	"1028.1"	"0"	"0"	"16.0"	"-8.9"	"0"	"0"	"10.0"	"16.1"	"320"	"NW"	"-9999.0"	"-9999.0"	"5.3"	"-14.8"	"8.1"	"13.0"	
"20130210"	"Partly Cloudy"	"08"	"54"	"1.0"	"-17.2"	"0"	"0"	"-9999"	"-9999"	"46"	"partlycloudy"	"METAR KBOS 101354Z 31007KT 10SM FEW030 M07/M17 A3038 RMK AO2 SLP286 T10721172"	"-9999.00"	"-9999.00"	"30.38"	"1028.6"	"0"	"0"	"19.0"	"-7.2"	"0"	"0"	"10.0"	"16.1"	"310"	"NW"	"-9999.0"	"-9999.0"	"9.0"	"-12.8"	"8.1"	"13.0"	
"20130210"	"Partly Cloudy"	"09"	"54"	"1.0"	"-17.2"	"0"	"0"	"-9999"	"-9999"	"40"	"partlycloudy"	"METAR KBOS 101454Z 30009KT 10SM FEW030 M06/M17 A3040 RMK AO2 SLP293 T10561172 51023"	"-9999.00"	"-9999.00"	"30.40"	"1029.3"	"0"	"0"	"21.9"	"-5.6"	"0"	"0"	"10.0"	"16.1"	"300"	"WNW"	"-9999.0"	"-9999.0"	"11.0"	"-11.6"	"10.4"	"16.7"	
"20130210"	"Partly Cloudy"	"10"	"54"	"8.1"	"-13.3"	"0"	"0"	"-9999"	"-9999"	"49"	"partlycloudy"	"METAR KBOS 101554Z 30007KT 10SM FEW250 M04/M13 A3039 RMK AO2 SLP290 T10391133"	"-9999.00"	"-9999.00"	"30.39"	"1029.0"	"0"	"0"	"25.0"	"-3.9"	"0"	"0"	"10.0"	"16.1"	"300"	"WNW"	"-9999.0"	"-9999.0"	"16.3"	"-8.7"	"8.1"	"13.0"	
"20130210"	"Partly Cloudy"	"11"	"54"	"3.0"	"-16.1"	"0"	"0"	"-9999"	"-9999"	"33"	"partlycloudy"	"METAR KBOS 101654Z 31008KT 10SM FEW250 M02/M16 A3038 RMK AO2 SLP287 T10171161"	"-9999.00"	"-9999.00"	"30.38"	"1028.7"	"0"	"0"	"28.9"	"-1.7"	"0"	"0"	"10.0"	"16.1"	"310"	"NW"	"-9999.0"	"-9999.0"	"20.4"	"-6.4"	"9.2"	"14.8"	
"20130210"	"Partly Cloudy"	"12"	"54"	"3.0"	"-16.1"	"0"	"0"	"-9999"	"-9999"	"28"	"partlycloudy"	"METAR KBOS 101754Z 32006KT 10SM FEW250 01/M16 A3037 RMK AO2 SLP282 T00061161 10006 21094 58011"	"-9999.00"	"-9999.00"	"30.37"	"1028.2"	"0"	"0"	"33.1"	"0.6"	"0"	"0"	"10.0"	"16.1"	"320"	"NW"	"-9999.0"	"-9999.0"	"26.9"	"-2.8"	"6.9"	"11.1"	
"20130210"	"Partly Cloudy"	"13"	"54"	"5.0"	"-15.0"	"0"	"0"	"-9999"	"-9999"	"27"	"partlycloudy"	"METAR KBOS 101854Z 00000KT 10SM FEW250 02/M15 A3034 RMK AO2 SLP274 T00221150"	"-9999.00"	"-9999.00"	"30.34"	"1027.4"	"0"	"0"	"36.0"	"2.2"	"0"	"0"	"10.0"	"16.1"	"0"	"North"	"-9999.0"	"-9999.0"	"-999"	"-999"	"0.0"	"0.0"	
"20130210"	"Clear"	"14"	"54"	"15.1"	"-9.4"	"0"	"0"	"-9999"	"-9999"	"50"	"clear"	"METAR KBOS 101954Z 14005KT 10SM CLR 00/M09 A3034 RMK AO2 SLP274 T00001094"	"-9999.00"	"-9999.00"	"30.34"	"1027.4"	"0"	"0"	"32.0"	"0.0"	"0"	"0"	"10.0"	"16.1"	"140"	"SE"	"-9999.0"	"-9999.0"	"26.4"	"-3.1"	"5.8"	"9.3"	
"20130210"	"Partly Cloudy"	"15"	"54"	"15.1"	"-9.4"	"0"	"0"	"-9999"	"-9999"	"48"	"partlycloudy"	"METAR KBOS 102054Z 16003KT 10SM FEW220 01/M09 A3035 RMK AO2 SLP277 T00061094 55004"	"-9999.00"	"-9999.00"	"30.35"	"1027.7"	"0"	"0"	"33.1"	"0.6"	"0"	"0"	"10.0"	"16.1"	"160"	"SSE"	"-9999.0"	"-9999.0"	"30.0"	"-1.1"	"3.5"	"5.6"	
"20130210"	"Scattered Clouds"	"16"	"54"	"14.0"	"-10.0"	"0"	"0"	"-9999"	"-9999"	"51"	"partlycloudy"	"METAR KBOS 102154Z 23005KT 10SM FEW130 SCT220 M01/M10 A3035 RMK AO2 SLP276 T10111100"	"-9999.00"	"-9999.00"	"30.35"	"1027.6"	"0"	"0"	"30.0"	"-1.1"	"0"	"0"	"10.0"	"16.1"	"230"	"SW"	"-9999.0"	"-9999.0"	"24.1"	"-4.4"	"5.8"	"9.3"	
"20130210"	"Partly Cloudy"	"17"	"54"	"7.0"	"-13.9"	"0"	"0"	"-9999"	"-9999"	"31"	"partlycloudy"	"METAR KBOS 102254Z 23006KT 10SM FEW150 02/M14 A3036 RMK AO2 SLP279 T00171139"	"-9999.00"	"-9999.00"	"30.36"	"1027.9"	"0"	"0"	"35.1"	"1.7"	"0"	"0"	"10.0"	"16.1"	"230"	"SW"	"-9999.0"	"-9999.0"	"29.3"	"-1.5"	"6.9"	"11.1"	
"20130210"	"Clear"	"18"	"54"	"10.9"	"-11.7"	"0"	"0"	"-9999"	"-9999"	"43"	"clear"	"METAR KBOS 102354Z 00000KT 10SM CLR M01/M12 A3037 RMK AO2 SLP282 T10061117 10022 21017 53005"	"-9999.00"	"-9999.00"	"30.37"	"1028.2"	"0"	"0"	"30.9"	"-0.6"	"0"	"0"	"10.0"	"16.1"	"0"	"North"	"-9999.0"	"-9999.0"	"-999"	"-999"	"0.0"	"0.0"	
"20130210"	"Clear"	"19"	"54"	"12.9"	"-10.6"	"0"	"0"	"-9999"	"-9999"	"47"	"clear"	"METAR KBOS 110054Z 21008KT 10SM CLR M01/M11 A3036 RMK AO2 SLP281 T10061106"	"-9999.00"	"-9999.00"	"30.36"	"1028.1"	"0"	"0"	"30.9"	"-0.6"	"0"	"0"	"10.0"	"16.1"	"210"	"SSW"	"-9999.0"	"-9999.0"	"22.8"	"-5.1"	"9.2"	"14.8"	
"20130210"	"Clear"	"20"	"54"	"10.0"	"-12.2"	"0"	"0"	"-9999"	"-9999"	"45"	"clear"	"METAR KBOS 110154Z 21005KT 10SM CLR M02/M12 A3037 RMK AO2 SLP282 T10171122"	"-9999.00"	"-9999.00"	"30.37"	"1028.2"	"0"	"0"	"28.9"	"-1.7"	"0"	"0"	"10.0"	"16.1"	"210"	"SSW"	"-9999.0"	"-9999.0"	"22.8"	"-5.1"	"5.8"	"9.3"	
"20130210"	"Clear"	"21"	"54"	"12.0"	"-11.1"	"0"	"0"	"-9999"	"-9999"	"55"	"clear"	"METAR KBOS 110254Z 22005KT 10SM CLR M03/M11 A3036 RMK AO2 SLP281 T10331111 58001"	"-9999.00"	"-9999.00"	"30.36"	"1028.1"	"0"	"0"	"26.1"	"-3.3"	"0"	"0"	"10.0"	"16.1"	"220"	"SW"	"-9999.0"	"-9999.0"	"19.4"	"-7.0"	"5.8"	"9.3"	
"20130210"	"Partly Cloudy"	"22"	"54"	"12.9"	"-10.6"	"0"	"0"	"-9999"	"-9999"	"53"	"partlycloudy"	"METAR KBOS 110354Z 21004KT 10SM FEW250 M02/M11 A3037 RMK AO2 SLP282 T10221106"	"-9999.00"	"-9999.00"	"30.37"	"1028.2"	"0"	"0"	"28.0"	"-2.2"	"0"	"0"	"10.0"	"16.1"	"210"	"SSW"	"-9999.0"	"-9999.0"	"22.8"	"-5.1"	"4.6"	"7.4"	
"20130210"	"Light Snow"	"23"	"54"	"16.0"	"-8.9"	"0"	"0"	"-9999"	"-9999"	"58"	"snow"	"METAR KBOS 110454Z 24003KT 10SM -SN FEW250 M02/M09 A3036 RMK AO2 SLP279 P0000 T10171089 400221094"	"0.00"	"0.0"	"30.36"	"1027.9"	"0"	"1"	"28.9"	"-1.7"	"0"	"0"	"10.0"	"16.1"	"240"	"WSW"	"-9999.0"	"-9999.0"	"25.2"	"-3.8"	"3.5"	"5.6"	
"20130209"	"Light Snow"	"00"	"54"	"16.0"	"-8.9"	"0"	"0"	"-9999"	"-9999"	"92"	"snow"	"METAR KBOS 090554Z 01026G85KT 3/4SM R04R/1600V3000FT -SN OVC003 M08/M09 A2954 RMK AO2 PK WND 33085/0546 SFC VIS 9 VIS 1/2 E SLP002 P0003 60023 T10781089 11006 21078 56056"	"0.03"	"0.8"	"29.54"	"1000.2"	"0"	"1"	"18.0"	"-7.8"	"0"	"0"	"0.8"	"1.2"	"10"	"North"	"97.8"	"157.4"	"-1.4"	"-18.6"	"29.9"	"48.2"	
"20130209"	"Light Snow"	"01"	"54"	"15.1"	"-9.4"	"0"	"0"	"-9999"	"-9999"	"92"	"snow"	"METAR KBOS 090654Z 01021G37KT 1/2SM R04R/2000V4500FT -SN OVC003 M08/M09 A2957 RMK AO2 SFC VIS 9 SLP011 P0001 T10831094 $"	"0.01"	"0.3"	"29.57"	"1001.1"	"0"	"1"	"17.1"	"-8.3"	"0"	"0"	"0.5"	"0.8"	"10"	"North"	"42.6"	"68.5"	"-1.0"	"-18.3"	"24.2"	"38.9"	
"20130209"	"Heavy Snow"	"02"	"54"	"14.0"	"-10.0"	"1"	"0"	"-9999"	"-9999"	"92"	"snow"	"METAR KBOS 090754Z 35023G32KT 1/4SM R04R/2400V3500FT +SN FZFG VV005 M09/M10 A2958 RMK AO2 PK WND 07060/0733 TWR VIS 1/2 SLP016 P0003 T10891100 $"	"0.03"	"0.8"	"29.58"	"1001.6"	"0"	"1"	"16.0"	"-8.9"	"0"	"0"	"0.2"	"0.4"	"350"	"North"	"36.8"	"59.3"	"-3.2"	"-19.5"	"26.5"	"42.6"	
"20130209"	"Heavy Snow"	"03"	"40"	"15.8"	"-9.0"	"1"	"0"	"-9999"	"-9999"	"100"	"snow"	"SPECI KBOS 090840Z 35018G28KT 1/4SM R04R/1800V2400FT +SN FZFG VV004 M09/M09 A2960 RMK AO2 PK WND 35036/0813 TWR VIS 1/2 P0002 $"	"0.02"	"0.5"	"29.60"	"1002.3"	"0"	"1"	"15.8"	"-9.0"	"0"	"0"	"0.2"	"0.4"	"350"	"North"	"32.2"	"51.9"	"-1.5"	"-18.6"	"20.7"	"33.3"	
"20130209"	"Heavy Snow"	"03"	"50"	"15.8"	"-9.0"	"1"	"0"	"-9999"	"-9999"	"100"	"snow"	"SPECI KBOS 090850Z 35020G30KT 1/4SM R04R/1800V2200FT +SN FZFG VV004 M09/M09 A2960 RMK AO2 PK WND 35036/0813 TWR VIS 1/2 P0002 $"	"0.02"	"0.5"	"29.60"	"1002.3"	"0"	"1"	"15.8"	"-9.0"	"0"	"0"	"0.2"	"0.4"	"350"	"North"	"34.5"	"55.6"	"-2.3"	"-19.1"	"23.0"	"37.0"	
"20130209"	"Heavy Snow"	"03"	"54"	"15.1"	"-9.4"	"1"	"0"	"-9999"	"-9999"	"92"	"snow"	"METAR KBOS 090854Z 35019G30KT 1/4SM R04R/1800V2200FT +SN FZFG VV004 M08/M09 A2961 RMK AO2 PK WND 35036/0813 TWR VIS 1/2 SLP024 P0003 60007 T10831094 53008 $"	"0.03"	"0.8"	"29.60"	"1002.4"	"0"	"1"	"17.1"	"-8.3"	"0"	"0"	"0.2"	"0.4"	"350"	"North"	"34.5"	"55.6"	"-0.3"	"-17.9"	"21.9"	"35.2"	
"20130209"	"Heavy Snow"	"04"	"08"	"15.8"	"-9.0"	"1"	"0"	"-9999"	"-9999"	"93"	"snow"	"SPECI KBOS 090908Z 35016G25KT 1/4SM R04R/2000V2400FT +SN FZFG VV004 M08/M09 A2961 RMK AO2 PK WND 36031/0855 TWR VIS 1/2 P0000 $"	"0.00"	"0.0"	"29.61"	"1002.6"	"0"	"1"	"17.6"	"-8.0"	"0"	"0"	"0.2"	"0.4"	"350"	"North"	"28.8"	"46.3"	"1.7"	"-16.8"	"18.4"	"29.6"	
"20130209"	"Heavy Snow"	"04"	"18"	"15.8"	"-9.0"	"1"	"0"	"-9999"	"-9999"	"93"	"snow"	"SPECI KBOS 090918Z 35017G29KT 1/4SM R04R/1800V2200FT +SN FZFG VV004 M08/M09 A2961 RMK AO2 PK WND 36031/0855 TWR VIS 1/2 P0001 $"	"0.01"	"0.3"	"29.61"	"1002.6"	"0"	"1"	"17.6"	"-8.0"	"0"	"0"	"0.2"	"0.4"	"350"	"North"	"33.4"	"53.7"	"1.3"	"-17.1"	"19.6"	"31.5"	
"20130209"	"Heavy Snow"	"04"	"46"	"15.8"	"-9.0"	"1"	"0"	"-9999"	"-9999"	"93"	"snow"	"SPECI KBOS 090946Z 35016G25KT 1/4SM R04R/2000V2400FT +SN FZFG VV005 M08/M09 A2961 RMK AO2 PK WND 36031/0855 TWR VIS 1/2 P0001 $"	"0.01"	"0.3"	"29.61"	"1002.6"	"0"	"1"	"17.6"	"-8.0"	"0"	"0"	"0.2"	"0.4"	"350"	"North"	"28.8"	"46.3"	"1.7"	"-16.8"	"18.4"	"29.6"	
"20130209"	"Heavy Snow"	"04"	"54"	"15.1"	"-9.4"	"1"	"0"	"-9999"	"-9999"	"92"	"snow"	"METAR KBOS 090954Z 35017G25KT 1/4SM R04R/2000V2800FT +SN FZFG VV005 M08/M09 A2960 RMK AO2 PK WND 36031/0855 TWR VIS 1/2 SLP023 P0002 T10831094 $"	"0.02"	"0.5"	"29.60"	"1002.3"	"0"	"1"	"17.1"	"-8.3"	"0"	"0"	"0.2"	"0.4"	"350"	"North"	"28.8"	"46.3"	"0.6"	"-17.5"	"19.6"	"31.5"	
"20130209"	"Heavy Snow"	"05"	"54"	"16.0"	"-8.9"	"1"	"0"	"-9999"	"-9999"	"92"	"snow"	"METAR KBOS 091054Z 34018G25KT 1/4SM R04R/4000V4500FT +SN FZFG VV007 M08/M09 A2962 RMK AO2 PK WND 36028/1033 TWR VIS 1/2 SLP028 P0001 T10781089 $"	"0.01"	"0.3"	"29.62"	"1002.8"	"0"	"1"	"18.0"	"-7.8"	"0"	"0"	"0.2"	"0.4"	"340"	"NNW"	"28.8"	"46.3"	"1.3"	"-17.0"	"20.7"	"33.3"	
"20130209"	"Heavy Snow"	"06"	"49"	"15.8"	"-9.0"	"1"	"0"	"-9999"	"-9999"	"93"	"snow"	"SPECI KBOS 091149Z 36022G31KT 1/4SM R04R/3500V5500FT +SN FZFG VV012 M08/M09 A2965 RMK AO2 PK WND 35031/1144 TWR VIS 1/2 P0001 $"	"0.01"	"0.3"	"29.65"	"1003.9"	"0"	"1"	"17.6"	"-8.0"	"0"	"0"	"0.2"	"0.4"	"360"	"North"	"35.7"	"57.4"	"-0.6"	"-18.1"	"25.3"	"40.7"	
"20130209"	"Snow"	"06"	"54"	"16.0"	"-8.9"	"1"	"0"	"-9999"	"-9999"	"92"	"snow"	"METAR KBOS 091154Z 35016G30KT 1/2SM R04R/3500V6000FT SN FZFG VV015 M08/M09 A2965 RMK AO2 PK WND 35031/1144 SLP040 P0001 60011 70049 T10781089 11078 21089 51017 $"	"0.01"	"0.3"	"29.65"	"1004.0"	"0"	"1"	"18.0"	"-7.8"	"0"	"0"	"0.5"	"0.8"	"350"	"North"	"34.5"	"55.6"	"2.2"	"-16.6"	"18.4"	"29.6"	
"20130209"	"Snow"	"07"	"24"	"17.6"	"-8.0"	"1"	"0"	"-9999"	"-9999"	"93"	"snow"	"SPECI KBOS 091224Z 34021G29KT 1/2SM R04R/3000V4000FT SN FZFG VV013 M07/M08 A2966 RMK AO2 PK WND 34029/1224 P0000 $"	"0.00"	"0.0"	"29.66"	"1004.3"	"0"	"1"	"19.4"	"-7.0"	"0"	"0"	"0.5"	"0.8"	"340"	"NNW"	"33.4"	"53.7"	"2.1"	"-16.6"	"24.2"	"38.9"	
"20130209"	"Heavy Snow"	"07"	"54"	"17.1"	"-8.3"	"1"	"0"	"-9999"	"-9999"	"92"	"snow"	"METAR KBOS 091254Z 35023G35KT 1/4SM R04R/2400V3500FT +SN FZFG VV012 M07/M08 A2968 RMK AO2 PK WND 35035/1247 TWR VIS 1/2 SLP048 P0000 T10721083 $"	"0.00"	"0.0"	"29.68"	"1004.8"	"0"	"1"	"19.0"	"-7.2"	"0"	"0"	"0.2"	"0.4"	"350"	"North"	"40.3"	"64.8"	"1.0"	"-17.2"	"26.5"	"42.6"	
"20130209"	"Snow"	"08"	"54"	"18.0"	"-7.8"	"1"	"0"	"-9999"	"-9999"	"92"	"snow"	"METAR KBOS 091354Z 34014G26KT 1/2SM R04R/4000V6000FT SN FZFG BKN015 BKN025 OVC031 M07/M08 A2970 RMK AO2 PK WND 33036/1333 SLP056 P0001 T10671078"	"0.01"	"0.3"	"29.70"	"1005.6"	"0"	"1"	"19.9"	"-6.7"	"0"	"0"	"0.5"	"0.8"	"340"	"NNW"	"29.9"	"48.2"	"5.7"	"-14.6"	"16.1"	"25.9"	
"20130209"	"Snow"	"09"	"54"	"16.0"	"-8.9"	"1"	"0"	"-9999"	"-9999"	"92"	"snow"	"METAR KBOS 091454Z 33016G27KT 1/2SM R04R/3000V4500FT SN FZFG VV016 M08/M09 A2973 RMK AO2 PK WND 34030/1440 SLP068 P0000 60001 T10781089 53020"	"0.00"	"0.0"	"29.73"	"1006.8"	"0"	"1"	"18.0"	"-7.8"	"0"	"0"	"0.5"	"0.8"	"330"	"NNW"	"31.1"	"50.0"	"2.2"	"-16.6"	"18.4"	"29.6"	
"20130209"	"Snow"	"10"	"05"	"15.8"	"-9.0"	"1"	"0"	"-9999"	"-9999"	"93"	"snow"	"SPECI KBOS 091505Z 32022G27KT 1/2SM R04R/2400V3500FT SN FZFG VV013 M08/M09 A2974 RMK AO2 PK WND 32027/1504 P0000"	"0.00"	"0.0"	"29.74"	"1007.0"	"0"	"1"	"17.6"	"-8.0"	"0"	"0"	"0.5"	"0.8"	"320"	"NW"	"31.1"	"50.0"	"-0.6"	"-18.1"	"25.3"	"40.7"	
"20130209"	"Snow"	"10"	"42"	"15.8"	"-9.0"	"1"	"0"	"-9999"	"-9999"	"93"	"snow"	"SPECI KBOS 091542Z 33020G27KT 1/2SM R04R/2600V3000FT SN FZFG VV009 M08/M09 A2976 RMK AO2 PK WND 32030/1531 P0000"	"0.00"	"0.0"	"29.76"	"1007.7"	"0"	"1"	"17.6"	"-8.0"	"0"	"0"	"0.5"	"0.8"	"330"	"NNW"	"31.1"	"50.0"	"0.1"	"-17.7"	"23.0"	"37.0"	
"20130209"	"Snow"	"10"	"54"	"16.0"	"-8.9"	"1"	"0"	"-9999"	"-9999"	"96"	"snow"	"METAR KBOS 091554Z 33020G30KT 1/2SM R04R/2400V3000FT SN FZFG VV010 M08/M09 A2976 RMK AO2 PK WND 34030/1552 SLP078 P0000 T10831089"	"0.00"	"0.0"	"29.76"	"1007.8"	"0"	"1"	"17.1"	"-8.3"	"0"	"0"	"0.5"	"0.8"	"330"	"NNW"	"34.5"	"55.6"	"-0.6"	"-18.1"	"23.0"	"37.0"	
"20130209"	"Snow"	"11"	"38"	"15.8"	"-9.0"	"1"	"0"	"-9999"	"-9999"	"93"	"snow"	"SPECI KBOS 091638Z 33015G28KT 1/2SM R04R/3500V5500FT SN FZFG BKN016 OVC022 M08/M09 A2978 RMK AO2 PK WND 33032/1618 P0000 $"	"0.00"	"0.0"	"29.78"	"1008.4"	"0"	"1"	"17.6"	"-8.0"	"0"	"0"	"0.5"	"0.8"	"330"	"NNW"	"32.2"	"51.9"	"2.2"	"-16.6"	"17.3"	"27.8"	
"20130209"	"Snow"	"11"	"54"	"16.0"	"-8.9"	"1"	"0"	"-9999"	"-9999"	"88"	"snow"	"METAR KBOS 091654Z 32019G32KT 1/2SM R04R/3500V5500FT SN FZFG BKN016 OVC025 M07/M09 A2978 RMK AO2 PK WND 33032/1645 SLP083 P0000 T10721089 $"	"0.00"	"0.0"	"29.78"	"1008.3"	"0"	"1"	"19.0"	"-7.2"	"0"	"0"	"0.5"	"0.8"	"320"	"NW"	"36.8"	"59.3"	"2.4"	"-16.5"	"21.9"	"35.2"	
"20130209"	"Light Snow"	"12"	"54"	"16.0"	"-8.9"	"0"	"0"	"-9999"	"-9999"	"88"	"snow"	"METAR KBOS 091754Z 33022G29KT 1/2SM R04R/3500V6000FT -SN BR BKN020 OVC026 M07/M09 A2981 RMK AO2 PK WND 33034/1719 SFC VIS 3/4 SLP094 P0000 60001 T10721089 11067 21083 53026 $"	"0.00"	"0.0"	"29.81"	"1009.4"	"0"	"1"	"19.0"	"-7.2"	"0"	"0"	"0.5"	"0.8"	"330"	"NNW"	"33.4"	"53.7"	"1.3"	"-17.1"	"25.3"	"40.7"	
"20130209"	"Light Snow"	"13"	"54"	"16.0"	"-8.9"	"0"	"0"	"-9999"	"-9999"	"85"	"snow"	"METAR KBOS 091854Z 34016G31KT 1/2SM -SN BR BKN027 OVC034 M07/M09 A2985 RMK AO2 PK WND 33032/1840 SFC VIS 3 SLP106 P0000 T10671089 $"	"0.00"	"0.0"	"29.85"	"1010.6"	"0"	"1"	"19.9"	"-6.7"	"0"	"0"	"0.5"	"0.8"	"340"	"NNW"	"35.7"	"57.4"	"4.8"	"-15.1"	"18.4"	"29.6"	
"20130209"	"Light Snow"	"13"	"59"	"15.8"	"-9.0"	"0"	"0"	"-9999"	"-9999"	"86"	"snow"	"SPECI KBOS 091859Z 32021G31KT 4SM -SN BR BKN027 OVC034 M07/M09 A2985 RMK AO2 PK WND 34031/1855 P0000 $"	"0.00"	"0.0"	"29.85"	"1010.7"	"0"	"1"	"19.4"	"-7.0"	"0"	"0"	"4.0"	"6.4"	"320"	"NW"	"35.7"	"57.4"	"2.1"	"-16.6"	"24.2"	"38.9"	
"20130209"	"Overcast"	"14"	"12"	"14.0"	"-10.0"	"0"	"0"	"-9999"	"-9999"	"80"	"cloudy"	"SPECI KBOS 091912Z 33023G30KT 7SM SCT027 OVC034 M07/M10 A2985 RMK AO2 PK WND 34031/1855 SNE11 P0000 $"	"0.00"	"0.0"	"29.85"	"1010.7"	"0"	"0"	"19.4"	"-7.0"	"0"	"0"	"7.0"	"11.3"	"330"	"NNW"	"34.5"	"55.6"	"1.4"	"-17.0"	"26.5"	"42.6"	
"20130209"	"Overcast"	"14"	"54"	"12.9"	"-10.6"	"0"	"0"	"-9999"	"-9999"	"74"	"cloudy"	"METAR KBOS 091954Z 33017G29KT 7SM FEW024 BKN030 BKN038 OVC150 M07/M11 A2989 RMK AO2 PK WND 33032/1943 SNE11 SLP121 P0000 T10671106 $"	"0.00"	"0.0"	"29.89"	"1012.1"	"0"	"0"	"19.9"	"-6.7"	"0"	"0"	"7.0"	"11.3"	"330"	"NNW"	"33.4"	"53.7"	"4.3"	"-15.4"	"19.6"	"31.5"	
"20130209"	"Overcast"	"15"	"54"	"10.9"	"-11.7"	"0"	"0"	"-9999"	"-9999"	"68"	"cloudy"	"METAR KBOS 092054Z 32022G28KT 10SM SCT024 BKN040 BKN095 OVC220 M07/M12 A2994 RMK AO2 PK WND 33029/2039 SLP139 60000 T10671117 53045 $"	"-9999.00"	"-9999.00"	"29.94"	"1013.9"	"0"	"0"	"19.9"	"-6.7"	"0"	"0"	"10.0"	"16.1"	"320"	"NW"	"32.2"	"51.9"	"2.5"	"-16.4"	"25.3"	"40.7"	
"20130209"	"Mostly Cloudy"	"16"	"54"	"10.9"	"-11.7"	"0"	"0"	"-9999"	"-9999"	"68"	"mostlycloudy"	"METAR KBOS 092154Z 33020G27KT 10SM FEW024 BKN040 BKN250 M07/M12 A2998 RMK AO2 PK WND 33030/2113 SLP151 T10671117 $"	"-9999.00"	"-9999.00"	"29.98"	"1015.1"	"0"	"0"	"19.9"	"-6.7"	"0"	"0"	"10.0"	"16.1"	"330"	"NNW"	"31.1"	"50.0"	"3.2"	"-16.0"	"23.0"	"37.0"	
"20130209"	"Mostly Cloudy"	"17"	"54"	"10.0"	"-12.2"	"0"	"0"	"-9999"	"-9999"	"68"	"mostlycloudy"	"METAR KBOS 092254Z 33020G25KT 10SM FEW040 SCT150 BKN250 M07/M12 A3002 RMK AO2 PK WND 34026/2230 SLP164 T10721122 $"	"-9999.00"	"-9999.00"	"30.02"	"1016.4"	"0"	"0"	"19.0"	"-7.2"	"0"	"0"	"10.0"	"16.1"	"330"	"NNW"	"28.8"	"46.3"	"2.0"	"-16.7"	"23.0"	"37.0"	
"20130209"	"Mostly Cloudy"	"18"	"54"	"9.0"	"-12.8"	"0"	"0"	"-9999"	"-9999"	"65"	"mostlycloudy"	"METAR KBOS 092354Z 32015G22KT 10SM FEW150 BKN200 M07/M13 A3006 RMK AO2 PK WND 32026/2329 SLP178 60000 T10721128 11067 21072 53039 $"	"-9999.00"	"-9999.00"	"30.06"	"1017.8"	"0"	"0"	"19.0"	"-7.2"	"0"	"0"	"10.0"	"16.1"	"320"	"NW"	"25.3"	"40.7"	"4.0"	"-15.5"	"17.3"	"27.8"	
"20130209"	"Scattered Clouds"	"19"	"54"	"7.0"	"-13.9"	"0"	"0"	"-9999"	"-9999"	"62"	"partlycloudy"	"METAR KBOS 100054Z 33014G23KT 10SM FEW150 SCT200 M08/M14 A3009 RMK AO2 PK WND 33028/0019 SLP188 T10781139 $"	"-9999.00"	"-9999.00"	"30.09"	"1018.8"	"0"	"0"	"18.0"	"-7.8"	"0"	"0"	"10.0"	"16.1"	"330"	"NNW"	"26.5"	"42.6"	"3.1"	"-16.0"	"16.1"	"25.9"	
"20130209"	"Partly Cloudy"	"20"	"54"	"6.1"	"-14.4"	"0"	"0"	"-9999"	"-9999"	"62"	"partlycloudy"	"METAR KBOS 100154Z 31016G25KT 10SM FEW200 M08/M14 A3012 RMK AO2 PK WND 32028/0126 SLP199 T10831144 $"	"-9999.00"	"-9999.00"	"30.12"	"1019.9"	"0"	"0"	"17.1"	"-8.3"	"0"	"0"	"10.0"	"16.1"	"310"	"NW"	"28.8"	"46.3"	"1.0"	"-17.2"	"18.4"	"29.6"	
"20130209"	"Partly Cloudy"	"21"	"54"	"5.0"	"-15.0"	"0"	"0"	"-9999"	"-9999"	"62"	"partlycloudy"	"METAR KBOS 100254Z 31016G24KT 10SM FEW230 M09/M15 A3014 RMK AO2 PK WND 31031/0243 SLP206 T10891150 51029 $"	"-9999.00"	"-9999.00"	"30.14"	"1020.6"	"0"	"0"	"16.0"	"-8.9"	"0"	"0"	"10.0"	"16.1"	"310"	"NW"	"27.6"	"44.4"	"-0.4"	"-18.0"	"18.4"	"29.6"	
"20130209"	"Partly Cloudy"	"22"	"54"	"3.9"	"-15.6"	"0"	"0"	"-9999"	"-9999"	"61"	"partlycloudy"	"METAR KBOS 100354Z 31013G23KT 10SM FEW250 M09/M16 A3016 RMK AO2 SLP212 T10941156 $"	"-9999.00"	"-9999.00"	"30.16"	"1021.2"	"0"	"0"	"15.1"	"-9.4"	"0"	"0"	"10.0"	"16.1"	"310"	"NW"	"26.5"	"42.6"	"-0.1"	"-17.8"	"15.0"	"24.1"	
"20130209"	"Clear"	"23"	"54"	"3.0"	"-16.1"	"0"	"0"	"-9999"	"-9999"	"59"	"clear"	"METAR KBOS 100454Z 31015G21KT 10SM CLR M09/M16 A3018 RMK AO2 SLP219 T10941161 410671094 $"	"-9999.00"	"-9999.00"	"30.18"	"1021.9"	"0"	"0"	"15.1"	"-9.4"	"0"	"0"	"10.0"	"16.1"	"310"	"NW"	"24.2"	"38.9"	"-1.1"	"-18.4"	"17.3"	"27.8"	
"20130208"	"Overcast"	"00"	"54"	"19.0"	"-7.2"	"0"	"0"	"-9999"	"-9999"	"69"	"cloudy"	"METAR KBOS 080554Z 12009KT 10SM BKN025 BKN039 OVC090 M02/M07 A3048 RMK AO2 SLP319 T10221072 11017 21039 58010"	"-9999.00"	"-9999.00"	"30.48"	"1031.9"	"0"	"0"	"28.0"	"-2.2"	"0"	"0"	"10.0"	"16.1"	"120"	"ESE"	"-9999.0"	"-9999.0"	"18.6"	"-7.4"	"10.4"	"16.7"	
"20130208"	"Overcast"	"01"	"54"	"21.9"	"-5.6"	"0"	"0"	"-9999"	"-9999"	"75"	"cloudy"	"METAR KBOS 080654Z 12005KT 10SM FEW017 OVC037 M02/M06 A3046 RMK AO2 SLP313 T10171056"	"-9999.00"	"-9999.00"	"30.46"	"1031.3"	"0"	"0"	"28.9"	"-1.7"	"0"	"0"	"10.0"	"16.1"	"120"	"ESE"	"-9999.0"	"-9999.0"	"22.8"	"-5.1"	"5.8"	"9.3"	
"20130208"	"Mostly Cloudy"	"02"	"54"	"21.9"	"-5.6"	"0"	"0"	"-9999"	"-9999"	"72"	"mostlycloudy"	"METAR KBOS 080754Z 11011KT 10SM BKN033 M01/M06 A3042 RMK AO2 SLP300 T10111056"	"-9999.00"	"-9999.00"	"30.42"	"1030.0"	"0"	"0"	"30.0"	"-1.1"	"0"	"0"	"10.0"	"16.1"	"110"	"ESE"	"-9999.0"	"-9999.0"	"20.0"	"-6.7"	"12.7"	"20.4"	
"20130208"	"Overcast"	"03"	"49"	"21.2"	"-6.0"	"0"	"0"	"-9999"	"-9999"	"69"	"cloudy"	"SPECI KBOS 080849Z 12014G19KT 10SM BKN028 OVC033 M01/M06 A3039 RMK AO2"	"-9999.00"	"-9999.00"	"30.39"	"1029.0"	"0"	"0"	"30.2"	"-1.0"	"0"	"0"	"10.0"	"16.1"	"120"	"ESE"	"21.9"	"35.2"	"18.9"	"-7.3"	"16.1"	"25.9"	
"20130208"	"Overcast"	"03"	"54"	"21.9"	"-5.6"	"0"	"0"	"-9999"	"-9999"	"69"	"cloudy"	"METAR KBOS 080854Z 11013KT 10SM BKN028 OVC033 M01/M06 A3039 RMK AO2 SLP289 T10061056 56024"	"-9999.00"	"-9999.00"	"30.39"	"1028.9"	"0"	"0"	"30.9"	"-0.6"	"0"	"0"	"10.0"	"16.1"	"110"	"ESE"	"-9999.0"	"-9999.0"	"20.2"	"-6.5"	"15.0"	"24.1"	
"20130208"	"Overcast"	"04"	"54"	"24.1"	"-4.4"	"0"	"0"	"-9999"	"-9999"	"76"	"cloudy"	"METAR KBOS 080954Z 14015KT 10SM BKN020 OVC027 M01/M04 A3038 RMK AO2 SLP287 T10061044"	"-9999.00"	"-9999.00"	"30.38"	"1028.7"	"0"	"0"	"30.9"	"-0.6"	"0"	"0"	"10.0"	"16.1"	"140"	"SE"	"-9999.0"	"-9999.0"	"19.4"	"-7.0"	"17.3"	"27.8"	
"20130208"	"Overcast"	"05"	"54"	"23.0"	"-5.0"	"0"	"0"	"-9999"	"-9999"	"69"	"cloudy"	"METAR KBOS 081054Z 12015KT 10SM BKN023 OVC031 00/M05 A3036 RMK AO2 SLP279 T00001050"	"-9999.00"	"-9999.00"	"30.36"	"1027.9"	"0"	"0"	"32.0"	"0.0"	"0"	"0"	"10.0"	"16.1"	"120"	"ESE"	"-9999.0"	"-9999.0"	"20.8"	"-6.2"	"17.3"	"27.8"	
"20130208"	"Overcast"	"06"	"54"	"23.0"	"-5.0"	"0"	"0"	"-9999"	"-9999"	"69"	"cloudy"	"METAR KBOS 081154Z 11017KT 10SM OVC026 00/M05 A3035 RMK AO2 SLP277 60000 T00001050 10000 21022 58012"	"-9999.00"	"-9999.00"	"30.35"	"1027.7"	"0"	"0"	"32.0"	"0.0"	"0"	"0"	"10.0"	"16.1"	"110"	"ESE"	"-9999.0"	"-9999.0"	"20.1"	"-6.6"	"19.6"	"31.5"	
"20130208"	"Overcast"	"07"	"54"	"24.1"	"-4.4"	"0"	"0"	"-9999"	"-9999"	"73"	"cloudy"	"METAR KBOS 081254Z 10018KT 10SM OVC024 00/M04 A3034 RMK AO2 SLP273 T00001044"	"-9999.00"	"-9999.00"	"30.34"	"1027.3"	"0"	"0"	"32.0"	"0.0"	"0"	"0"	"10.0"	"16.1"	"100"	"East"	"-9999.0"	"-9999.0"	"19.8"	"-6.8"	"20.7"	"33.3"	
"20130208"	"Overcast"	"08"	"54"	"24.1"	"-4.4"	"0"	"0"	"-9999"	"-9999"	"70"	"cloudy"	"METAR KBOS 081354Z 10020G24KT 10SM OVC024 01/M04 A3032 RMK AO2 SLP265 T00061044"	"-9999.00"	"-9999.00"	"30.32"	"1026.5"	"0"	"0"	"33.1"	"0.6"	"0"	"0"	"10.0"	"16.1"	"100"	"East"	"27.6"	"44.4"	"20.6"	"-6.3"	"23.0"	"37.0"	
"20130208"	"Light Snow"	"09"	"54"	"26.1"	"-3.3"	"0"	"0"	"-9999"	"-9999"	"75"	"snow"	"METAR KBOS 081454Z 10020G23KT 5SM -SN OVC022 01/M03 A3030 RMK AO2 SNB05 SLP258 P0000 60000 T00061033 58019"	"0.00"	"0.0"	"30.30"	"1025.8"	"0"	"1"	"33.1"	"0.6"	"0"	"0"	"5.0"	"8.0"	"100"	"East"	"26.5"	"42.6"	"20.6"	"-6.3"	"23.0"	"37.0"	
"20130208"	"Light Snow"	"10"	"10"	"26.6"	"-3.0"	"0"	"0"	"-9999"	"-9999"	"75"	"snow"	"SPECI KBOS 081510Z 10021KT 1 1/2SM -SN FEW013 BKN026 OVC034 01/M03 A3029 RMK AO2 PK WND 10027/1456 SFC VIS 2 P0000"	"0.00"	"0.0"	"30.29"	"1025.6"	"0"	"1"	"33.8"	"1.0"	"0"	"0"	"1.5"	"2.4"	"100"	"East"	"-9999.0"	"-9999.0"	"21.3"	"-5.9"	"24.2"	"38.9"	
"20130208"	"Light Snow"	"10"	"46"	"28.4"	"-2.0"	"0"	"0"	"-9999"	"-9999"	"81"	"snow"	"SPECI KBOS 081546Z 09019KT 3/4SM R04R/4000VP6000FT -SN BKN010 BKN016 OVC023 01/M02 A3026 RMK AO2 PK WND 10027/1456 SFC VIS 1 P0000"	"0.00"	"0.0"	"30.26"	"1024.6"	"0"	"1"	"33.8"	"1.0"	"0"	"0"	"0.8"	"1.2"	"90"	"East"	"-9999.0"	"-9999.0"	"21.9"	"-5.6"	"21.9"	"35.2"	
"20130208"	"Light Snow"	"10"	"54"	"28.9"	"-1.7"	"0"	"0"	"-9999"	"-9999"	"85"	"snow"	"METAR KBOS 081554Z 09020KT 3/4SM R04R/3500VP6000FT -SN BR BKN010 OVC015 01/M02 A3026 RMK AO2 PK WND 10027/1456 SLP246 P0000 T00061017"	"0.00"	"0.0"	"30.26"	"1024.6"	"0"	"1"	"33.1"	"0.6"	"0"	"0"	"0.8"	"1.2"	"90"	"East"	"-9999.0"	"-9999.0"	"20.6"	"-6.3"	"23.0"	"37.0"	
"20130208"	"Light Snow"	"11"	"07"	"28.4"	"-2.0"	"0"	"0"	"-9999"	"-9999"	"81"	"snow"	"SPECI KBOS 081607Z 09020KT 3/4SM R04R/4500V6000FT -SN BR SCT008 OVC013 01/M02 A3024 RMK AO2 CIG 008 E P0000"	"0.00"	"0.0"	"30.24"	"1023.9"	"0"	"1"	"33.8"	"1.0"	"0"	"0"	"0.8"	"1.2"	"90"	"East"	"-9999.0"	"-9999.0"	"21.6"	"-5.8"	"23.0"	"37.0"	
"20130208"	"Light Snow"	"11"	"15"	"28.4"	"-2.0"	"0"	"0"	"-9999"	"-9999"	"81"	"snow"	"SPECI KBOS 081615Z 09020KT 3/4SM R04R/3500VP6000FT -SN BR BKN008 OVC013 01/M02 A3024 RMK AO2 P0000"	"0.00"	"0.0"	"30.24"	"1023.9"	"0"	"1"	"33.8"	"1.0"	"0"	"0"	"0.8"	"1.2"	"90"	"East"	"-9999.0"	"-9999.0"	"21.6"	"-5.8"	"23.0"	"37.0"	
"20130208"	"Light Snow"	"11"	"54"	"30.0"	"-1.1"	"0"	"0"	"-9999"	"-9999"	"89"	"snow"	"METAR KBOS 081654Z 08020KT 3/4SM R04R/4500VP6000FT -SN BR BKN008 BKN012 OVC030 01/M01 A3020 RMK AO2 PK WND 09027/1625 SFC VIS 1 1/4 PRESFR SLP225 P0001 T00061011"	"0.01"	"0.3"	"30.20"	"1022.5"	"0"	"1"	"33.1"	"0.6"	"0"	"0"	"0.8"	"1.2"	"80"	"East"	"-9999.0"	"-9999.0"	"20.6"	"-6.3"	"23.0"	"37.0"	
"20130208"	"Light Snow"	"12"	"54"	"30.0"	"-1.1"	"0"	"0"	"-9999"	"-9999"	"89"	"snow"	"METAR KBOS 081754Z 08022G28KT 3/4SM R04R/3500V4500FT -SN BR BKN006 OVC013 01/M01 A3015 RMK AO2 PK WND 08028/1752 SLP209 P0001 60002 T00061011 10011 20000 58049"	"0.01"	"0.3"	"30.15"	"1020.9"	"0"	"1"	"33.1"	"0.6"	"0"	"0"	"0.8"	"1.2"	"80"	"East"	"32.2"	"51.9"	"20.1"	"-6.6"	"25.3"	"40.7"	
"20130208"	"Snow"	"13"	"54"	"30.0"	"-1.1"	"1"	"0"	"-9999"	"-9999"	"92"	"snow"	"METAR KBOS 081854Z 07024G31KT 1/2SM R04R/3500V4500FT SN FG VV008 00/M01 A3011 RMK AO2 PK WND 08031/1846 TWR VIS 3/4 PRESFR SLP193 P0001 T00001011"	"0.01"	"0.3"	"30.10"	"1019.3"	"0"	"1"	"32.0"	"0.0"	"0"	"0"	"0.5"	"0.8"	"70"	"ENE"	"35.7"	"57.4"	"18.1"	"-7.7"	"27.6"	"44.4"	
"20130208"	"Snow"	"14"	"54"	"30.0"	"-1.1"	"1"	"0"	"-9999"	"-9999"	"92"	"snow"	"METAR KBOS 081954Z 07023G32KT 1/2SM R04R/3500V4000FT SN FG BKN006 OVC009 00/M01 A3006 RMK AO2 PK WND 06034/1944 TWR VIS 3/4 SLP180 P0002 T00001011"	"0.02"	"0.5"	"30.06"	"1018.0"	"0"	"1"	"32.0"	"0.0"	"0"	"0"	"0.5"	"0.8"	"70"	"ENE"	"36.8"	"59.3"	"18.4"	"-7.6"	"26.5"	"42.6"	
"20130208"	"Snow"	"15"	"54"	"30.0"	"-1.1"	"1"	"0"	"-9999"	"-9999"	"92"	"snow"	"METAR KBOS 082054Z 06023G36KT 1/2SM R04R/3000V4000FT SN FG SCT005 OVC009 00/M01 A2999 RMK AO2 PK WND 06037/2035 TWR VIS 3/4 PRESFR SLP155 P0002 60005 T00001011 58053"	"0.02"	"0.5"	"29.99"	"1015.5"	"0"	"1"	"32.0"	"0.0"	"0"	"0"	"0.5"	"0.8"	"60"	"ENE"	"41.4"	"66.7"	"18.4"	"-7.6"	"26.5"	"42.6"	
"20130208"	"Snow"	"16"	"54"	"30.0"	"-1.1"	"1"	"0"	"-9999"	"-9999"	"92"	"snow"	"METAR KBOS 082154Z 06026G42KT 1/2SM R04R/4500V5500FT SN FG SCT007 OVC009 00/M01 A2994 RMK AO2 PK WND 06042/2149 TWR VIS 3/4 SLP136 P0001 T00001011"	"0.01"	"0.3"	"29.94"	"1013.6"	"0"	"1"	"32.0"	"0.0"	"0"	"0"	"0.5"	"0.8"	"60"	"ENE"	"48.3"	"77.8"	"17.6"	"-8.0"	"29.9"	"48.2"	
"20130208"	"Snow"	"17"	"01"	"30.2"	"-1.0"	"1"	"0"	"-9999"	"-9999"	"93"	"snow"	"SPECI KBOS 082201Z 06027G36KT 1/2SM R04R/4500V5500FT SN FG SCT007 OVC011 00/M01 A2993 RMK AO2 PK WND 05036/2201 TWR VIS 3/4 P0001"	"0.01"	"0.3"	"29.93"	"1013.4"	"0"	"1"	"32.0"	"0.0"	"0"	"0"	"0.5"	"0.8"	"60"	"ENE"	"41.4"	"66.7"	"17.4"	"-8.1"	"31.1"	"50.0"	
"20130208"	"Light Snow"	"17"	"10"	"30.2"	"-1.0"	"0"	"0"	"-9999"	"-9999"	"93"	"snow"	"SPECI KBOS 082210Z 06030G43KT 3/4SM R04R/5000VP6000FT -SN BR BKN007 OVC011 00/M01 A2992 RMK AO2 PK WND 06043/2209 SFC VIS 1 P0001"	"0.01"	"0.3"	"29.92"	"1013.1"	"0"	"1"	"32.0"	"0.0"	"0"	"0"	"0.8"	"1.2"	"60"	"ENE"	"49.5"	"79.6"	"16.7"	"-8.5"	"34.5"	"55.6"	
"20130208"	"Snow"	"17"	"54"	"30.0"	"-1.1"	"1"	"0"	"-9999"	"-9999"	"96"	"snow"	"METAR KBOS 082254Z 06026G40KT 1/2SM R04R/4000V5500FT SN FZFG VV006 M01/M01 A2991 RMK AO2 PK WND 06043/2209 TWR VIS 3/4 SLP128 P0002 T10061011"	"0.02"	"0.5"	"29.91"	"1012.8"	"0"	"1"	"30.9"	"-0.6"	"0"	"0"	"0.5"	"0.8"	"60"	"ENE"	"46.0"	"74.1"	"16.2"	"-8.8"	"29.9"	"48.2"	
"20130208"	"Snow"	"18"	"39"	"30.2"	"-1.0"	"1"	"0"	"-9999"	"-9999"	"100"	"snow"	"SPECI KBOS 082339Z 05031G41KT 1/2SM R04R/2600V3500FT SN FZFG VV004 M01/M01 A2987 RMK AO2 PK WND 05042/2317 TWR VIS 3/4 P0005"	"0.05"	"1.3"	"29.87"	"1011.4"	"0"	"1"	"30.2"	"-1.0"	"0"	"0"	"0.5"	"0.8"	"50"	"NE"	"47.2"	"75.9"	"14.1"	"-10.0"	"35.7"	"57.4"	
"20130208"	"Snow"	"18"	"54"	"30.9"	"-0.6"	"1"	"0"	"-9999"	"-9999"	"100"	"snow"	"METAR KBOS 082354Z 05033G44KT 1/2SM R04R/3000V3500FT SN FZFG VV004 M01/M01 A2985 RMK AO2 PK WND 04044/2353 TWR VIS 3/4 PRESFR SLP109 P0005 60013 T10061006 10006 21006 57047"	"0.05"	"1.3"	"29.86"	"1010.9"	"0"	"1"	"30.9"	"-0.6"	"0"	"0"	"0.5"	"0.8"	"50"	"NE"	"50.6"	"81.5"	"14.7"	"-9.6"	"38.0"	"61.1"	
"20130208"	"Snow"	"19"	"54"	"30.0"	"-1.1"	"1"	"0"	"-9999"	"-9999"	"96"	"snow"	"METAR KBOS 090054Z 05031G45KT 1/2SM R04R/2600V2800FT SN FZFG VV004 M01/M01 A2979 RMK AO2 PK WND 05046/0007 TWR VIS 3/4 SLP087 P0006 T10061011"	"0.06"	"1.5"	"29.79"	"1008.7"	"0"	"1"	"30.9"	"-0.6"	"0"	"0"	"0.5"	"0.8"	"50"	"NE"	"51.8"	"83.3"	"15.1"	"-9.4"	"35.7"	"57.4"	
"20130208"	"Heavy Snow"	"20"	"54"	"28.9"	"-1.7"	"1"	"0"	"-9999"	"-9999"	"96"	"snow"	"METAR KBOS 090154Z 04036G44KT 1/4SM R04R/1400V2200FT +SN FZFG VV003 M01/M02 A2971 RMK AO2 PK WND 04052/0130 TWR VIS 3/4 SLP061 P0005 T10111017"	"0.05"	"1.3"	"29.71"	"1006.1"	"0"	"1"	"30.0"	"-1.1"	"0"	"0"	"0.2"	"0.4"	"40"	"NE"	"50.6"	"81.5"	"12.8"	"-10.6"	"41.4"	"66.7"	
"20130208"	"Light Snow"	"21"	"22"	"28.4"	"-2.0"	"0"	"0"	"-9999"	"-9999"	"93"	"snow"	"SPECI KBOS 090222Z 03029G47KT 3/4SM R04R/2000V2400FT -SN BR OVC003 M01/M02 A2971 RMK AO2 PK WND 03051/0208 SFC VIS 1 1/2 VIS 1/4 E P0002 $"	"0.02"	"0.5"	"29.71"	"1006.0"	"0"	"1"	"30.2"	"-1.0"	"0"	"0"	"0.8"	"1.2"	"30"	"NNE"	"54.1"	"87.0"	"14.5"	"-9.7"	"33.4"	"53.7"	
"20130208"	"Light Snow"	"21"	"54"	"24.1"	"-4.4"	"0"	"0"	"-9999"	"-9999"	"100"	"snow"	"METAR KBOS 090254Z 01026G34KT 3/4SM R04R/2000V3500FT -SN BR OVC003 M04/M04 A2971 RMK AO2 PK WND 03051/0208 SFC VIS 3 SLP058 P0005 60016 T10441044 56050 $"	"0.05"	"1.3"	"29.70"	"1005.8"	"0"	"1"	"24.1"	"-4.4"	"0"	"0"	"0.8"	"1.2"	"10"	"North"	"39.1"	"63.0"	"6.9"	"-14.0"	"29.9"	"48.2"	
"20130208"	"Light Snow"	"22"	"37"	"19.4"	"-7.0"	"0"	"0"	"-9999"	"-9999"	"100"	"snow"	"SPECI KBOS 090337Z 36030G66KT 260V020 3/4SM R04R/1600V2200FT -SN BR OVC003 M07/M07 A2965 RMK AO2 PK WND 34066/0329 SFC VIS 4 VIS 1/2 E PRESFR P0001 $"	"0.01"	"0.3"	"29.65"	"1003.9"	"0"	"1"	"19.4"	"-7.0"	"0"	"0"	"0.8"	"1.2"	"360"	"North"	"76.0"	"122.2"	"-0.6"	"-18.1"	"34.5"	"55.6"	
"20130208"	"Light Snow"	"22"	"54"	"18.0"	"-7.8"	"0"	"0"	"-9999"	"-9999"	"92"	"snow"	"METAR KBOS 090354Z 02035G45KT 3/4SM R04R/1400V2000FT -SN BR OVC003 M07/M08 A2962 RMK AO2 PK WND 34066/0329 SFC VIS 5 VIS 1/2 E PRESFR SLP029 P0001 T10671078 $"	"0.01"	"0.3"	"29.62"	"1002.9"	"0"	"1"	"19.9"	"-6.7"	"0"	"0"	"0.8"	"1.2"	"20"	"NNE"	"51.8"	"83.3"	"-1.0"	"-18.4"	"40.3"	"64.8"	
"20130208"	"Light Snow"	"23"	"30"	"19.4"	"-7.0"	"0"	"0"	"-9999"	"-9999"	"93"	"snow"	"SPECI KBOS 090430Z 01029G42KT 3/4SM R04R/2000V2600FT -SN OVC003 M06/M07 A2959 RMK AO2 PK WND 01044/0410 SFC VIS 9 VIS 1/2 E P0003 $"	"0.03"	"0.8"	"29.59"	"1001.9"	"0"	"1"	"21.2"	"-6.0"	"0"	"0"	"0.8"	"1.2"	"10"	"North"	"48.3"	"77.8"	"2.2"	"-16.6"	"33.4"	"53.7"	
"20130208"	"Light Snow"	"23"	"54"	"19.0"	"-7.2"	"0"	"0"	"-9999"	"-9999"	"92"	"snow"	"METAR KBOS 090454Z 01026G42KT 3/4SM R04R/2200V3500FT -SN OVC003 M06/M07 A2958 RMK AO2 PK WND 01044/0410 SFC VIS 9 VIS 1/2 E SLP015 P0003 T10611072 400111067 $"	"0.03"	"0.8"	"29.58"	"1001.5"	"0"	"1"	"21.0"	"-6.1"	"0"	"0"	"0.8"	"1.2"	"10"	"North"	"48.3"	"77.8"	"2.7"	"-16.3"	"29.9"	"48.2"	
"20130207"	"Clear"	"00"	"54"	"3.0"	"-16.1"	"0"	"0"	"-9999"	"-9999"	"37"	"clear"	"METAR KBOS 070554Z 29010KT 10SM CLR M03/M16 A3032 RMK AO2 SLP265 T10331161 10017 21033 51025"	"-9999.00"	"-9999.00"	"30.32"	"1026.5"	"0"	"0"	"26.1"	"-3.3"	"0"	"0"	"10.0"	"16.1"	"290"	"WNW"	"-9999.0"	"-9999.0"	"15.6"	"-9.1"	"11.5"	"18.5"	
"20130207"	"Clear"	"01"	"54"	"3.0"	"-16.1"	"0"	"0"	"-9999"	"-9999"	"40"	"clear"	"METAR KBOS 070654Z 36007KT 10SM CLR M04/M16 A3034 RMK AO2 SLP273 T10441161"	"-9999.00"	"-9999.00"	"30.34"	"1027.3"	"0"	"0"	"24.1"	"-4.4"	"0"	"0"	"10.0"	"16.1"	"360"	"North"	"-9999.0"	"-9999.0"	"15.2"	"-9.3"	"8.1"	"13.0"	
"20130207"	"Clear"	"02"	"54"	"3.9"	"-15.6"	"0"	"0"	"-9999"	"-9999"	"46"	"clear"	"METAR KBOS 070754Z 01009KT 10SM CLR M06/M16 A3035 RMK AO2 SLP277 T10561156"	"-9999.00"	"-9999.00"	"30.35"	"1027.7"	"0"	"0"	"21.9"	"-5.6"	"0"	"0"	"10.0"	"16.1"	"10"	"North"	"-9999.0"	"-9999.0"	"11.0"	"-11.6"	"10.4"	"16.7"	
"20130207"	"Clear"	"03"	"54"	"-0.0"	"-17.8"	"0"	"0"	"-9999"	"-9999"	"40"	"clear"	"METAR KBOS 070854Z 35005KT 10SM CLR M06/M18 A3039 RMK AO2 SLP290 T10611178 53025"	"-9999.00"	"-9999.00"	"30.39"	"1029.0"	"0"	"0"	"21.0"	"-6.1"	"0"	"0"	"10.0"	"16.1"	"350"	"North"	"-9999.0"	"-9999.0"	"13.4"	"-10.3"	"5.8"	"9.3"	
"20130207"	"Clear"	"04"	"54"	"-0.9"	"-18.3"	"0"	"0"	"-9999"	"-9999"	"40"	"clear"	"METAR KBOS 070954Z 36005KT 10SM CLR M07/M18 A3041 RMK AO2 SLP297 T10671183"	"-9999.00"	"-9999.00"	"30.41"	"1029.7"	"0"	"0"	"19.9"	"-6.7"	"0"	"0"	"10.0"	"16.1"	"360"	"North"	"-9999.0"	"-9999.0"	"12.1"	"-11.0"	"5.8"	"9.3"	
"20130207"	"Clear"	"05"	"54"	"-2.0"	"-18.9"	"0"	"0"	"-9999"	"-9999"	"38"	"clear"	"METAR KBOS 071054Z 35006KT 10SM CLR M07/M19 A3043 RMK AO2 SLP303 T10671189"	"-9999.00"	"-9999.00"	"30.43"	"1030.3"	"0"	"0"	"19.9"	"-6.7"	"0"	"0"	"10.0"	"16.1"	"350"	"North"	"-9999.0"	"-9999.0"	"11.1"	"-11.6"	"6.9"	"11.1"	
"20130207"	"Clear"	"06"	"54"	"-0.9"	"-18.3"	"0"	"0"	"-9999"	"-9999"	"42"	"clear"	"METAR KBOS 071154Z 36005KT 10SM CLR M07/M18 A3046 RMK AO2 SLP313 T10721183 11033 21078 53023"	"-9999.00"	"-9999.00"	"30.46"	"1031.3"	"0"	"0"	"19.0"	"-7.2"	"0"	"0"	"10.0"	"16.1"	"360"	"North"	"-9999.0"	"-9999.0"	"11.1"	"-11.6"	"5.8"	"9.3"	
"20130207"	"Scattered Clouds"	"07"	"54"	"-0.9"	"-18.3"	"0"	"0"	"-9999"	"-9999"	"38"	"partlycloudy"	"METAR KBOS 071254Z 32011KT 10SM FEW090 SCT200 M06/M18 A3049 RMK AO2 SLP323 T10611183"	"-9999.00"	"-9999.00"	"30.49"	"1032.3"	"0"	"0"	"21.0"	"-6.1"	"0"	"0"	"10.0"	"16.1"	"320"	"NW"	"-9999.0"	"-9999.0"	"8.6"	"-13.0"	"12.7"	"20.4"	
"20130207"	"Mostly Cloudy"	"08"	"54"	"-2.0"	"-18.9"	"0"	"0"	"-9999"	"-9999"	"35"	"mostlycloudy"	"METAR KBOS 071354Z 30012KT 10SM SCT090 BKN200 M06/M19 A3051 RMK AO2 SLP330 T10561189 $"	"-9999.00"	"-9999.00"	"30.51"	"1033.0"	"0"	"0"	"21.9"	"-5.6"	"0"	"0"	"10.0"	"16.1"	"300"	"WNW"	"-9999.0"	"-9999.0"	"9.2"	"-12.7"	"13.8"	"22.2"	
"20130207"	"Mostly Cloudy"	"09"	"54"	"-2.0"	"-18.9"	"0"	"0"	"-9999"	"-9999"	"34"	"mostlycloudy"	"METAR KBOS 071454Z 32013G21KT 10SM SCT090 BKN200 M05/M19 A3052 RMK AO2 SLP335 T10501189 51022"	"-9999.00"	"-9999.00"	"30.52"	"1033.5"	"0"	"0"	"23.0"	"-5.0"	"0"	"0"	"10.0"	"16.1"	"320"	"NW"	"24.2"	"38.9"	"10.1"	"-12.2"	"15.0"	"24.1"	
"20130207"	"Scattered Clouds"	"10"	"54"	"-2.0"	"-18.9"	"0"	"0"	"-9999"	"-9999"	"31"	"partlycloudy"	"METAR KBOS 071554Z 32012G21KT 10SM FEW100 SCT200 M04/M19 A3054 RMK AO2 SLP339 T10391189"	"-9999.00"	"-9999.00"	"30.53"	"1033.9"	"0"	"0"	"25.0"	"-3.9"	"0"	"0"	"10.0"	"16.1"	"320"	"NW"	"24.2"	"38.9"	"13.1"	"-10.5"	"13.8"	"22.2"	
"20130207"	"Scattered Clouds"	"11"	"54"	"-2.0"	"-18.9"	"0"	"0"	"-9999"	"-9999"	"29"	"partlycloudy"	"METAR KBOS 071654Z 32012KT 10SM FEW100 SCT200 M03/M19 A3052 RMK AO2 SLP335 T10281189"	"-9999.00"	"-9999.00"	"30.52"	"1033.5"	"0"	"0"	"27.0"	"-2.8"	"0"	"0"	"10.0"	"16.1"	"320"	"NW"	"-9999.0"	"-9999.0"	"15.6"	"-9.1"	"13.8"	"22.2"	
"20130207"	"Scattered Clouds"	"12"	"54"	"-0.9"	"-18.3"	"0"	"0"	"-9999"	"-9999"	"29"	"partlycloudy"	"METAR KBOS 071754Z 34007KT 10SM FEW100 SCT200 M02/M18 A3050 RMK AO2 SLP327 T10221183 11022 21072 58008"	"-9999.00"	"-9999.00"	"30.50"	"1032.7"	"0"	"0"	"28.0"	"-2.2"	"0"	"0"	"10.0"	"16.1"	"340"	"NNW"	"-9999.0"	"-9999.0"	"20.0"	"-6.7"	"8.1"	"13.0"	
"20130207"	"Scattered Clouds"	"13"	"54"	"-0.9"	"-18.3"	"0"	"0"	"-9999"	"-9999"	"28"	"partlycloudy"	"METAR KBOS 071854Z 34008KT 10SM FEW100 SCT200 M02/M18 A3049 RMK AO2 SLP322 T10171183"	"-9999.00"	"-9999.00"	"30.48"	"1032.2"	"0"	"0"	"28.9"	"-1.7"	"0"	"0"	"10.0"	"16.1"	"340"	"NNW"	"-9999.0"	"-9999.0"	"20.4"	"-6.4"	"9.2"	"14.8"	
"20130207"	"Scattered Clouds"	"14"	"54"	"-2.0"	"-18.9"	"0"	"0"	"-9999"	"-9999"	"26"	"partlycloudy"	"METAR KBOS 071954Z 03009KT 10SM FEW100 SCT200 M02/M19 A3048 RMK AO2 SLP321 T10171189"	"-9999.00"	"-9999.00"	"30.48"	"1032.1"	"0"	"0"	"28.9"	"-1.7"	"0"	"0"	"10.0"	"16.1"	"30"	"NNE"	"-9999.0"	"-9999.0"	"19.8"	"-6.8"	"10.4"	"16.7"	
"20130207"	"Mostly Cloudy"	"15"	"54"	"-2.0"	"-18.9"	"0"	"0"	"-9999"	"-9999"	"27"	"mostlycloudy"	"METAR KBOS 072054Z 02006KT 10SM BKN070 M02/M19 A3049 RMK AO2 SLP322 T10221189 55004"	"-9999.00"	"-9999.00"	"30.48"	"1032.2"	"0"	"0"	"28.0"	"-2.2"	"0"	"0"	"10.0"	"16.1"	"20"	"NNE"	"-9999.0"	"-9999.0"	"20.8"	"-6.2"	"6.9"	"11.1"	
"20130207"	"Mostly Cloudy"	"16"	"54"	"-2.0"	"-18.9"	"0"	"0"	"-9999"	"-9999"	"29"	"mostlycloudy"	"METAR KBOS 072154Z 02006KT 10SM BKN070 M03/M19 A3049 RMK AO2 SLP323 T10281189"	"-9999.00"	"-9999.00"	"30.49"	"1032.3"	"0"	"0"	"27.0"	"-2.8"	"0"	"0"	"10.0"	"16.1"	"20"	"NNE"	"-9999.0"	"-9999.0"	"19.5"	"-6.9"	"6.9"	"11.1"	
"20130207"	"Partly Cloudy"	"17"	"54"	"-0.9"	"-18.3"	"0"	"0"	"-9999"	"-9999"	"31"	"partlycloudy"	"METAR KBOS 072254Z 05004KT 10SM FEW080 M03/M18 A3050 RMK AO2 SLP327 T10331183"	"-9999.00"	"-9999.00"	"30.50"	"1032.7"	"0"	"0"	"26.1"	"-3.3"	"0"	"0"	"10.0"	"16.1"	"50"	"NE"	"-9999.0"	"-9999.0"	"20.5"	"-6.4"	"4.6"	"7.4"	
"20130207"	"Scattered Clouds"	"18"	"54"	"6.1"	"-14.4"	"0"	"0"	"-9999"	"-9999"	"41"	"partlycloudy"	"METAR KBOS 072354Z 08006KT 10SM SCT080 M03/M14 A3052 RMK AO2 SLP335 T10281144 11011 21039 53013"	"-9999.00"	"-9999.00"	"30.52"	"1033.5"	"0"	"0"	"27.0"	"-2.8"	"0"	"0"	"10.0"	"16.1"	"80"	"East"	"-9999.0"	"-9999.0"	"19.5"	"-6.9"	"6.9"	"11.1"	
"20130207"	"Clear"	"19"	"54"	"6.1"	"-14.4"	"0"	"0"	"-9999"	"-9999"	"45"	"clear"	"METAR KBOS 080054Z 11007KT 10SM CLR M04/M14 A3052 RMK AO2 SLP333 T10391144"	"-9999.00"	"-9999.00"	"30.52"	"1033.3"	"0"	"0"	"25.0"	"-3.9"	"0"	"0"	"10.0"	"16.1"	"110"	"ESE"	"-9999.0"	"-9999.0"	"16.3"	"-8.7"	"8.1"	"13.0"	
"20130207"	"Overcast"	"20"	"54"	"7.0"	"-13.9"	"0"	"0"	"-9999"	"-9999"	"43"	"cloudy"	"METAR KBOS 080154Z 09006KT 10SM OVC090 M03/M14 A3052 RMK AO2 SLP334 T10281139"	"-9999.00"	"-9999.00"	"30.52"	"1033.4"	"0"	"0"	"27.0"	"-2.8"	"0"	"0"	"10.0"	"16.1"	"90"	"East"	"-9999.0"	"-9999.0"	"19.5"	"-6.9"	"6.9"	"11.1"	
"20130207"	"Overcast"	"21"	"54"	"12.0"	"-11.1"	"0"	"0"	"-9999"	"-9999"	"53"	"cloudy"	"METAR KBOS 080254Z 09009KT 10SM OVC085 M03/M11 A3051 RMK AO2 SLP329 T10281111 58006"	"-9999.00"	"-9999.00"	"30.51"	"1032.9"	"0"	"0"	"27.0"	"-2.8"	"0"	"0"	"10.0"	"16.1"	"90"	"East"	"-9999.0"	"-9999.0"	"17.3"	"-8.2"	"10.4"	"16.7"	
"20130207"	"Overcast"	"22"	"54"	"15.1"	"-9.4"	"0"	"0"	"-9999"	"-9999"	"58"	"cloudy"	"METAR KBOS 080354Z 11009KT 10SM OVC085 M02/M09 A3050 RMK AO2 SLP326 T10221094"	"-9999.00"	"-9999.00"	"30.50"	"1032.6"	"0"	"0"	"28.0"	"-2.2"	"0"	"0"	"10.0"	"16.1"	"110"	"ESE"	"-9999.0"	"-9999.0"	"18.6"	"-7.4"	"10.4"	"16.7"	
"20130207"	"Overcast"	"23"	"54"	"18.0"	"-7.8"	"0"	"0"	"-9999"	"-9999"	"64"	"cloudy"	"METAR KBOS 080454Z 13008KT 10SM BKN025 OVC090 M02/M08 A3050 RMK AO2 SLP326 T10171078 410111078"	"-9999.00"	"-9999.00"	"30.50"	"1032.6"	"0"	"0"	"28.9"	"-1.7"	"0"	"0"	"10.0"	"16.1"	"130"	"SE"	"-9999.0"	"-9999.0"	"20.4"	"-6.4"	"9.2"	"14.8"	
"20130206"	"Light Snow"	"00"	"54"	"24.1"	"-4.4"	"0"	"0"	"-9999"	"-9999"	"89"	"snow"	"METAR KBOS 060554Z 35005KT 3SM -SN BR BKN015 OVC027 M03/M04 A2994 RMK AO2 SFC VIS 4 SLP137 P0000 60003 T10281044 11028 21039 56011"	"0.00"	"0.0"	"29.94"	"1013.7"	"0"	"1"	"27.0"	"-2.8"	"0"	"0"	"3.0"	"4.8"	"350"	"North"	"-9999.0"	"-9999.0"	"20.5"	"-6.4"	"5.8"	"9.3"	
"20130206"	"Light Snow"	"01"	"04"	"24.8"	"-4.0"	"0"	"0"	"-9999"	"-9999"	"86"	"snow"	"SPECI KBOS 060604Z 31005KT 2 1/2SM -SN BR OVC014 M02/M04 A2994 RMK AO2 TWR VIS 3 P0000"	"0.00"	"0.0"	"29.94"	"1013.8"	"0"	"1"	"28.4"	"-2.0"	"0"	"0"	"2.5"	"4.0"	"310"	"NW"	"-9999.0"	"-9999.0"	"22.2"	"-5.5"	"5.8"	"9.3"	
"20130206"	"Light Snow"	"01"	"18"	"24.8"	"-4.0"	"0"	"0"	"-9999"	"-9999"	"93"	"snow"	"SPECI KBOS 060618Z 30006KT 1 3/4SM -SN BR FEW009 OVC016 M03/M04 A2994 RMK AO2 TWR VIS 3 P0000"	"0.00"	"0.0"	"29.94"	"1013.8"	"0"	"1"	"26.6"	"-3.0"	"0"	"0"	"1.8"	"2.8"	"300"	"WNW"	"-9999.0"	"-9999.0"	"19.1"	"-7.2"	"6.9"	"11.1"	
"20130206"	"Light Snow"	"01"	"54"	"24.1"	"-4.4"	"0"	"0"	"-9999"	"-9999"	"89"	"snow"	"METAR KBOS 060654Z 34004KT 2SM -SN BR BKN019 OVC030 M03/M04 A2995 RMK AO2 SFC VIS 2 1/2 SLP139 P0001 T10281044"	"0.01"	"0.3"	"29.94"	"1013.9"	"0"	"1"	"27.0"	"-2.8"	"0"	"0"	"2.0"	"3.2"	"340"	"NNW"	"-9999.0"	"-9999.0"	"21.6"	"-5.8"	"4.6"	"7.4"	
"20130206"	"Light Snow"	"02"	"20"	"24.8"	"-4.0"	"0"	"0"	"-9999"	"-9999"	"93"	"snow"	"SPECI KBOS 060720Z 31005KT 2SM -SN BR FEW006 BKN028 OVC037 M03/M04 A2995 RMK AO2 SFC VIS 2 1/2 P0000"	"0.00"	"0.0"	"29.95"	"1014.1"	"0"	"1"	"26.6"	"-3.0"	"0"	"0"	"2.0"	"3.2"	"310"	"NW"	"-9999.0"	"-9999.0"	"20.0"	"-6.7"	"5.8"	"9.3"	
"20130206"	"Light Snow"	"02"	"38"	"24.8"	"-4.0"	"0"	"0"	"-9999"	"-9999"	"93"	"snow"	"SPECI KBOS 060738Z 32007KT 1 1/2SM -SN BR FEW006 BKN017 OVC028 M03/M04 A2995 RMK AO2 TWR VIS 2 P0000"	"0.00"	"0.0"	"29.95"	"1014.1"	"0"	"1"	"26.6"	"-3.0"	"0"	"0"	"1.5"	"2.4"	"320"	"NW"	"-9999.0"	"-9999.0"	"18.2"	"-7.6"	"8.1"	"13.0"	
"20130206"	"Light Snow"	"02"	"54"	"23.0"	"-5.0"	"0"	"0"	"-9999"	"-9999"	"88"	"snow"	"METAR KBOS 060754Z 33004KT 2SM -SN BR FEW017 OVC027 M03/M05 A2994 RMK AO2 SFC VIS 4 SLP137 P0000 T10331050"	"0.00"	"0.0"	"29.94"	"1013.7"	"0"	"1"	"26.1"	"-3.3"	"0"	"0"	"2.0"	"3.2"	"330"	"NNW"	"-9999.0"	"-9999.0"	"20.5"	"-6.4"	"4.6"	"7.4"	
"20130206"	"Light Snow"	"03"	"11"	"24.8"	"-4.0"	"0"	"0"	"-9999"	"-9999"	"93"	"snow"	"SPECI KBOS 060811Z 32004KT 2SM -SN BR SCT027 BKN041 OVC048 M03/M04 A2993 RMK AO2 SFC VIS 3 CIG 028 E P0000"	"0.00"	"0.0"	"29.93"	"1013.4"	"0"	"1"	"26.6"	"-3.0"	"0"	"0"	"2.0"	"3.2"	"320"	"NW"	"-9999.0"	"-9999.0"	"21.2"	"-6.0"	"4.6"	"7.4"	
"20130206"	"Light Snow"	"03"	"54"	"23.0"	"-5.0"	"0"	"0"	"-9999"	"-9999"	"88"	"snow"	"METAR KBOS 060854Z 34003KT 4SM -SN BR FEW029 SCT048 OVC070 M03/M05 A2993 RMK AO2 CIG 049 E SLP134 P0000 60001 T10331050 58005"	"0.00"	"0.0"	"29.93"	"1013.4"	"0"	"1"	"26.1"	"-3.3"	"0"	"0"	"4.0"	"6.4"	"340"	"NNW"	"-9999.0"	"-9999.0"	"21.9"	"-5.6"	"3.5"	"5.6"	
"20130206"	"Overcast"	"04"	"21"	"24.8"	"-4.0"	"0"	"0"	"-9999"	"-9999"	"93"	"cloudy"	"SPECI KBOS 060921Z 00000KT 5SM BR FEW013 BKN027 OVC070 M03/M04 A2993 RMK AO2 SNE19 P0000"	"0.00"	"0.0"	"29.93"	"1013.4"	"0"	"0"	"26.6"	"-3.0"	"0"	"0"	"5.0"	"8.0"	"0"	"North"	"-9999.0"	"-9999.0"	"-999"	"-999"	"0.0"	"0.0"	
"20130206"	"Overcast"	"04"	"39"	"24.8"	"-4.0"	"0"	"0"	"-9999"	"-9999"	"93"	"cloudy"	"SPECI KBOS 060939Z 00000KT 6SM BR FEW013 SCT027 OVC065 M03/M04 A2994 RMK AO2 SNE19 P0000"	"0.00"	"0.0"	"29.94"	"1013.8"	"0"	"0"	"26.6"	"-3.0"	"0"	"0"	"6.0"	"9.7"	"0"	"North"	"-9999.0"	"-9999.0"	"-999"	"-999"	"0.0"	"0.0"	
"20130206"	"Overcast"	"04"	"54"	"24.1"	"-4.4"	"0"	"0"	"-9999"	"-9999"	"92"	"cloudy"	"METAR KBOS 060954Z 00000KT 7SM OVC065 M03/M04 A2994 RMK AO2 SNE19 SLP138 P0000 T10331044"	"0.00"	"0.0"	"29.94"	"1013.8"	"0"	"0"	"26.1"	"-3.3"	"0"	"0"	"7.0"	"11.3"	"0"	"North"	"-9999.0"	"-9999.0"	"-999"	"-999"	"0.0"	"0.0"	
"20130206"	"Overcast"	"05"	"54"	"24.1"	"-4.4"	"0"	"0"	"-9999"	"-9999"	"89"	"cloudy"	"METAR KBOS 061054Z 31004KT 7SM OVC060 M03/M04 A2996 RMK AO2 SLP143 T10281044"	"-9999.00"	"-9999.00"	"29.96"	"1014.3"	"0"	"0"	"27.0"	"-2.8"	"0"	"0"	"7.0"	"11.3"	"310"	"NW"	"-9999.0"	"-9999.0"	"21.6"	"-5.8"	"4.6"	"7.4"	
"20130206"	"Overcast"	"06"	"54"	"23.0"	"-5.0"	"0"	"0"	"-9999"	"-9999"	"85"	"cloudy"	"METAR KBOS 061154Z 31004KT 7SM OVC055 M03/M05 A2998 RMK AO2 SLP150 60001 70004 T10281050 11022 21033 53016"	"-9999.00"	"-9999.00"	"29.98"	"1015.0"	"0"	"0"	"27.0"	"-2.8"	"0"	"0"	"7.0"	"11.3"	"310"	"NW"	"-9999.0"	"-9999.0"	"21.6"	"-5.8"	"4.6"	"7.4"	
"20130206"	"Mostly Cloudy"	"07"	"54"	"23.0"	"-5.0"	"0"	"0"	"-9999"	"-9999"	"85"	"mostlycloudy"	"METAR KBOS 061254Z 29005KT 6SM R04R/5000VP6000FT BR BKN060 M03/M05 A2999 RMK AO2 SLP155 T10281050"	"-9999.00"	"-9999.00"	"29.99"	"1015.5"	"0"	"0"	"27.0"	"-2.8"	"0"	"0"	"6.0"	"9.7"	"290"	"WNW"	"-9999.0"	"-9999.0"	"20.5"	"-6.4"	"5.8"	"9.3"	
"20130206"	"Mostly Cloudy"	"08"	"54"	"25.0"	"-3.9"	"0"	"0"	"-9999"	"-9999"	"82"	"mostlycloudy"	"METAR KBOS 061354Z 31003KT 7SM BKN075 M01/M04 A3000 RMK AO2 SLP159 T10111039"	"-9999.00"	"-9999.00"	"30.00"	"1015.9"	"0"	"0"	"30.0"	"-1.1"	"0"	"0"	"7.0"	"11.3"	"310"	"NW"	"-9999.0"	"-9999.0"	"26.5"	"-3.1"	"3.5"	"5.6"	
"20130206"	"Mostly Cloudy"	"09"	"54"	"25.0"	"-3.9"	"0"	"0"	"-9999"	"-9999"	"75"	"mostlycloudy"	"METAR KBOS 061454Z 27006KT 10SM BKN080 00/M04 A3001 RMK AO2 SLP160 T00001039 51011"	"-9999.00"	"-9999.00"	"30.01"	"1016.0"	"0"	"0"	"32.0"	"0.0"	"0"	"0"	"10.0"	"16.1"	"270"	"West"	"-9999.0"	"-9999.0"	"25.6"	"-3.6"	"6.9"	"11.1"	
"20130206"	"Scattered Clouds"	"10"	"54"	"24.1"	"-4.4"	"0"	"0"	"-9999"	"-9999"	"67"	"partlycloudy"	"METAR KBOS 061554Z 29007KT 10SM FEW045 SCT080 01/M04 A3000 RMK AO2 SLP157 T00111044"	"-9999.00"	"-9999.00"	"30.00"	"1015.7"	"0"	"0"	"34.0"	"1.1"	"0"	"0"	"10.0"	"16.1"	"290"	"WNW"	"-9999.0"	"-9999.0"	"27.2"	"-2.6"	"8.1"	"13.0"	
"20130206"	"Scattered Clouds"	"11"	"54"	"21.9"	"-5.6"	"0"	"0"	"-9999"	"-9999"	"57"	"partlycloudy"	"METAR KBOS 061654Z VRB06KT 10SM FEW035 SCT080 02/M06 A2999 RMK AO2 SLP156 T00221056"	"-9999.00"	"-9999.00"	"29.99"	"1015.6"	"0"	"0"	"36.0"	"2.2"	"0"	"0"	"10.0"	"16.1"	"0"	"Variable"	"-9999.0"	"-9999.0"	"30.3"	"-0.9"	"6.9"	"11.1"	
"20130206"	"Scattered Clouds"	"12"	"54"	"21.0"	"-6.1"	"0"	"0"	"-9999"	"-9999"	"51"	"partlycloudy"	"METAR KBOS 061754Z 28012KT 10SM SCT045 03/M06 A2998 RMK AO2 SLP151 T00331061 10039 21028 58009"	"-9999.00"	"-9999.00"	"29.98"	"1015.1"	"0"	"0"	"37.9"	"3.3"	"0"	"0"	"10.0"	"16.1"	"280"	"West"	"-9999.0"	"-9999.0"	"29.6"	"-1.3"	"13.8"	"22.2"	
"20130206"	"Light Snow"	"13"	"54"	"18.0"	"-7.8"	"0"	"0"	"-9999"	"-9999"	"46"	"snow"	"METAR KBOS 061854Z 28011G23KT 9SM -SN BKN055 03/M08 A3000 RMK AO2 SNB49 SLP158 P0000 T00281078"	"0.00"	"0.0"	"30.00"	"1015.8"	"0"	"1"	"37.0"	"2.8"	"0"	"0"	"9.0"	"14.5"	"280"	"West"	"26.5"	"42.6"	"28.9"	"-1.7"	"12.7"	"20.4"	
"20130206"	"Mostly Cloudy"	"14"	"54"	"18.0"	"-7.8"	"0"	"0"	"-9999"	"-9999"	"46"	"mostlycloudy"	"METAR KBOS 061954Z 27017G25KT 10SM BKN050 03/M08 A3002 RMK AO2 SNE16 SLP164 P0000 T00281078"	"0.00"	"0.0"	"30.02"	"1016.4"	"0"	"0"	"37.0"	"2.8"	"0"	"0"	"10.0"	"16.1"	"270"	"West"	"28.8"	"46.3"	"26.7"	"-2.9"	"19.6"	"31.5"	
"20130206"	"Scattered Clouds"	"15"	"54"	"17.1"	"-8.3"	"0"	"0"	"-9999"	"-9999"	"46"	"partlycloudy"	"METAR KBOS 062054Z 27020G26KT 10SM FEW050 SCT060 02/M08 A3003 RMK AO2 PK WND 28026/2054 SLP169 60000 T00221083 51019"	"-9999.00"	"-9999.00"	"30.03"	"1016.9"	"0"	"0"	"36.0"	"2.2"	"0"	"0"	"10.0"	"16.1"	"270"	"West"	"29.9"	"48.2"	"24.4"	"-4.2"	"23.0"	"37.0"	
"20130206"	"Partly Cloudy"	"16"	"54"	"15.1"	"-9.4"	"0"	"0"	"-9999"	"-9999"	"43"	"partlycloudy"	"METAR KBOS 062154Z 29012KT 10SM FEW055 02/M09 A3006 RMK AO2 SLP180 T00221094"	"-9999.00"	"-9999.00"	"30.06"	"1018.0"	"0"	"0"	"36.0"	"2.2"	"0"	"0"	"10.0"	"16.1"	"290"	"WNW"	"-9999.0"	"-9999.0"	"27.1"	"-2.7"	"13.8"	"22.2"	
"20130206"	"Partly Cloudy"	"17"	"54"	"15.1"	"-9.4"	"0"	"0"	"-9999"	"-9999"	"44"	"partlycloudy"	"METAR KBOS 062254Z 29011G15KT 10SM FEW050 02/M09 A3010 RMK AO2 SLP192 T00171094"	"-9999.00"	"-9999.00"	"30.10"	"1019.2"	"0"	"0"	"35.1"	"1.7"	"0"	"0"	"10.0"	"16.1"	"290"	"WNW"	"17.3"	"27.8"	"26.4"	"-3.1"	"12.7"	"20.4"	
"20130206"	"Clear"	"18"	"54"	"14.0"	"-10.0"	"0"	"0"	"-9999"	"-9999"	"42"	"clear"	"METAR KBOS 062354Z 28012G17KT 10SM CLR 02/M10 A3015 RMK AO2 SLP207 60000 T00171100 10044 20011 53038"	"-9999.00"	"-9999.00"	"30.14"	"1020.7"	"0"	"0"	"35.1"	"1.7"	"0"	"0"	"10.0"	"16.1"	"280"	"West"	"19.6"	"31.5"	"25.9"	"-3.4"	"13.8"	"22.2"	
"20130206"	"Clear"	"19"	"54"	"10.0"	"-12.2"	"0"	"0"	"-9999"	"-9999"	"40"	"clear"	"METAR KBOS 070054Z 29013G20KT 10SM CLR 00/M12 A3018 RMK AO2 SLP219 T00001122"	"-9999.00"	"-9999.00"	"30.18"	"1021.9"	"0"	"0"	"32.0"	"0.0"	"0"	"0"	"10.0"	"16.1"	"290"	"WNW"	"23.0"	"37.0"	"21.6"	"-5.8"	"15.0"	"24.1"	
"20130206"	"Clear"	"20"	"54"	"7.0"	"-13.9"	"0"	"0"	"-9999"	"-9999"	"37"	"clear"	"METAR KBOS 070154Z 29013G17KT 10SM CLR M01/M14 A3021 RMK AO2 SLP228 T10061139"	"-9999.00"	"-9999.00"	"30.21"	"1022.8"	"0"	"0"	"30.9"	"-0.6"	"0"	"0"	"10.0"	"16.1"	"290"	"WNW"	"19.6"	"31.5"	"20.2"	"-6.5"	"15.0"	"24.1"	
"20130206"	"Clear"	"21"	"54"	"5.0"	"-15.0"	"0"	"0"	"-9999"	"-9999"	"35"	"clear"	"METAR KBOS 070254Z 28011G17KT 10SM CLR M01/M15 A3024 RMK AO2 SLP240 T10111150 53033"	"-9999.00"	"-9999.00"	"30.24"	"1024.0"	"0"	"0"	"30.0"	"-1.1"	"0"	"0"	"10.0"	"16.1"	"280"	"West"	"19.6"	"31.5"	"20.0"	"-6.7"	"12.7"	"20.4"	
"20130206"	"Clear"	"22"	"54"	"5.0"	"-15.0"	"0"	"0"	"-9999"	"-9999"	"36"	"clear"	"METAR KBOS 070354Z 29010KT 10SM CLR M02/M15 A3028 RMK AO2 SLP253 T10171150"	"-9999.00"	"-9999.00"	"30.28"	"1025.3"	"0"	"0"	"28.9"	"-1.7"	"0"	"0"	"10.0"	"16.1"	"290"	"WNW"	"-9999.0"	"-9999.0"	"19.2"	"-7.1"	"11.5"	"18.5"	
"20130206"	"Clear"	"23"	"54"	"3.0"	"-16.1"	"0"	"0"	"-9999"	"-9999"	"36"	"clear"	"METAR KBOS 070454Z 28009KT 10SM CLR M03/M16 A3029 RMK AO2 SLP257 T10281161 400441033"	"-9999.00"	"-9999.00"	"30.29"	"1025.7"	"0"	"0"	"27.0"	"-2.8"	"0"	"0"	"10.0"	"16.1"	"280"	"West"	"-9999.0"	"-9999.0"	"17.3"	"-8.2"	"10.4"	"16.7"	
"20130205"	"Overcast"	"00"	"54"	"6.1"	"-14.4"	"0"	"0"	"-9999"	"-9999"	"51"	"cloudy"	"METAR KBOS 050554Z 27014G19KT 10SM OVC100 M06/M14 A2996 RMK AO2 SLP143 60001 T10561144 11033 21056 53011"	"-9999.00"	"-9999.00"	"29.96"	"1014.3"	"0"	"0"	"21.9"	"-5.6"	"0"	"0"	"10.0"	"16.1"	"270"	"West"	"21.9"	"35.2"	"8.2"	"-13.2"	"16.1"	"25.9"	
"20130205"	"Overcast"	"01"	"54"	"6.1"	"-14.4"	"0"	"0"	"-9999"	"-9999"	"48"	"cloudy"	"METAR KBOS 050654Z 26015G20KT 10SM OVC100 M05/M14 A2997 RMK AO2 SLP148 T10501144"	"-9999.00"	"-9999.00"	"29.97"	"1014.8"	"0"	"0"	"23.0"	"-5.0"	"0"	"0"	"10.0"	"16.1"	"260"	"West"	"23.0"	"37.0"	"9.2"	"-12.7"	"17.3"	"27.8"	
"20130205"	"Overcast"	"02"	"54"	"6.1"	"-14.4"	"0"	"0"	"-9999"	"-9999"	"48"	"cloudy"	"METAR KBOS 050754Z 27007KT 10SM OVC110 M05/M14 A2997 RMK AO2 SLP146 T10501144"	"-9999.00"	"-9999.00"	"29.96"	"1014.6"	"0"	"0"	"23.0"	"-5.0"	"0"	"0"	"10.0"	"16.1"	"270"	"West"	"-9999.0"	"-9999.0"	"13.9"	"-10.1"	"8.1"	"13.0"	
"20130205"	"Overcast"	"03"	"54"	"6.1"	"-14.4"	"0"	"0"	"-9999"	"-9999"	"48"	"cloudy"	"METAR KBOS 050854Z 28012KT 10SM OVC100 M05/M14 A2998 RMK AO2 SLP150 T10501144 51006"	"-9999.00"	"-9999.00"	"29.98"	"1015.0"	"0"	"0"	"23.0"	"-5.0"	"0"	"0"	"10.0"	"16.1"	"280"	"West"	"-9999.0"	"-9999.0"	"10.6"	"-11.9"	"13.8"	"22.2"	
"20130205"	"Overcast"	"04"	"54"	"7.0"	"-13.9"	"0"	"0"	"-9999"	"-9999"	"50"	"cloudy"	"METAR KBOS 050954Z 28007KT 10SM OVC100 M05/M14 A2998 RMK AO2 SLP150 T10501139"	"-9999.00"	"-9999.00"	"29.98"	"1015.0"	"0"	"0"	"23.0"	"-5.0"	"0"	"0"	"10.0"	"16.1"	"280"	"West"	"-9999.0"	"-9999.0"	"13.9"	"-10.1"	"8.1"	"13.0"	
"20130205"	"Overcast"	"05"	"54"	"6.1"	"-14.4"	"0"	"0"	"-9999"	"-9999"	"48"	"cloudy"	"METAR KBOS 051054Z 28006KT 10SM OVC100 M05/M14 A2998 RMK AO2 SLP152 T10501144"	"-9999.00"	"-9999.00"	"29.98"	"1015.2"	"0"	"0"	"23.0"	"-5.0"	"0"	"0"	"10.0"	"16.1"	"280"	"West"	"-9999.0"	"-9999.0"	"14.7"	"-9.6"	"6.9"	"11.1"	
"20130205"	"Overcast"	"06"	"54"	"7.0"	"-13.9"	"0"	"0"	"-9999"	"-9999"	"48"	"cloudy"	"METAR KBOS 051154Z 27005KT 10SM OVC095 M04/M14 A3000 RMK AO2 SLP156 T10441139 11044 21056 53007"	"-9999.00"	"-9999.00"	"29.99"	"1015.6"	"0"	"0"	"24.1"	"-4.4"	"0"	"0"	"10.0"	"16.1"	"270"	"West"	"-9999.0"	"-9999.0"	"17.0"	"-8.3"	"5.8"	"9.3"	
"20130205"	"Overcast"	"07"	"54"	"7.0"	"-13.9"	"0"	"0"	"-9999"	"-9999"	"48"	"cloudy"	"METAR KBOS 051254Z VRB05KT 10SM BKN075 OVC090 M04/M14 A3002 RMK AO2 SLP164 T10441139"	"-9999.00"	"-9999.00"	"30.02"	"1016.4"	"0"	"0"	"24.1"	"-4.4"	"0"	"0"	"10.0"	"16.1"	"0"	"Variable"	"-9999.0"	"-9999.0"	"17.0"	"-8.3"	"5.8"	"9.3"	
"20130205"	"Overcast"	"08"	"54"	"6.1"	"-14.4"	"0"	"0"	"-9999"	"-9999"	"45"	"cloudy"	"METAR KBOS 051354Z 29008KT 10SM OVC070 M04/M14 A3002 RMK AO2 SLP166 T10391144"	"-9999.00"	"-9999.00"	"30.02"	"1016.6"	"0"	"0"	"25.0"	"-3.9"	"0"	"0"	"10.0"	"16.1"	"290"	"WNW"	"-9999.0"	"-9999.0"	"15.5"	"-9.2"	"9.2"	"14.8"	
"20130205"	"Overcast"	"09"	"54"	"6.1"	"-14.4"	"0"	"0"	"-9999"	"-9999"	"45"	"cloudy"	"METAR KBOS 051454Z VRB04KT 10SM BKN060 OVC070 M04/M14 A3003 RMK AO2 SLP169 T10391144 51012"	"-9999.00"	"-9999.00"	"30.03"	"1016.9"	"0"	"0"	"25.0"	"-3.9"	"0"	"0"	"10.0"	"16.1"	"0"	"Variable"	"-9999.0"	"-9999.0"	"19.3"	"-7.1"	"4.6"	"7.4"	
"20130205"	"Overcast"	"10"	"54"	"5.0"	"-15.0"	"0"	"0"	"-9999"	"-9999"	"41"	"cloudy"	"METAR KBOS 051554Z 34005KT 10SM OVC065 M03/M15 A3003 RMK AO2 SLP169 T10331150"	"-9999.00"	"-9999.00"	"30.03"	"1016.9"	"0"	"0"	"26.1"	"-3.3"	"0"	"0"	"10.0"	"16.1"	"340"	"NNW"	"-9999.0"	"-9999.0"	"19.4"	"-7.0"	"5.8"	"9.3"	
"20130205"	"Overcast"	"11"	"54"	"6.1"	"-14.4"	"0"	"0"	"-9999"	"-9999"	"41"	"cloudy"	"METAR KBOS 051654Z 36003KT 10SM OVC060 M03/M14 A3001 RMK AO2 SLP162 T10281144"	"-9999.00"	"-9999.00"	"30.01"	"1016.2"	"0"	"0"	"27.0"	"-2.8"	"0"	"0"	"10.0"	"16.1"	"360"	"North"	"-9999.0"	"-9999.0"	"23.0"	"-5.0"	"3.5"	"5.6"	
"20130205"	"Overcast"	"12"	"54"	"7.0"	"-13.9"	"0"	"0"	"-9999"	"-9999"	"43"	"cloudy"	"METAR KBOS 051754Z 15005KT 10SM OVC060 M03/M14 A3000 RMK AO2 SLP158 T10281139 11028 21044 58011"	"-9999.00"	"-9999.00"	"30.00"	"1015.8"	"0"	"0"	"27.0"	"-2.8"	"0"	"0"	"10.0"	"16.1"	"150"	"SSE"	"-9999.0"	"-9999.0"	"20.5"	"-6.4"	"5.8"	"9.3"	
"20130205"	"Overcast"	"13"	"54"	"9.0"	"-12.8"	"0"	"0"	"-9999"	"-9999"	"47"	"cloudy"	"METAR KBOS 051854Z 13004KT 10SM OVC055 M03/M13 A2999 RMK AO2 SLP153 T10281128"	"-9999.00"	"-9999.00"	"29.99"	"1015.3"	"0"	"0"	"27.0"	"-2.8"	"0"	"0"	"10.0"	"16.1"	"130"	"SE"	"-9999.0"	"-9999.0"	"21.6"	"-5.8"	"4.6"	"7.4"	
"20130205"	"Overcast"	"14"	"54"	"10.9"	"-11.7"	"0"	"0"	"-9999"	"-9999"	"51"	"cloudy"	"METAR KBOS 051954Z 13006KT 10SM OVC050 M03/M12 A2998 RMK AO2 SLP153 T10281117"	"-9999.00"	"-9999.00"	"29.99"	"1015.3"	"0"	"0"	"27.0"	"-2.8"	"0"	"0"	"10.0"	"16.1"	"130"	"SE"	"-9999.0"	"-9999.0"	"19.5"	"-6.9"	"6.9"	"11.1"	
"20130205"	"Overcast"	"15"	"54"	"12.9"	"-10.6"	"0"	"0"	"-9999"	"-9999"	"56"	"cloudy"	"METAR KBOS 052054Z 12009KT 10SM BKN050 OVC170 M03/M11 A2997 RMK AO2 SLP146 T10281106 58012"	"-9999.00"	"-9999.00"	"29.96"	"1014.6"	"0"	"0"	"27.0"	"-2.8"	"0"	"0"	"10.0"	"16.1"	"120"	"ESE"	"-9999.0"	"-9999.0"	"17.3"	"-8.2"	"10.4"	"16.7"	
"20130205"	"Overcast"	"16"	"54"	"15.1"	"-9.4"	"0"	"0"	"-9999"	"-9999"	"61"	"cloudy"	"METAR KBOS 052154Z 14008KT 10SM BKN048 OVC170 M03/M09 A2996 RMK AO2 SLP146 T10281094"	"-9999.00"	"-9999.00"	"29.96"	"1014.6"	"0"	"0"	"27.0"	"-2.8"	"0"	"0"	"10.0"	"16.1"	"140"	"SE"	"-9999.0"	"-9999.0"	"18.0"	"-7.8"	"9.2"	"14.8"	
"20130205"	"Overcast"	"17"	"54"	"16.0"	"-8.9"	"0"	"0"	"-9999"	"-9999"	"63"	"cloudy"	"METAR KBOS 052254Z 15008KT 10SM FEW035 BKN046 OVC170 M03/M09 A2996 RMK AO2 SLP145 T10281089"	"-9999.00"	"-9999.00"	"29.96"	"1014.5"	"0"	"0"	"27.0"	"-2.8"	"0"	"0"	"10.0"	"16.1"	"150"	"SSE"	"-9999.0"	"-9999.0"	"18.0"	"-7.8"	"9.2"	"14.8"	
"20130205"	"Overcast"	"18"	"54"	"17.1"	"-8.3"	"0"	"0"	"-9999"	"-9999"	"66"	"cloudy"	"METAR KBOS 052354Z 16005KT 10SM BKN040 OVC050 M03/M08 A2997 RMK AO2 SLP149 T10281083 11028 21033 53002"	"-9999.00"	"-9999.00"	"29.97"	"1014.9"	"0"	"0"	"27.0"	"-2.8"	"0"	"0"	"10.0"	"16.1"	"160"	"SSE"	"-9999.0"	"-9999.0"	"20.5"	"-6.4"	"5.8"	"9.3"	
"20130205"	"Light Snow"	"19"	"34"	"17.6"	"-8.0"	"0"	"0"	"-9999"	"-9999"	"69"	"snow"	"SPECI KBOS 060034Z 16005KT 3SM -SN BKN027 OVC038 M03/M08 A2997 RMK AO2 SNB20 P0000"	"0.00"	"0.0"	"29.97"	"1014.8"	"0"	"1"	"26.6"	"-3.0"	"0"	"0"	"3.0"	"4.8"	"160"	"SSE"	"-9999.0"	"-9999.0"	"20.0"	"-6.7"	"5.8"	"9.3"	
"20130205"	"Light Snow"	"19"	"41"	"17.6"	"-8.0"	"0"	"0"	"-9999"	"-9999"	"69"	"snow"	"SPECI KBOS 060041Z 16006KT 2SM -SN OVC025 M03/M08 A2997 RMK AO2 TWR VIS 3 SNB20 P0000"	"0.00"	"0.0"	"29.97"	"1014.8"	"0"	"1"	"26.6"	"-3.0"	"0"	"0"	"2.0"	"3.2"	"160"	"SSE"	"-9999.0"	"-9999.0"	"19.1"	"-7.2"	"6.9"	"11.1"	
"20130205"	"Light Snow"	"19"	"54"	"18.0"	"-7.8"	"0"	"0"	"-9999"	"-9999"	"71"	"snow"	"METAR KBOS 060054Z 17005KT 2 1/2SM -SN OVC027 M03/M08 A2997 RMK AO2 TWR VIS 3 SNB20 SLP147 P0000 T10331078"	"0.00"	"0.0"	"29.97"	"1014.7"	"0"	"1"	"26.1"	"-3.3"	"0"	"0"	"2.5"	"4.0"	"170"	"South"	"-9999.0"	"-9999.0"	"19.4"	"-7.0"	"5.8"	"9.3"	
"20130205"	"Light Snow"	"20"	"27"	"19.4"	"-7.0"	"0"	"0"	"-9999"	"-9999"	"80"	"snow"	"SPECI KBOS 060127Z 19003KT 3SM -SN OVC027 M04/M07 A2997 RMK AO2 P0000"	"0.00"	"0.0"	"29.97"	"1014.8"	"0"	"1"	"24.8"	"-4.0"	"0"	"0"	"3.0"	"4.8"	"190"	"South"	"-9999.0"	"-9999.0"	"20.5"	"-6.4"	"3.5"	"5.6"	
"20130205"	"Light Snow"	"20"	"41"	"19.4"	"-7.0"	"0"	"0"	"-9999"	"-9999"	"74"	"snow"	"SPECI KBOS 060141Z 20003KT 1 3/4SM -SN OVC021 M03/M07 A2997 RMK AO2 TWR VIS 3 P0000"	"0.00"	"0.0"	"29.97"	"1014.8"	"0"	"1"	"26.6"	"-3.0"	"0"	"0"	"1.8"	"2.8"	"200"	"SSW"	"-9999.0"	"-9999.0"	"22.6"	"-5.2"	"3.5"	"5.6"	
"20130205"	"Light Snow"	"20"	"54"	"21.0"	"-6.1"	"0"	"0"	"-9999"	"-9999"	"81"	"snow"	"METAR KBOS 060154Z 21003KT 1 1/2SM -SN OVC017 M03/M06 A2997 RMK AO2 TWR VIS 3 SLP148 P0001 T10331061"	"0.01"	"0.3"	"29.97"	"1014.8"	"0"	"1"	"26.1"	"-3.3"	"0"	"0"	"1.5"	"2.4"	"210"	"SSW"	"-9999.0"	"-9999.0"	"21.9"	"-5.6"	"3.5"	"5.6"	
"20130205"	"Light Snow"	"21"	"36"	"21.2"	"-6.0"	"0"	"0"	"-9999"	"-9999"	"80"	"snow"	"SPECI KBOS 060236Z 00000KT 2SM -SN BR OVC021 M03/M06 A2997 RMK AO2 TWR VIS 3 P0001"	"0.01"	"0.3"	"29.97"	"1014.8"	"0"	"1"	"26.6"	"-3.0"	"0"	"0"	"2.0"	"3.2"	"0"	"North"	"-9999.0"	"-9999.0"	"-999"	"-999"	"0.0"	"0.0"	
"20130205"	"Light Snow"	"21"	"49"	"21.2"	"-6.0"	"0"	"0"	"-9999"	"-9999"	"80"	"snow"	"SPECI KBOS 060249Z 00000KT 3SM -SN BR SCT023 OVC043 M03/M06 A2997 RMK AO2 P0001"	"0.01"	"0.3"	"29.97"	"1014.8"	"0"	"1"	"26.6"	"-3.0"	"0"	"0"	"3.0"	"4.8"	"0"	"North"	"-9999.0"	"-9999.0"	"-999"	"-999"	"0.0"	"0.0"	
"20130205"	"Light Snow"	"21"	"54"	"21.9"	"-5.6"	"0"	"0"	"-9999"	"-9999"	"81"	"snow"	"METAR KBOS 060254Z 00000KT 3SM -SN SCT025 OVC043 M03/M06 A2997 RMK AO2 SFC VIS 4 SLP147 P0001 60002 T10281056 56001"	"0.01"	"0.3"	"29.97"	"1014.7"	"0"	"1"	"27.0"	"-2.8"	"0"	"0"	"3.0"	"4.8"	"0"	"North"	"-9999.0"	"-9999.0"	"-999"	"-999"	"0.0"	"0.0"	
"20130205"	"Overcast"	"22"	"54"	"23.0"	"-5.0"	"0"	"0"	"-9999"	"-9999"	"88"	"cloudy"	"METAR KBOS 060354Z 00000KT 3SM BR BKN017 OVC035 M03/M05 A2995 RMK AO2 SFC VIS 4 SNE50 SLP142 P0000 T10331050"	"0.00"	"0.0"	"29.95"	"1014.2"	"0"	"0"	"26.1"	"-3.3"	"0"	"0"	"3.0"	"4.8"	"0"	"North"	"-9999.0"	"-9999.0"	"-999"	"-999"	"0.0"	"0.0"	
"20130205"	"Light Snow"	"23"	"54"	"24.1"	"-4.4"	"0"	"0"	"-9999"	"-9999"	"89"	"snow"	"METAR KBOS 060454Z 02003KT 3SM -SN BR BKN017 OVC031 M03/M04 A2994 RMK AO2 SFC VIS 5 SNB0358 SLP138 P0001 T10281044 410281056"	"0.01"	"0.3"	"29.94"	"1013.8"	"0"	"1"	"27.0"	"-2.8"	"0"	"0"	"3.0"	"4.8"	"20"	"NNE"	"-9999.0"	"-9999.0"	"23.0"	"-5.0"	"3.5"	"5.6"	
"20130204"	"Overcast"	"00"	"54"	"19.0"	"-7.2"	"0"	"0"	"-9999"	"-9999"	"78"	"cloudy"	"METAR KBOS 040554Z 29006KT 10SM FEW060 OVC070 M04/M07 A2973 RMK AO2 SLP067 60000 T10391072 11039 21044 56006"	"-9999.00"	"-9999.00"	"29.73"	"1006.7"	"0"	"0"	"25.0"	"-3.9"	"0"	"0"	"10.0"	"16.1"	"290"	"WNW"	"-9999.0"	"-9999.0"	"17.1"	"-8.3"	"6.9"	"11.1"	
"20130204"	"Overcast"	"01"	"54"	"19.0"	"-7.2"	"0"	"0"	"-9999"	"-9999"	"78"	"cloudy"	"METAR KBOS 040654Z 28007KT 10SM FEW060 OVC075 M04/M07 A2973 RMK AO2 SLP067 T10391072"	"-9999.00"	"-9999.00"	"29.73"	"1006.7"	"0"	"0"	"25.0"	"-3.9"	"0"	"0"	"10.0"	"16.1"	"280"	"West"	"-9999.0"	"-9999.0"	"16.3"	"-8.7"	"8.1"	"13.0"	
"20130204"	"Overcast"	"02"	"54"	"18.0"	"-7.8"	"0"	"0"	"-9999"	"-9999"	"75"	"cloudy"	"METAR KBOS 040754Z 30010KT 10SM SCT100 BKN120 OVC220 M04/M08 A2972 RMK AO2 SLP063 T10391078"	"-9999.00"	"-9999.00"	"29.72"	"1006.3"	"0"	"0"	"25.0"	"-3.9"	"0"	"0"	"10.0"	"16.1"	"300"	"WNW"	"-9999.0"	"-9999.0"	"14.2"	"-9.9"	"11.5"	"18.5"	
"20130204"	"Scattered Clouds"	"03"	"54"	"14.0"	"-10.0"	"0"	"0"	"-9999"	"-9999"	"68"	"partlycloudy"	"METAR KBOS 040854Z 29008KT 10SM FEW220 SCT250 M05/M10 A2972 RMK AO2 SLP065 T10501100 55002"	"-9999.00"	"-9999.00"	"29.73"	"1006.5"	"0"	"0"	"23.0"	"-5.0"	"0"	"0"	"10.0"	"16.1"	"290"	"WNW"	"-9999.0"	"-9999.0"	"13.1"	"-10.5"	"9.2"	"14.8"	
"20130204"	"Partly Cloudy"	"05"	"54"	"12.9"	"-10.6"	"0"	"0"	"-9999"	"-9999"	"65"	"partlycloudy"	"METAR KBOS 041054Z 27012KT 10SM FEW150 M05/M11 A2974 RMK AO2 SLP071 T10501106"	"-9999.00"	"-9999.00"	"29.74"	"1007.1"	"0"	"0"	"23.0"	"-5.0"	"0"	"0"	"10.0"	"16.1"	"270"	"West"	"-9999.0"	"-9999.0"	"10.6"	"-11.9"	"13.8"	"22.2"	
"20130204"	"Scattered Clouds"	"06"	"54"	"12.9"	"-10.6"	"0"	"0"	"-9999"	"-9999"	"65"	"partlycloudy"	"METAR KBOS 041154Z 28017G22KT 10SM FEW050 SCT250 M05/M11 A2976 RMK AO2 SLP077 T10501106 11039 21050 53012"	"-9999.00"	"-9999.00"	"29.76"	"1007.7"	"0"	"0"	"23.0"	"-5.0"	"0"	"0"	"10.0"	"16.1"	"280"	"West"	"25.3"	"40.7"	"8.3"	"-13.1"	"19.6"	"31.5"	
"20130204"	"Partly Cloudy"	"07"	"54"	"12.9"	"-10.6"	"0"	"0"	"-9999"	"-9999"	"62"	"partlycloudy"	"METAR KBOS 041254Z 29015G22KT 10SM FEW050 M04/M11 A2978 RMK AO2 SLP083 T10441106"	"-9999.00"	"-9999.00"	"29.78"	"1008.3"	"0"	"0"	"24.1"	"-4.4"	"0"	"0"	"10.0"	"16.1"	"290"	"WNW"	"25.3"	"40.7"	"10.6"	"-11.9"	"17.3"	"27.8"	
"20130204"	"Partly Cloudy"	"08"	"54"	"12.0"	"-11.1"	"0"	"0"	"-9999"	"-9999"	"58"	"partlycloudy"	"METAR KBOS 041354Z 28015G25KT 10SM FEW050 M04/M11 A2979 RMK AO2 PK WND 25026/1333 SLP086 T10391111"	"-9999.00"	"-9999.00"	"29.79"	"1008.6"	"0"	"0"	"25.0"	"-3.9"	"0"	"0"	"10.0"	"16.1"	"280"	"West"	"28.8"	"46.3"	"11.7"	"-11.3"	"17.3"	"27.8"	
"20130204"	"Partly Cloudy"	"09"	"54"	"10.0"	"-12.2"	"0"	"0"	"-9999"	"-9999"	"49"	"partlycloudy"	"METAR KBOS 041454Z 28021G28KT 10SM FEW045 M03/M12 A2979 RMK AO2 PK WND 30031/1439 SLP087 T10281122 51010"	"-9999.00"	"-9999.00"	"29.79"	"1008.7"	"0"	"0"	"27.0"	"-2.8"	"0"	"0"	"10.0"	"16.1"	"280"	"West"	"32.2"	"51.9"	"12.2"	"-11.0"	"24.2"	"38.9"	
"20130204"	"Partly Cloudy"	"10"	"54"	"9.0"	"-12.8"	"0"	"0"	"-9999"	"-9999"	"45"	"partlycloudy"	"METAR KBOS 041554Z 29016G24KT 10SM FEW049 M02/M13 A2979 RMK AO2 PK WND 29030/1538 SLP088 T10221128"	"-9999.00"	"-9999.00"	"29.79"	"1008.8"	"0"	"0"	"28.0"	"-2.2"	"0"	"0"	"10.0"	"16.1"	"290"	"WNW"	"27.6"	"44.4"	"15.3"	"-9.3"	"18.4"	"29.6"	
"20130204"	"Scattered Clouds"	"11"	"54"	"7.0"	"-13.9"	"0"	"0"	"-9999"	"-9999"	"40"	"partlycloudy"	"METAR KBOS 041654Z 29017G25KT 10SM SCT060 M02/M14 A2978 RMK AO2 PK WND 31026/1626 SLP084 T10171139"	"-9999.00"	"-9999.00"	"29.78"	"1008.4"	"0"	"0"	"28.9"	"-1.7"	"0"	"0"	"10.0"	"16.1"	"290"	"WNW"	"28.8"	"46.3"	"16.1"	"-8.8"	"19.6"	"31.5"	
"20130204"	"Scattered Clouds"	"12"	"54"	"5.0"	"-15.0"	"0"	"0"	"-9999"	"-9999"	"35"	"partlycloudy"	"METAR KBOS 041754Z 28022G29KT 10SM SCT060 M01/M15 A2977 RMK AO2 PK WND 26030/1722 SLP079 T10111150 11011 21050 58007"	"-9999.00"	"-9999.00"	"29.77"	"1007.9"	"0"	"0"	"30.0"	"-1.1"	"0"	"0"	"10.0"	"16.1"	"280"	"West"	"33.4"	"53.7"	"16.0"	"-8.9"	"25.3"	"40.7"	
"20130204"	"Scattered Clouds"	"13"	"54"	"6.1"	"-14.4"	"0"	"0"	"-9999"	"-9999"	"35"	"partlycloudy"	"METAR KBOS 041854Z 26022G31KT 10SM FEW048 SCT060 M01/M14 A2977 RMK AO2 PK WND 25031/1853 SLP080 T10061144"	"-9999.00"	"-9999.00"	"29.77"	"1008.0"	"0"	"0"	"30.9"	"-0.6"	"0"	"0"	"10.0"	"16.1"	"260"	"West"	"35.7"	"57.4"	"17.2"	"-8.2"	"25.3"	"40.7"	
"20130204"	"Mostly Cloudy"	"14"	"54"	"6.1"	"-14.4"	"0"	"0"	"-9999"	"-9999"	"39"	"mostlycloudy"	"METAR KBOS 041954Z 26020G27KT 10SM BKN060 M02/M14 A2979 RMK AO2 PK WND 26029/1941 SLP088 T10221144"	"-9999.00"	"-9999.00"	"29.79"	"1008.8"	"0"	"0"	"28.0"	"-2.2"	"0"	"0"	"10.0"	"16.1"	"260"	"West"	"31.1"	"50.0"	"13.9"	"-10.0"	"23.0"	"37.0"	
"20130204"	"Scattered Clouds"	"15"	"54"	"3.9"	"-15.6"	"0"	"0"	"-9999"	"-9999"	"35"	"partlycloudy"	"METAR KBOS 042054Z 26020G33KT 10SM SCT055 M02/M16 A2980 RMK AO2 PK WND 26033/2047 SLP089 T10171156 51009"	"-9999.00"	"-9999.00"	"29.80"	"1008.9"	"0"	"0"	"28.9"	"-1.7"	"0"	"0"	"10.0"	"16.1"	"260"	"West"	"38.0"	"61.1"	"15.1"	"-9.4"	"23.0"	"37.0"	
"20130204"	"Scattered Clouds"	"16"	"54"	"5.0"	"-15.0"	"0"	"0"	"-9999"	"-9999"	"39"	"partlycloudy"	"METAR KBOS 042154Z 27018G24KT 10SM FEW055 SCT180 M03/M15 A2981 RMK AO2 PK WND 26028/2101 SLP094 T10281150"	"-9999.00"	"-9999.00"	"29.81"	"1009.4"	"0"	"0"	"27.0"	"-2.8"	"0"	"0"	"10.0"	"16.1"	"270"	"West"	"27.6"	"44.4"	"13.2"	"-10.5"	"20.7"	"33.3"	
"20130204"	"Scattered Clouds"	"17"	"54"	"5.0"	"-15.0"	"0"	"0"	"-9999"	"-9999"	"39"	"partlycloudy"	"METAR KBOS 042254Z 27013G23KT 10SM FEW055 SCT180 M03/M15 A2984 RMK AO2 PK WND 26028/2219 SLP104 T10281150"	"-9999.00"	"-9999.00"	"29.84"	"1010.4"	"0"	"0"	"27.0"	"-2.8"	"0"	"0"	"10.0"	"16.1"	"270"	"West"	"26.5"	"42.6"	"15.2"	"-9.4"	"15.0"	"24.1"	
"20130204"	"Partly Cloudy"	"18"	"54"	"5.0"	"-15.0"	"0"	"0"	"-9999"	"-9999"	"41"	"partlycloudy"	"METAR KBOS 042354Z 27014G21KT 10SM FEW180 M03/M15 A2987 RMK AO2 SLP114 T10331150 11006 21033 53026"	"-9999.00"	"-9999.00"	"29.87"	"1011.4"	"0"	"0"	"26.1"	"-3.3"	"0"	"0"	"10.0"	"16.1"	"270"	"West"	"24.2"	"38.9"	"13.6"	"-10.2"	"16.1"	"25.9"	
"20130204"	"Clear"	"19"	"54"	"5.0"	"-15.0"	"0"	"0"	"-9999"	"-9999"	"43"	"clear"	"METAR KBOS 050054Z 27016KT 10SM CLR M04/M15 A2989 RMK AO2 SLP120 T10391150"	"-9999.00"	"-9999.00"	"29.89"	"1012.0"	"0"	"0"	"25.0"	"-3.9"	"0"	"0"	"10.0"	"16.1"	"270"	"West"	"-9999.0"	"-9999.0"	"11.3"	"-11.5"	"18.4"	"29.6"	
"20130204"	"Clear"	"20"	"54"	"6.1"	"-14.4"	"0"	"0"	"-9999"	"-9999"	"46"	"clear"	"METAR KBOS 050154Z 28011KT 10SM CLR M04/M14 A2991 RMK AO2 SLP127 T10441144"	"-9999.00"	"-9999.00"	"29.91"	"1012.7"	"0"	"0"	"24.1"	"-4.4"	"0"	"0"	"10.0"	"16.1"	"280"	"West"	"-9999.0"	"-9999.0"	"12.5"	"-10.8"	"12.7"	"20.4"	
"20130204"	"Clear"	"21"	"54"	"5.0"	"-15.0"	"0"	"0"	"-9999"	"-9999"	"44"	"clear"	"METAR KBOS 050254Z 28014G22KT 10SM CLR M04/M15 A2992 RMK AO2 SLP132 T10441150 51018"	"-9999.00"	"-9999.00"	"29.92"	"1013.2"	"0"	"0"	"24.1"	"-4.4"	"0"	"0"	"10.0"	"16.1"	"280"	"West"	"25.3"	"40.7"	"11.0"	"-11.7"	"16.1"	"25.9"	
"20130204"	"Clear"	"22"	"54"	"6.1"	"-14.4"	"0"	"0"	"-9999"	"-9999"	"48"	"clear"	"METAR KBOS 050354Z 27013G21KT 10SM CLR M05/M14 A2993 RMK AO2 SLP134 T10501144"	"-9999.00"	"-9999.00"	"29.93"	"1013.4"	"0"	"0"	"23.0"	"-5.0"	"0"	"0"	"10.0"	"16.1"	"270"	"West"	"24.2"	"38.9"	"10.1"	"-12.2"	"15.0"	"24.1"	
"20130204"	"Partly Cloudy"	"23"	"54"	"6.1"	"-14.4"	"0"	"0"	"-9999"	"-9999"	"51"	"partlycloudy"	"METAR KBOS 050454Z 27013G19KT 10SM FEW100 M06/M14 A2994 RMK AO2 SLP139 P0001 T10561144 410061056"	"0.01"	"0.3"	"29.94"	"1013.9"	"0"	"0"	"21.9"	"-5.6"	"0"	"0"	"10.0"	"16.1"	"270"	"West"	"21.9"	"35.2"	"8.7"	"-12.9"	"15.0"	"24.1"	
"20130203"	"Light Snow"	"00"	"54"	"12.0"	"-11.1"	"0"	"0"	"-9999"	"-9999"	"55"	"snow"	"METAR KBOS 030554Z 27008KT 8SM -SN OVC050 M03/M11 A3006 RMK AO2 SNB44 SLP177 P0000 60000 T10331111 11022 21033 56004"	"0.00"	"0.0"	"30.06"	"1017.7"	"0"	"1"	"26.1"	"-3.3"	"0"	"0"	"8.0"	"12.9"	"270"	"West"	"-9999.0"	"-9999.0"	"16.8"	"-8.4"	"9.2"	"14.8"	
"20130203"	"Light Snow"	"01"	"54"	"14.0"	"-10.0"	"0"	"0"	"-9999"	"-9999"	"63"	"snow"	"METAR KBOS 030654Z 28006KT 5SM -SN FEW022 BKN030 OVC045 M04/M10 A3004 RMK AO2 SNE25B41 SLP172 P0000 T10391100"	"0.00"	"0.0"	"30.04"	"1017.2"	"0"	"1"	"25.0"	"-3.9"	"0"	"0"	"5.0"	"8.0"	"280"	"West"	"-9999.0"	"-9999.0"	"17.1"	"-8.3"	"6.9"	"11.1"	
"20130203"	"Light Snow"	"02"	"54"	"16.0"	"-8.9"	"0"	"0"	"-9999"	"-9999"	"71"	"snow"	"METAR KBOS 030754Z 33008KT 4SM -SN FEW022 OVC035 M04/M09 A3000 RMK AO2 SLP159 P0000 T10441089"	"0.00"	"0.0"	"30.00"	"1015.9"	"0"	"1"	"24.1"	"-4.4"	"0"	"0"	"4.0"	"6.4"	"330"	"NNW"	"-9999.0"	"-9999.0"	"14.4"	"-9.8"	"9.2"	"14.8"	
"20130203"	"Light Snow"	"03"	"54"	"16.0"	"-8.9"	"0"	"0"	"-9999"	"-9999"	"71"	"snow"	"METAR KBOS 030854Z 33004KT 7SM -SN FEW020 BKN050 OVC070 M04/M09 A3000 RMK AO2 SNE19B36 SLP159 P0000 60000 T10441089 56018"	"0.00"	"0.0"	"30.00"	"1015.9"	"0"	"1"	"24.1"	"-4.4"	"0"	"0"	"7.0"	"11.3"	"330"	"NNW"	"-9999.0"	"-9999.0"	"18.2"	"-7.7"	"4.6"	"7.4"	
"20130203"	"Light Snow"	"04"	"54"	"17.1"	"-8.3"	"0"	"0"	"-9999"	"-9999"	"78"	"snow"	"METAR KBOS 030954Z 36003KT 9SM -SN FEW020 BKN045 BKN090 OVC220 M05/M08 A3000 RMK AO2 SNE0859B43 SLP158 P0000 T10501083"	"0.00"	"0.0"	"30.00"	"1015.8"	"0"	"1"	"23.0"	"-5.0"	"0"	"0"	"9.0"	"14.5"	"360"	"North"	"-9999.0"	"-9999.0"	"18.4"	"-7.5"	"3.5"	"5.6"	
"20130203"	"Light Snow"	"05"	"54"	"17.1"	"-8.3"	"0"	"0"	"-9999"	"-9999"	"78"	"snow"	"METAR KBOS 031054Z 35004KT 7SM -SN SCT017 BKN040 OVC070 M05/M08 A2999 RMK AO2 SLP154 P0000 T10501083"	"0.00"	"0.0"	"29.99"	"1015.4"	"0"	"1"	"23.0"	"-5.0"	"0"	"0"	"7.0"	"11.3"	"350"	"North"	"-9999.0"	"-9999.0"	"17.0"	"-8.4"	"4.6"	"7.4"	
"20130203"	"Light Snow"	"06"	"36"	"17.6"	"-8.0"	"0"	"0"	"-9999"	"-9999"	"80"	"snow"	"SPECI KBOS 031136Z 34006KT 2 1/2SM -SN SCT011 OVC032 M05/M08 A2997 RMK AO2 P0000"	"0.00"	"0.0"	"29.97"	"1014.8"	"0"	"1"	"23.0"	"-5.0"	"0"	"0"	"2.5"	"4.0"	"340"	"NNW"	"-9999.0"	"-9999.0"	"14.7"	"-9.6"	"6.9"	"11.1"	
"20130203"	"Light Snow"	"06"	"54"	"18.0"	"-7.8"	"0"	"0"	"-9999"	"-9999"	"81"	"snow"	"METAR KBOS 031154Z 35005KT 3SM -SN SCT011 BKN034 M05/M08 A2996 RMK AO2 SLP145 P0000 60000 T10501078 11033 21050 58014"	"0.00"	"0.0"	"29.96"	"1014.5"	"0"	"1"	"23.0"	"-5.0"	"0"	"0"	"3.0"	"4.8"	"350"	"North"	"-9999.0"	"-9999.0"	"15.8"	"-9.0"	"5.8"	"9.3"	
"20130203"	"Overcast"	"07"	"54"	"18.0"	"-7.8"	"0"	"0"	"-9999"	"-9999"	"81"	"cloudy"	"METAR KBOS 031254Z 34006KT 8SM FEW012 BKN030 OVC250 M05/M08 A2998 RMK AO2 SNE21 SLP150 P0000 T10501078"	"0.00"	"0.0"	"29.98"	"1015.0"	"0"	"0"	"23.0"	"-5.0"	"0"	"0"	"8.0"	"12.9"	"340"	"NNW"	"-9999.0"	"-9999.0"	"14.7"	"-9.6"	"6.9"	"11.1"	
"20130203"	"Overcast"	"08"	"54"	"18.0"	"-7.8"	"0"	"0"	"-9999"	"-9999"	"77"	"cloudy"	"METAR KBOS 031354Z 34006KT 10SM FEW012 OVC030 M04/M08 A2997 RMK AO2 SLP147 T10441078"	"-9999.00"	"-9999.00"	"29.97"	"1014.7"	"0"	"0"	"24.1"	"-4.4"	"0"	"0"	"10.0"	"16.1"	"340"	"NNW"	"-9999.0"	"-9999.0"	"16.0"	"-8.9"	"6.9"	"11.1"	
"20130203"	"Light Snow"	"09"	"25"	"17.6"	"-8.0"	"0"	"0"	"-9999"	"-9999"	"74"	"snow"	"SPECI KBOS 031425Z 34006KT 5SM -SN FEW012 OVC024 M04/M08 A2996 RMK AO2 SNB1355 P0000"	"0.00"	"0.0"	"29.96"	"1014.4"	"0"	"1"	"24.8"	"-4.0"	"0"	"0"	"5.0"	"8.0"	"340"	"NNW"	"-9999.0"	"-9999.0"	"16.9"	"-8.4"	"6.9"	"11.1"	
"20130203"	"Light Snow"	"09"	"41"	"17.6"	"-8.0"	"0"	"0"	"-9999"	"-9999"	"74"	"snow"	"SPECI KBOS 031441Z 33006KT 2 1/2SM -SN FEW012 OVC024 M04/M08 A2996 RMK AO2 SNB1355 P0000"	"0.00"	"0.0"	"29.96"	"1014.4"	"0"	"1"	"24.8"	"-4.0"	"0"	"0"	"2.5"	"4.0"	"330"	"NNW"	"-9999.0"	"-9999.0"	"16.9"	"-8.4"	"6.9"	"11.1"	
"20130203"	"Light Snow"	"09"	"54"	"18.0"	"-7.8"	"0"	"0"	"-9999"	"-9999"	"77"	"snow"	"METAR KBOS 031454Z 32006KT 1 3/4SM -SN FEW012 OVC024 M04/M08 A2995 RMK AO2 SNB1355 SLP140 P0000 60000 T10441078 58005"	"0.00"	"0.0"	"29.95"	"1014.0"	"0"	"1"	"24.1"	"-4.4"	"0"	"0"	"1.8"	"2.8"	"320"	"NW"	"-9999.0"	"-9999.0"	"16.0"	"-8.9"	"6.9"	"11.1"	
"20130203"	"Light Snow"	"10"	"29"	"19.4"	"-7.0"	"0"	"0"	"-9999"	"-9999"	"80"	"snow"	"SPECI KBOS 031529Z 32007KT 2 1/2SM -SN SCT022 OVC029 M04/M07 A2994 RMK AO2 P0000"	"0.00"	"0.0"	"29.94"	"1013.8"	"0"	"1"	"24.8"	"-4.0"	"0"	"0"	"2.5"	"4.0"	"320"	"NW"	"-9999.0"	"-9999.0"	"16.1"	"-8.9"	"8.1"	"13.0"	
"20130203"	"Light Snow"	"10"	"54"	"19.9"	"-6.7"	"0"	"0"	"-9999"	"-9999"	"78"	"snow"	"METAR KBOS 031554Z 31005KT 2 1/2SM -SN OVC025 M03/M07 A2992 RMK AO2 SLP130 P0000 T10331067"	"0.00"	"0.0"	"29.92"	"1013.0"	"0"	"1"	"26.1"	"-3.3"	"0"	"0"	"2.5"	"4.0"	"310"	"NW"	"-9999.0"	"-9999.0"	"19.4"	"-7.0"	"5.8"	"9.3"	
"20130203"	"Light Snow"	"11"	"16"	"19.4"	"-7.0"	"0"	"0"	"-9999"	"-9999"	"74"	"snow"	"SPECI KBOS 031616Z 32007KT 3SM -SN OVC029 M03/M07 A2991 RMK AO2 P0000"	"0.00"	"0.0"	"29.91"	"1012.8"	"0"	"1"	"26.6"	"-3.0"	"0"	"0"	"3.0"	"4.8"	"320"	"NW"	"-9999.0"	"-9999.0"	"18.2"	"-7.6"	"8.1"	"13.0"	
"20130203"	"Light Snow"	"11"	"54"	"19.9"	"-6.7"	"0"	"0"	"-9999"	"-9999"	"78"	"snow"	"METAR KBOS 031654Z 33008KT 3SM -SN FEW014 OVC029 M03/M07 A2988 RMK AO2 SLP116 P0000 T10331067"	"0.00"	"0.0"	"29.88"	"1011.6"	"0"	"1"	"26.1"	"-3.3"	"0"	"0"	"3.0"	"4.8"	"330"	"NNW"	"-9999.0"	"-9999.0"	"16.8"	"-8.4"	"9.2"	"14.8"	
"20130203"	"Light Snow"	"12"	"12"	"19.4"	"-7.0"	"0"	"0"	"-9999"	"-9999"	"74"	"snow"	"SPECI KBOS 031712Z 32010KT 2 1/2SM -SN FEW014 OVC029 M03/M07 A2986 RMK AO2 VIS 2V3 P0000"	"0.00"	"0.0"	"29.86"	"1011.1"	"0"	"1"	"26.6"	"-3.0"	"0"	"0"	"2.5"	"4.0"	"320"	"NW"	"-9999.0"	"-9999.0"	"16.2"	"-8.8"	"11.5"	"18.5"	
"20130203"	"Light Snow"	"12"	"54"	"19.9"	"-6.7"	"0"	"0"	"-9999"	"-9999"	"78"	"snow"	"METAR KBOS 031754Z 33010KT 2 1/2SM -SN FEW015 OVC025 M03/M07 A2984 RMK AO2 SLP104 VIS 2V3 P0000 60000 T10331067 11033 21050 58036"	"0.00"	"0.0"	"29.84"	"1010.4"	"0"	"1"	"26.1"	"-3.3"	"0"	"0"	"2.5"	"4.0"	"330"	"NNW"	"-9999.0"	"-9999.0"	"15.6"	"-9.1"	"11.5"	"18.5"	
"20130203"	"Light Snow"	"13"	"14"	"19.4"	"-7.0"	"0"	"0"	"-9999"	"-9999"	"74"	"snow"	"SPECI KBOS 031814Z 32008KT 3SM -SN OVC025 M03/M07 A2983 RMK AO2 P0000"	"0.00"	"0.0"	"29.83"	"1010.0"	"0"	"1"	"26.6"	"-3.0"	"0"	"0"	"3.0"	"4.8"	"320"	"NW"	"-9999.0"	"-9999.0"	"17.5"	"-8.0"	"9.2"	"14.8"	
"20130203"	"Light Snow"	"13"	"54"	"19.9"	"-6.7"	"0"	"0"	"-9999"	"-9999"	"78"	"snow"	"METAR KBOS 031854Z 33008KT 3SM -SN FEW016 OVC021 M03/M07 A2982 RMK AO2 SLP096 P0000 T10331067"	"0.00"	"0.0"	"29.82"	"1009.6"	"0"	"1"	"26.1"	"-3.3"	"0"	"0"	"3.0"	"4.8"	"330"	"NNW"	"-9999.0"	"-9999.0"	"16.8"	"-8.4"	"9.2"	"14.8"	
"20130203"	"Light Snow"	"14"	"42"	"19.4"	"-7.0"	"0"	"0"	"-9999"	"-9999"	"74"	"snow"	"SPECI KBOS 031942Z 32010KT 2 1/2SM -SN FEW016 OVC026 M03/M07 A2981 RMK AO2 VIS 2V4 P0000"	"0.00"	"0.0"	"29.81"	"1009.4"	"0"	"1"	"26.6"	"-3.0"	"0"	"0"	"2.5"	"4.0"	"320"	"NW"	"-9999.0"	"-9999.0"	"16.2"	"-8.8"	"11.5"	"18.5"	
"20130203"	"Light Snow"	"14"	"54"	"19.9"	"-6.7"	"0"	"0"	"-9999"	"-9999"	"78"	"snow"	"METAR KBOS 031954Z 33008KT 2 1/2SM -SN FEW016 OVC028 M03/M07 A2981 RMK AO2 SLP092 P0000 T10331067"	"0.00"	"0.0"	"29.81"	"1009.2"	"0"	"1"	"26.1"	"-3.3"	"0"	"0"	"2.5"	"4.0"	"330"	"NNW"	"-9999.0"	"-9999.0"	"16.8"	"-8.4"	"9.2"	"14.8"	
"20130203"	"Light Snow"	"15"	"15"	"19.4"	"-7.0"	"0"	"0"	"-9999"	"-9999"	"74"	"snow"	"SPECI KBOS 032015Z 34008KT 5SM -SN OVC028 M03/M07 A2981 RMK AO2 P0000"	"0.00"	"0.0"	"29.81"	"1009.4"	"0"	"1"	"26.6"	"-3.0"	"0"	"0"	"5.0"	"8.0"	"340"	"NNW"	"-9999.0"	"-9999.0"	"17.5"	"-8.0"	"9.2"	"14.8"	
"20130203"	"Light Snow"	"15"	"39"	"19.4"	"-7.0"	"0"	"0"	"-9999"	"-9999"	"74"	"snow"	"SPECI KBOS 032039Z 34007KT 4SM -SN FEW015 OVC030 M03/M07 A2980 RMK AO2 P0000"	"0.00"	"0.0"	"29.80"	"1009.0"	"0"	"1"	"26.6"	"-3.0"	"0"	"0"	"4.0"	"6.4"	"340"	"NNW"	"-9999.0"	"-9999.0"	"18.2"	"-7.6"	"8.1"	"13.0"	
"20130203"	"Light Snow"	"15"	"54"	"19.9"	"-6.7"	"0"	"0"	"-9999"	"-9999"	"78"	"snow"	"METAR KBOS 032054Z 33006KT 2 1/2SM -SN FEW015 OVC030 M03/M07 A2980 RMK AO2 SLP089 P0000 60000 T10331067 56016"	"0.00"	"0.0"	"29.80"	"1008.9"	"0"	"1"	"26.1"	"-3.3"	"0"	"0"	"2.5"	"4.0"	"330"	"NNW"	"-9999.0"	"-9999.0"	"18.4"	"-7.5"	"6.9"	"11.1"	
"20130203"	"Light Snow"	"16"	"14"	"19.4"	"-7.0"	"0"	"0"	"-9999"	"-9999"	"74"	"snow"	"SPECI KBOS 032114Z 34008KT 3SM -SN FEW015 OVC030 M03/M07 A2979 RMK AO2 P0000"	"0.00"	"0.0"	"29.79"	"1008.7"	"0"	"1"	"26.6"	"-3.0"	"0"	"0"	"3.0"	"4.8"	"340"	"NNW"	"-9999.0"	"-9999.0"	"17.5"	"-8.0"	"9.2"	"14.8"	
"20130203"	"Light Snow"	"16"	"54"	"19.9"	"-6.7"	"0"	"0"	"-9999"	"-9999"	"78"	"snow"	"METAR KBOS 032154Z 34008KT 3SM -SN FEW015 OVC030 M03/M07 A2978 RMK AO2 SLP082 P0000 T10331067"	"0.00"	"0.0"	"29.78"	"1008.2"	"0"	"1"	"26.1"	"-3.3"	"0"	"0"	"3.0"	"4.8"	"340"	"NNW"	"-9999.0"	"-9999.0"	"16.8"	"-8.4"	"9.2"	"14.8"	
"20130203"	"Light Snow"	"17"	"54"	"19.9"	"-6.7"	"0"	"0"	"-9999"	"-9999"	"81"	"snow"	"METAR KBOS 032254Z 34009KT 4SM -SN OVC030 M04/M07 A2977 RMK AO2 SLP081 P0000 T10391067"	"0.00"	"0.0"	"29.77"	"1008.1"	"0"	"1"	"25.0"	"-3.9"	"0"	"0"	"4.0"	"6.4"	"340"	"NNW"	"-9999.0"	"-9999.0"	"14.8"	"-9.5"	"10.4"	"16.7"	
"20130203"	"Light Snow"	"18"	"54"	"19.0"	"-7.2"	"0"	"0"	"-9999"	"-9999"	"78"	"snow"	"METAR KBOS 032354Z 34008KT 7SM -SN FEW025 OVC030 M04/M07 A2978 RMK AO2 SLP085 P0000 60000 T10391072 11033 21039 55004"	"0.00"	"0.0"	"29.78"	"1008.5"	"0"	"1"	"25.0"	"-3.9"	"0"	"0"	"7.0"	"11.3"	"340"	"NNW"	"-9999.0"	"-9999.0"	"15.5"	"-9.2"	"9.2"	"14.8"	
"20130203"	"Light Snow"	"19"	"54"	"19.0"	"-7.2"	"0"	"0"	"-9999"	"-9999"	"78"	"snow"	"METAR KBOS 040054Z 34008KT 4SM -SN OVC032 M04/M07 A2978 RMK AO2 SLP083 P0000 T10391072"	"0.00"	"0.0"	"29.78"	"1008.3"	"0"	"1"	"25.0"	"-3.9"	"0"	"0"	"4.0"	"6.4"	"340"	"NNW"	"-9999.0"	"-9999.0"	"15.5"	"-9.2"	"9.2"	"14.8"	
"20130203"	"Light Snow"	"20"	"54"	"18.0"	"-7.8"	"0"	"0"	"-9999"	"-9999"	"75"	"snow"	"METAR KBOS 040154Z 34007KT 7SM -SN OVC034 M04/M08 A2976 RMK AO2 SLP077 P0000 T10391078"	"0.00"	"0.0"	"29.76"	"1007.7"	"0"	"1"	"25.0"	"-3.9"	"0"	"0"	"7.0"	"11.3"	"340"	"NNW"	"-9999.0"	"-9999.0"	"16.3"	"-8.7"	"8.1"	"13.0"	
"20130203"	"Light Snow"	"21"	"54"	"19.0"	"-7.2"	"0"	"0"	"-9999"	"-9999"	"78"	"snow"	"METAR KBOS 040254Z 33011KT 5SM -SN OVC040 M04/M07 A2975 RMK AO2 SLP073 P0000 60000 T10391072 58012"	"0.00"	"0.0"	"29.75"	"1007.3"	"0"	"1"	"25.0"	"-3.9"	"0"	"0"	"5.0"	"8.0"	"330"	"NNW"	"-9999.0"	"-9999.0"	"13.6"	"-10.2"	"12.7"	"20.4"	
"20130203"	"Overcast"	"22"	"54"	"18.0"	"-7.8"	"0"	"0"	"-9999"	"-9999"	"77"	"cloudy"	"METAR KBOS 040354Z 32010KT 10SM OVC046 M04/M08 A2974 RMK AO2 SNE24 SLP070 P0000 T10441078"	"0.00"	"0.0"	"29.74"	"1007.0"	"0"	"0"	"24.1"	"-4.4"	"0"	"0"	"10.0"	"16.1"	"320"	"NW"	"-9999.0"	"-9999.0"	"13.1"	"-10.5"	"11.5"	"18.5"	
"20130203"	"Overcast"	"23"	"54"	"18.0"	"-7.8"	"0"	"0"	"-9999"	"-9999"	"75"	"cloudy"	"METAR KBOS 040454Z 31007KT 10SM SCT055 OVC070 M04/M08 A2973 RMK AO2 SLP068 T10391078 410281050"	"-9999.00"	"-9999.00"	"29.73"	"1006.8"	"0"	"0"	"25.0"	"-3.9"	"0"	"0"	"10.0"	"16.1"	"310"	"NW"	"-9999.0"	"-9999.0"	"16.3"	"-8.7"	"8.1"	"13.0"	
"20130202"	"Partly Cloudy"	"00"	"54"	"3.0"	"-16.1"	"0"	"0"	"-9999"	"-9999"	"42"	"partlycloudy"	"METAR KBOS 020554Z 28018G25KT 10SM FEW060 M05/M16 A3009 RMK AO2 SLP190 T10501161 11022 21050 51017"	"-9999.00"	"-9999.00"	"30.09"	"1019.0"	"0"	"0"	"23.0"	"-5.0"	"0"	"0"	"10.0"	"16.1"	"280"	"West"	"28.8"	"46.3"	"8.0"	"-13.4"	"20.7"	"33.3"	
"20130202"	"Partly Cloudy"	"01"	"54"	"3.9"	"-15.6"	"0"	"0"	"-9999"	"-9999"	"46"	"partlycloudy"	"METAR KBOS 020654Z 29014KT 10SM FEW060 M06/M16 A3013 RMK AO2 SLP201 T10561156"	"-9999.00"	"-9999.00"	"30.13"	"1020.1"	"0"	"0"	"21.9"	"-5.6"	"0"	"0"	"10.0"	"16.1"	"290"	"WNW"	"-9999.0"	"-9999.0"	"8.2"	"-13.2"	"16.1"	"25.9"	
"20130202"	"Partly Cloudy"	"02"	"54"	"3.9"	"-15.6"	"0"	"0"	"-9999"	"-9999"	"46"	"partlycloudy"	"METAR KBOS 020754Z 30013G18KT 10SM FEW060 M06/M16 A3014 RMK AO2 SLP205 T10561156"	"-9999.00"	"-9999.00"	"30.14"	"1020.5"	"0"	"0"	"21.9"	"-5.6"	"0"	"0"	"10.0"	"16.1"	"300"	"WNW"	"20.7"	"33.3"	"8.7"	"-12.9"	"15.0"	"24.1"	
"20130202"	"Partly Cloudy"	"03"	"54"	"3.0"	"-16.1"	"0"	"0"	"-9999"	"-9999"	"46"	"partlycloudy"	"METAR KBOS 020854Z 29010KT 10SM FEW060 M06/M16 A3015 RMK AO2 SLP210 T10611161 51020"	"-9999.00"	"-9999.00"	"30.15"	"1021.0"	"0"	"0"	"21.0"	"-6.1"	"0"	"0"	"10.0"	"16.1"	"290"	"WNW"	"-9999.0"	"-9999.0"	"9.3"	"-12.6"	"11.5"	"18.5"	
"20130202"	"Partly Cloudy"	"04"	"54"	"3.0"	"-16.1"	"0"	"0"	"-9999"	"-9999"	"48"	"partlycloudy"	"METAR KBOS 020954Z 29009KT 10SM FEW060 M07/M16 A3018 RMK AO2 SLP219 T10671161"	"-9999.00"	"-9999.00"	"30.18"	"1021.9"	"0"	"0"	"19.9"	"-6.7"	"0"	"0"	"10.0"	"16.1"	"290"	"WNW"	"-9999.0"	"-9999.0"	"8.6"	"-13.0"	"10.4"	"16.7"	
"20130202"	"Partly Cloudy"	"05"	"54"	"1.9"	"-16.7"	"0"	"0"	"-9999"	"-9999"	"46"	"partlycloudy"	"METAR KBOS 021054Z 29011G16KT 10SM FEW060 M07/M17 A3020 RMK AO2 SLP226 T10671167"	"-9999.00"	"-9999.00"	"30.20"	"1022.6"	"0"	"0"	"19.9"	"-6.7"	"0"	"0"	"10.0"	"16.1"	"290"	"WNW"	"18.4"	"29.6"	"7.3"	"-13.7"	"12.7"	"20.4"	
"20130202"	"Partly Cloudy"	"06"	"54"	"1.9"	"-16.7"	"0"	"0"	"-9999"	"-9999"	"47"	"partlycloudy"	"METAR KBOS 021154Z COR 29010KT 10SM FEW060 M07/M17 A3022 RMK AO2 SLP232 T10721167 11050 21072 51022"	"-9999.00"	"-9999.00"	"30.22"	"1023.2"	"0"	"0"	"19.0"	"-7.2"	"0"	"0"	"10.0"	"16.1"	"290"	"WNW"	"-9999.0"	"-9999.0"	"6.8"	"-14.0"	"11.5"	"18.5"	
"20130202"	"Scattered Clouds"	"07"	"54"	"1.9"	"-16.7"	"0"	"0"	"-9999"	"-9999"	"46"	"partlycloudy"	"METAR KBOS 021254Z 28007KT 10SM FEW060 SCT220 M07/M17 A3024 RMK AO2 SLP239 T10671167"	"-9999.00"	"-9999.00"	"30.24"	"1023.9"	"0"	"0"	"19.9"	"-6.7"	"0"	"0"	"10.0"	"16.1"	"280"	"West"	"-9999.0"	"-9999.0"	"10.1"	"-12.1"	"8.1"	"13.0"	
"20130202"	"Scattered Clouds"	"08"	"54"	"-0.0"	"-17.8"	"0"	"0"	"-9999"	"-9999"	"40"	"partlycloudy"	"METAR KBOS 021354Z 27011KT 10SM FEW060 SCT220 M06/M18 A3025 RMK AO2 SLP243 T10611178"	"-9999.00"	"-9999.00"	"30.25"	"1024.3"	"0"	"0"	"21.0"	"-6.1"	"0"	"0"	"10.0"	"16.1"	"270"	"West"	"-9999.0"	"-9999.0"	"8.6"	"-13.0"	"12.7"	"20.4"	
"20130202"	"Scattered Clouds"	"09"	"54"	"1.0"	"-17.2"	"0"	"0"	"-9999"	"-9999"	"40"	"partlycloudy"	"METAR KBOS 021454Z 25008KT 10SM FEW060 SCT220 M06/M17 A3025 RMK AO2 SLP241 T10561172 50009"	"-9999.00"	"-9999.00"	"30.25"	"1024.1"	"0"	"0"	"21.9"	"-5.6"	"0"	"0"	"10.0"	"16.1"	"250"	"WSW"	"-9999.0"	"-9999.0"	"11.7"	"-11.3"	"9.2"	"14.8"	
"20130202"	"Scattered Clouds"	"10"	"54"	"1.0"	"-17.2"	"0"	"0"	"-9999"	"-9999"	"37"	"partlycloudy"	"METAR KBOS 021554Z 24007KT 10SM FEW060 SCT120 SCT220 M04/M17 A3024 RMK AO2 SLP238 T10441172"	"-9999.00"	"-9999.00"	"30.24"	"1023.8"	"0"	"0"	"24.1"	"-4.4"	"0"	"0"	"10.0"	"16.1"	"240"	"WSW"	"-9999.0"	"-9999.0"	"15.2"	"-9.3"	"8.1"	"13.0"	
"20130202"	"Scattered Clouds"	"11"	"54"	"3.0"	"-16.1"	"0"	"0"	"-9999"	"-9999"	"34"	"partlycloudy"	"METAR KBOS 021654Z 24007KT 10SM FEW060 SCT150 SCT220 M02/M16 A3020 RMK AO2 SLP226 T10221161"	"-9999.00"	"-9999.00"	"30.20"	"1022.6"	"0"	"0"	"28.0"	"-2.2"	"0"	"0"	"10.0"	"16.1"	"240"	"WSW"	"-9999.0"	"-9999.0"	"20.0"	"-6.7"	"8.1"	"13.0"	
"20130202"	"Scattered Clouds"	"12"	"54"	"3.9"	"-15.6"	"0"	"0"	"-9999"	"-9999"	"36"	"partlycloudy"	"METAR KBOS 021754Z 19011G17KT 10SM FEW060 SCT150 SCT250 M02/M16 A3016 RMK AO2 SLP214 T10221156 11022 21072 58027"	"-9999.00"	"-9999.00"	"30.17"	"1021.4"	"0"	"0"	"28.0"	"-2.2"	"0"	"0"	"10.0"	"16.1"	"190"	"South"	"19.6"	"31.5"	"17.5"	"-8.0"	"12.7"	"20.4"	
"20130202"	"Mostly Cloudy"	"13"	"54"	"6.1"	"-14.4"	"0"	"0"	"-9999"	"-9999"	"36"	"mostlycloudy"	"METAR KBOS 021854Z 21009G16KT 10SM FEW060 SCT150 BKN250 M01/M14 A3013 RMK AO2 SLP202 T10111144"	"-9999.00"	"-9999.00"	"30.13"	"1020.2"	"0"	"0"	"30.0"	"-1.1"	"0"	"0"	"10.0"	"16.1"	"210"	"SSW"	"18.4"	"29.6"	"21.1"	"-6.1"	"10.4"	"16.7"	
"20130202"	"Overcast"	"14"	"54"	"7.0"	"-13.9"	"0"	"0"	"-9999"	"-9999"	"40"	"cloudy"	"METAR KBOS 021954Z 20012G18KT 10SM FEW055 BKN170 OVC250 M02/M14 A3011 RMK AO2 SLP194 T10171139"	"-9999.00"	"-9999.00"	"30.11"	"1019.4"	"0"	"0"	"28.9"	"-1.7"	"0"	"0"	"10.0"	"16.1"	"200"	"SSW"	"20.7"	"33.3"	"18.2"	"-7.7"	"13.8"	"22.2"	
"20130202"	"Overcast"	"15"	"54"	"8.1"	"-13.3"	"0"	"0"	"-9999"	"-9999"	"41"	"cloudy"	"METAR KBOS 022054Z 18013KT 10SM FEW055 SCT090 OVC110 M02/M13 A3009 RMK AO2 SLP188 T10171133 56025"	"-9999.00"	"-9999.00"	"30.09"	"1018.8"	"0"	"0"	"28.9"	"-1.7"	"0"	"0"	"10.0"	"16.1"	"180"	"South"	"-9999.0"	"-9999.0"	"17.7"	"-7.9"	"15.0"	"24.1"	
"20130202"	"Overcast"	"16"	"54"	"7.0"	"-13.9"	"0"	"0"	"-9999"	"-9999"	"40"	"cloudy"	"METAR KBOS 022154Z 20014KT 10SM FEW055 BKN100 OVC250 M02/M14 A3008 RMK AO2 SLP185 T10171139"	"-9999.00"	"-9999.00"	"30.08"	"1018.5"	"0"	"0"	"28.9"	"-1.7"	"0"	"0"	"10.0"	"16.1"	"200"	"SSW"	"-9999.0"	"-9999.0"	"17.3"	"-8.2"	"16.1"	"25.9"	
"20130202"	"Overcast"	"17"	"54"	"7.0"	"-13.9"	"0"	"0"	"-9999"	"-9999"	"41"	"cloudy"	"METAR KBOS 022254Z 22011KT 10SM FEW055 SCT100 BKN150 OVC250 M02/M14 A3008 RMK AO2 SLP185 T10221139"	"-9999.00"	"-9999.00"	"30.08"	"1018.5"	"0"	"0"	"28.0"	"-2.2"	"0"	"0"	"10.0"	"16.1"	"220"	"SW"	"-9999.0"	"-9999.0"	"17.5"	"-8.0"	"12.7"	"20.4"	
"20130202"	"Overcast"	"18"	"54"	"8.1"	"-13.3"	"0"	"0"	"-9999"	"-9999"	"43"	"cloudy"	"METAR KBOS 022354Z 23014G17KT 10SM SCT120 OVC150 M02/M13 A3008 RMK AO2 SLP186 T10221133 11011 21022 55002"	"-9999.00"	"-9999.00"	"30.08"	"1018.6"	"0"	"0"	"28.0"	"-2.2"	"0"	"0"	"10.0"	"16.1"	"230"	"SW"	"19.6"	"31.5"	"16.1"	"-8.8"	"16.1"	"25.9"	
"20130202"	"Overcast"	"19"	"54"	"9.0"	"-12.8"	"0"	"0"	"-9999"	"-9999"	"45"	"cloudy"	"METAR KBOS 030054Z 23013KT 10SM FEW120 OVC150 M02/M13 A3007 RMK AO2 SLP183 T10221128"	"-9999.00"	"-9999.00"	"30.07"	"1018.3"	"0"	"0"	"28.0"	"-2.2"	"0"	"0"	"10.0"	"16.1"	"230"	"SW"	"-9999.0"	"-9999.0"	"16.5"	"-8.6"	"15.0"	"24.1"	
"20130202"	"Overcast"	"20"	"54"	"10.0"	"-12.2"	"0"	"0"	"-9999"	"-9999"	"47"	"cloudy"	"METAR KBOS 030154Z 23011KT 10SM OVC150 M02/M12 A3007 RMK AO2 SLP181 T10221122"	"-9999.00"	"-9999.00"	"30.07"	"1018.1"	"0"	"0"	"28.0"	"-2.2"	"0"	"0"	"10.0"	"16.1"	"230"	"SW"	"-9999.0"	"-9999.0"	"17.5"	"-8.0"	"12.7"	"20.4"	
"20130202"	"Overcast"	"21"	"54"	"10.0"	"-12.2"	"0"	"0"	"-9999"	"-9999"	"49"	"cloudy"	"METAR KBOS 030254Z 23011KT 10SM OVC130 M03/M12 A3007 RMK AO2 SLP181 T10281122 56005"	"-9999.00"	"-9999.00"	"30.07"	"1018.1"	"0"	"0"	"27.0"	"-2.8"	"0"	"0"	"10.0"	"16.1"	"230"	"SW"	"-9999.0"	"-9999.0"	"16.1"	"-8.8"	"12.7"	"20.4"	
"20130202"	"Overcast"	"22"	"54"	"10.0"	"-12.2"	"0"	"0"	"-9999"	"-9999"	"49"	"cloudy"	"METAR KBOS 030354Z 23008KT 10SM SCT070 BKN080 OVC110 M03/M12 A3006 RMK AO2 SLP177 T10281122"	"-9999.00"	"-9999.00"	"30.06"	"1017.7"	"0"	"0"	"27.0"	"-2.8"	"0"	"0"	"10.0"	"16.1"	"230"	"SW"	"-9999.0"	"-9999.0"	"18.0"	"-7.8"	"9.2"	"14.8"	
"20130202"	"Overcast"	"23"	"54"	"10.0"	"-12.2"	"0"	"0"	"-9999"	"-9999"	"49"	"cloudy"	"METAR KBOS 030454Z 24013KT 10SM OVC070 M03/M12 A3006 RMK AO2 SLP178 T10281122 410111072"	"-9999.00"	"-9999.00"	"30.06"	"1017.8"	"0"	"0"	"27.0"	"-2.8"	"0"	"0"	"10.0"	"16.1"	"240"	"WSW"	"-9999.0"	"-9999.0"	"15.2"	"-9.4"	"15.0"	"24.1"	
"20130201"	"Scattered Clouds"	"00"	"54"	"14.0"	"-10.0"	"0"	"0"	"-9999"	"-9999"	"48"	"partlycloudy"	"METAR KBOS 010554Z 28012G22KT 10SM SCT060 00/M10 A2961 RMK AO2 SLP026 T00001100 10033 20000 51018"	"-9999.00"	"-9999.00"	"29.61"	"1002.6"	"0"	"0"	"32.0"	"0.0"	"0"	"0"	"10.0"	"16.1"	"280"	"West"	"25.3"	"40.7"	"22.1"	"-5.5"	"13.8"	"22.2"	
"20130201"	"Partly Cloudy"	"01"	"54"	"12.0"	"-11.1"	"0"	"0"	"-9999"	"-9999"	"46"	"partlycloudy"	"METAR KBOS 010654Z 27013G19KT 10SM FEW055 M01/M11 A2963 RMK AO2 SLP031 T10061111"	"-9999.00"	"-9999.00"	"29.62"	"1003.1"	"0"	"0"	"30.9"	"-0.6"	"0"	"0"	"10.0"	"16.1"	"270"	"West"	"21.9"	"35.2"	"20.2"	"-6.5"	"15.0"	"24.1"	
"20130201"	"Partly Cloudy"	"02"	"54"	"8.1"	"-13.3"	"0"	"0"	"-9999"	"-9999"	"40"	"partlycloudy"	"METAR KBOS 010754Z 26016G25KT 10SM FEW055 M01/M13 A2964 RMK AO2 SLP037 T10111133"	"-9999.00"	"-9999.00"	"29.64"	"1003.7"	"0"	"0"	"30.0"	"-1.1"	"0"	"0"	"10.0"	"16.1"	"260"	"West"	"28.8"	"46.3"	"17.9"	"-7.8"	"18.4"	"29.6"	
"20130201"	"Partly Cloudy"	"03"	"54"	"7.0"	"-13.9"	"0"	"0"	"-9999"	"-9999"	"38"	"partlycloudy"	"METAR KBOS 010854Z 27013KT 10SM FEW055 M01/M14 A2966 RMK AO2 PK WND 29027/0843 SLP042 T10111139 51017"	"-9999.00"	"-9999.00"	"29.66"	"1004.2"	"0"	"0"	"30.0"	"-1.1"	"0"	"0"	"10.0"	"16.1"	"270"	"West"	"-9999.0"	"-9999.0"	"19.1"	"-7.2"	"15.0"	"24.1"	
"20130201"	"Partly Cloudy"	"04"	"54"	"9.0"	"-12.8"	"0"	"0"	"-9999"	"-9999"	"43"	"partlycloudy"	"METAR KBOS 010954Z 24012G20KT 10SM FEW050 M02/M13 A2967 RMK AO2 PK WND 27026/0924 SLP047 T10171128"	"-9999.00"	"-9999.00"	"29.67"	"1004.7"	"0"	"0"	"28.9"	"-1.7"	"0"	"0"	"10.0"	"16.1"	"240"	"WSW"	"23.0"	"37.0"	"18.2"	"-7.7"	"13.8"	"22.2"	
"20130201"	"Partly Cloudy"	"05"	"54"	"10.9"	"-11.7"	"0"	"0"	"-9999"	"-9999"	"49"	"partlycloudy"	"METAR KBOS 011054Z 24014G23KT 10SM FEW060 M02/M12 A2969 RMK AO2 PK WND 25027/1011 SLP053 T10221117"	"-9999.00"	"-9999.00"	"29.69"	"1005.3"	"0"	"0"	"28.0"	"-2.2"	"0"	"0"	"10.0"	"16.1"	"240"	"WSW"	"26.5"	"42.6"	"16.1"	"-8.8"	"16.1"	"25.9"	
"20130201"	"Partly Cloudy"	"06"	"54"	"9.0"	"-12.8"	"0"	"0"	"-9999"	"-9999"	"45"	"partlycloudy"	"METAR KBOS 011154Z 25014G20KT 10SM FEW060 M02/M13 A2972 RMK AO2 SLP062 70008 T10221128 10000 21022 53020"	"-9999.00"	"-9999.00"	"29.72"	"1006.2"	"0"	"0"	"28.0"	"-2.2"	"0"	"0"	"10.0"	"16.1"	"250"	"WSW"	"23.0"	"37.0"	"16.1"	"-8.8"	"16.1"	"25.9"	
"20130201"	"Partly Cloudy"	"07"	"54"	"10.0"	"-12.2"	"0"	"0"	"-9999"	"-9999"	"47"	"partlycloudy"	"METAR KBOS 011254Z 24015G24KT 10SM FEW065 M02/M12 A2975 RMK AO2 SLP075 T10221122"	"-9999.00"	"-9999.00"	"29.75"	"1007.5"	"0"	"0"	"28.0"	"-2.2"	"0"	"0"	"10.0"	"16.1"	"240"	"WSW"	"27.6"	"44.4"	"15.7"	"-9.1"	"17.3"	"27.8"	
"20130201"	"Scattered Clouds"	"08"	"54"	"10.9"	"-11.7"	"0"	"0"	"-9999"	"-9999"	"45"	"partlycloudy"	"METAR KBOS 011354Z 25020G26KT 10SM FEW050 SCT075 M01/M12 A2979 RMK AO2 PK WND 24026/1348 SLP086 T10111117"	"-9999.00"	"-9999.00"	"29.79"	"1008.6"	"0"	"0"	"30.0"	"-1.1"	"0"	"0"	"10.0"	"16.1"	"250"	"WSW"	"29.9"	"48.2"	"16.6"	"-8.6"	"23.0"	"37.0"	
"20130201"	"Scattered Clouds"	"09"	"54"	"8.1"	"-13.3"	"0"	"0"	"-9999"	"-9999"	"40"	"partlycloudy"	"METAR KBOS 011454Z 27018G28KT 10SM FEW050 SCT250 M01/M13 A2979 RMK AO2 PK WND 25029/1424 SLP087 T10111133 51025"	"-9999.00"	"-9999.00"	"29.79"	"1008.7"	"0"	"0"	"30.0"	"-1.1"	"0"	"0"	"10.0"	"16.1"	"270"	"West"	"32.2"	"51.9"	"17.2"	"-8.2"	"20.7"	"33.3"	
"20130201"	"Scattered Clouds"	"10"	"54"	"6.1"	"-14.4"	"0"	"0"	"-9999"	"-9999"	"34"	"partlycloudy"	"METAR KBOS 011554Z 25017G23KT 10SM FEW050 SCT250 00/M14 A2979 RMK AO2 PK WND 29029/1506 SLP088 T00001144"	"-9999.00"	"-9999.00"	"29.79"	"1008.8"	"0"	"0"	"32.0"	"0.0"	"0"	"0"	"10.0"	"16.1"	"250"	"WSW"	"26.5"	"42.6"	"20.1"	"-6.6"	"19.6"	"31.5"	
"20130201"	"Scattered Clouds"	"11"	"54"	"3.9"	"-15.6"	"0"	"0"	"-9999"	"-9999"	"31"	"partlycloudy"	"METAR KBOS 011654Z 28018G25KT 10SM FEW065 SCT250 00/M16 A2979 RMK AO2 SLP086 T00001156"	"-9999.00"	"-9999.00"	"29.79"	"1008.6"	"0"	"0"	"32.0"	"0.0"	"0"	"0"	"10.0"	"16.1"	"280"	"West"	"28.8"	"46.3"	"19.8"	"-6.8"	"20.7"	"33.3"	
"20130201"	"Scattered Clouds"	"12"	"54"	"3.9"	"-15.6"	"0"	"0"	"-9999"	"-9999"	"29"	"partlycloudy"	"METAR KBOS 011754Z 31016G21KT 10SM FEW060 SCT250 01/M16 A2975 RMK AO2 SLP073 T00061156 10006 21022 58014"	"-9999.00"	"-9999.00"	"29.75"	"1007.3"	"0"	"0"	"33.1"	"0.6"	"0"	"0"	"10.0"	"16.1"	"310"	"NW"	"24.2"	"38.9"	"21.9"	"-5.6"	"18.4"	"29.6"	
"20130201"	"Scattered Clouds"	"13"	"54"	"3.9"	"-15.6"	"0"	"0"	"-9999"	"-9999"	"31"	"partlycloudy"	"METAR KBOS 011854Z 27014KT 10SM FEW060 SCT250 00/M16 A2977 RMK AO2 SLP080 T00001156"	"-9999.00"	"-9999.00"	"29.77"	"1008.0"	"0"	"0"	"32.0"	"0.0"	"0"	"0"	"10.0"	"16.1"	"270"	"West"	"-9999.0"	"-9999.0"	"21.2"	"-6.0"	"16.1"	"25.9"	
"20130201"	"Scattered Clouds"	"14"	"54"	"3.0"	"-16.1"	"0"	"0"	"-9999"	"-9999"	"31"	"partlycloudy"	"METAR KBOS 011954Z 30015G21KT 10SM SCT070 SCT250 M01/M16 A2979 RMK AO2 SLP087 T10061161"	"-9999.00"	"-9999.00"	"29.79"	"1008.7"	"0"	"0"	"30.9"	"-0.6"	"0"	"0"	"10.0"	"16.1"	"300"	"WNW"	"24.2"	"38.9"	"19.4"	"-7.0"	"17.3"	"27.8"	
"20130201"	"Scattered Clouds"	"15"	"54"	"5.0"	"-15.0"	"0"	"0"	"-9999"	"-9999"	"35"	"partlycloudy"	"METAR KBOS 012054Z 30014G20KT 10SM FEW060 SCT250 M01/M15 A2982 RMK AO2 SLP096 T10111150 53023"	"-9999.00"	"-9999.00"	"29.82"	"1009.6"	"0"	"0"	"30.0"	"-1.1"	"0"	"0"	"10.0"	"16.1"	"300"	"WNW"	"23.0"	"37.0"	"18.7"	"-7.4"	"16.1"	"25.9"	
"20130201"	"Mostly Cloudy"	"16"	"54"	"5.0"	"-15.0"	"0"	"0"	"-9999"	"-9999"	"35"	"mostlycloudy"	"METAR KBOS 012154Z 28014G23KT 10SM BKN065 BKN250 M01/M15 A2986 RMK AO2 SLP109 T10111150"	"-9999.00"	"-9999.00"	"29.86"	"1010.9"	"0"	"0"	"30.0"	"-1.1"	"0"	"0"	"10.0"	"16.1"	"280"	"West"	"26.5"	"42.6"	"18.7"	"-7.4"	"16.1"	"25.9"	
"20130201"	"Mostly Cloudy"	"17"	"54"	"5.0"	"-15.0"	"0"	"0"	"-9999"	"-9999"	"36"	"mostlycloudy"	"METAR KBOS 012254Z 29014G23KT 10SM BKN075 BKN250 M02/M15 A2991 RMK AO2 SLP127 T10171150"	"-9999.00"	"-9999.00"	"29.91"	"1012.7"	"0"	"0"	"28.9"	"-1.7"	"0"	"0"	"10.0"	"16.1"	"290"	"WNW"	"26.5"	"42.6"	"17.3"	"-8.2"	"16.1"	"25.9"	
"20130201"	"Scattered Clouds"	"18"	"54"	"3.0"	"-16.1"	"0"	"0"	"-9999"	"-9999"	"34"	"partlycloudy"	"METAR KBOS 012354Z 32017G26KT 10SM SCT070 M02/M16 A2996 RMK AO2 PK WND 32027/2327 SLP146 T10221161 10011 21022 53049"	"-9999.00"	"-9999.00"	"29.96"	"1014.6"	"0"	"0"	"28.0"	"-2.2"	"0"	"0"	"10.0"	"16.1"	"320"	"NW"	"29.9"	"48.2"	"14.9"	"-9.5"	"19.6"	"31.5"	
"20130201"	"Partly Cloudy"	"19"	"54"	"5.0"	"-15.0"	"0"	"0"	"-9999"	"-9999"	"39"	"partlycloudy"	"METAR KBOS 020054Z 30011KT 10SM FEW060 M03/M15 A3000 RMK AO2 SLP157 T10281150"	"-9999.00"	"-9999.00"	"30.00"	"1015.7"	"0"	"0"	"27.0"	"-2.8"	"0"	"0"	"10.0"	"16.1"	"300"	"WNW"	"-9999.0"	"-9999.0"	"16.1"	"-8.8"	"12.7"	"20.4"	
"20130201"	"Partly Cloudy"	"20"	"54"	"5.0"	"-15.0"	"0"	"0"	"-9999"	"-9999"	"41"	"partlycloudy"	"METAR KBOS 020154Z 29012KT 10SM FEW060 M03/M15 A3002 RMK AO2 SLP166 T10331150"	"-9999.00"	"-9999.00"	"30.02"	"1016.6"	"0"	"0"	"26.1"	"-3.3"	"0"	"0"	"10.0"	"16.1"	"290"	"WNW"	"-9999.0"	"-9999.0"	"14.5"	"-9.7"	"13.8"	"22.2"	
"20130201"	"Partly Cloudy"	"21"	"54"	"3.0"	"-16.1"	"0"	"0"	"-9999"	"-9999"	"39"	"partlycloudy"	"METAR KBOS 020254Z 29017G22KT 10SM FEW070 M04/M16 A3004 RMK AO2 PK WND 28026/0228 SLP173 T10391161 51027"	"-9999.00"	"-9999.00"	"30.04"	"1017.3"	"0"	"0"	"25.0"	"-3.9"	"0"	"0"	"10.0"	"16.1"	"290"	"WNW"	"25.3"	"40.7"	"10.9"	"-11.7"	"19.6"	"31.5"	
"20130201"	"Partly Cloudy"	"22"	"54"	"1.9"	"-16.7"	"0"	"0"	"-9999"	"-9999"	"38"	"partlycloudy"	"METAR KBOS 020354Z 27014G23KT 10SM FEW070 M04/M17 A3006 RMK AO2 PK WND 27026/0341 SLP179 T10441167"	"-9999.00"	"-9999.00"	"30.06"	"1017.9"	"0"	"0"	"24.1"	"-4.4"	"0"	"0"	"10.0"	"16.1"	"270"	"West"	"26.5"	"42.6"	"11.0"	"-11.7"	"16.1"	"25.9"	
"20130201"	"Partly Cloudy"	"23"	"54"	"1.9"	"-16.7"	"0"	"0"	"-9999"	"-9999"	"40"	"partlycloudy"	"METAR KBOS 020454Z 28014G21KT 10SM FEW060 M05/M17 A3008 RMK AO2 SLP185 T10501167 400111050"	"-9999.00"	"-9999.00"	"30.08"	"1018.5"	"0"	"0"	"23.0"	"-5.0"	"0"	"0"	"10.0"	"16.1"	"280"	"West"	"24.2"	"38.9"	"9.6"	"-12.4"	"16.1"	"25.9"	
"20130131"	"Overcast"	"00"	"11"	"53.6"	"12.0"	"0"	"0"	"-9999"	"-9999"	"88"	"cloudy"	"SPECI KBOS 310511Z 20018G25KT 10SM OVC016 14/12 A2945 RMK AO2 PK WND 20030/0457 PRESFR"	"-9999.00"	"-9999.00"	"29.45"	"997.2"	"0"	"0"	"57.2"	"14.0"	"0"	"0"	"10.0"	"16.1"	"200"	"SSW"	"28.8"	"46.3"	"-999"	"-999"	"20.7"	"33.3"	
"20130131"	"Light Rain"	"00"	"54"	"54.0"	"12.2"	"0"	"0"	"-9999"	"-9999"	"89"	"rain"	"METAR KBOS 310554Z 20022G31KT 7SM -RA OVC018 14/12 A2942 RMK AO2 PK WND 19031/0546 RAB41 SLP961 P0000 60004 T01390122 10156 20133 58043"	"0.00"	"0.0"	"29.42"	"996.1"	"1"	"0"	"57.0"	"13.9"	"0"	"0"	"7.0"	"11.3"	"200"	"SSW"	"35.7"	"57.4"	"-999"	"-999"	"25.3"	"40.7"	
"20130131"	"Light Rain"	"01"	"54"	"55.0"	"12.8"	"0"	"0"	"-9999"	"-9999"	"93"	"rain"	"METAR KBOS 310654Z 20025G35KT 7SM -RA OVC018 14/13 A2936 RMK AO2 PK WND 21037/0638 SLP943 P0000 T01390128"	"0.00"	"0.0"	"29.37"	"994.3"	"1"	"0"	"57.0"	"13.9"	"0"	"0"	"7.0"	"11.3"	"200"	"SSW"	"40.3"	"64.8"	"-999"	"-999"	"28.8"	"46.3"	
"20130131"	"Light Rain"	"02"	"54"	"55.0"	"12.8"	"0"	"0"	"-9999"	"-9999"	"90"	"rain"	"METAR KBOS 310754Z 20028G43KT 5SM -RA BR BKN018 OVC025 14/13 A2928 RMK AO2 PK WND 20047/0728 RAE0658B21 PRESFR SLP915 P0000 T01440128"	"0.00"	"0.0"	"29.28"	"991.5"	"1"	"0"	"57.9"	"14.4"	"0"	"0"	"5.0"	"8.0"	"200"	"SSW"	"49.5"	"79.6"	"-999"	"-999"	"32.2"	"51.9"	
"20130131"	"Light Rain"	"03"	"54"	"55.0"	"12.8"	"0"	"0"	"-9999"	"-9999"	"87"	"rain"	"METAR KBOS 310854Z 20031G43KT 7SM -RA BKN018 OVC023 15/13 A2920 RMK AO2 PK WND 20050/0819 SLP887 P0000 60000 T01500128 58074"	"0.00"	"0.0"	"29.20"	"988.7"	"1"	"0"	"59.0"	"15.0"	"0"	"0"	"7.0"	"11.3"	"200"	"SSW"	"49.5"	"79.6"	"-999"	"-999"	"35.7"	"57.4"	
"20130131"	"Light Rain"	"04"	"54"	"55.9"	"13.3"	"0"	"0"	"-9999"	"-9999"	"90"	"rain"	"METAR KBOS 310954Z 20032G51KT 6SM -RA BR BKN018 OVC023 15/13 A2914 RMK AO2 PK WND 21052/0926 RAE31B50 SLP868 P0000 T01500133"	"0.00"	"0.0"	"29.14"	"986.8"	"1"	"0"	"59.0"	"15.0"	"0"	"0"	"6.0"	"9.7"	"200"	"SSW"	"58.7"	"94.5"	"-999"	"-999"	"36.8"	"59.3"	
"20130131"	"Rain"	"05"	"44"	"55.4"	"13.0"	"0"	"0"	"-9999"	"-9999"	"94"	"rain"	"SPECI KBOS 311044Z 19033G48KT 2 1/2SM R04R/5500VP6000FT RA BR BKN020 OVC024 14/13 A2909 RMK AO2 PK WND 19050/1020 PRESFR P0010"	"0.10"	"2.5"	"29.09"	"985.0"	"1"	"0"	"57.2"	"14.0"	"0"	"0"	"2.5"	"4.0"	"190"	"South"	"55.2"	"88.9"	"-999"	"-999"	"38.0"	"61.1"	
"20130131"	"Rain"	"05"	"54"	"55.9"	"13.3"	"0"	"0"	"-9999"	"-9999"	"93"	"rain"	"METAR KBOS 311054Z 19028G44KT 2 1/2SM RA BR SCT017 BKN023 OVC028 14/13 A2907 RMK AO2 PK WND 19050/1020 PRESFR SLP844 P0011 T01440133"	"0.11"	"2.8"	"29.07"	"984.4"	"1"	"0"	"57.9"	"14.4"	"0"	"0"	"2.5"	"4.0"	"190"	"South"	"50.6"	"81.5"	"-999"	"-999"	"32.2"	"51.9"	
"20130131"	"Light Rain"	"06"	"01"	"55.4"	"13.0"	"0"	"0"	"-9999"	"-9999"	"88"	"rain"	"SPECI KBOS 311101Z 18033G44KT 4SM -RA BR BKN019 OVC026 15/13 A2905 RMK AO2 PK WND 19044/1100 PRESFR P0001"	"0.01"	"0.3"	"29.05"	"983.6"	"1"	"0"	"59.0"	"15.0"	"0"	"0"	"4.0"	"6.4"	"180"	"South"	"50.6"	"81.5"	"-999"	"-999"	"38.0"	"61.1"	
"20130131"	"Light Rain"	"06"	"54"	"57.0"	"13.9"	"0"	"0"	"-9999"	"-9999"	"93"	"rain"	"METAR KBOS 311154Z 21032G50KT 6SM -RA BR BKN019 BKN027 OVC050 15/14 A2905 RMK AO2 PK WND 18052/1117 SLP837 P0012 60023 70031 T01500139 10156 20139 56049"	"0.12"	"3.0"	"29.05"	"983.7"	"1"	"0"	"59.0"	"15.0"	"0"	"0"	"6.0"	"9.7"	"210"	"SSW"	"57.5"	"92.6"	"-999"	"-999"	"36.8"	"59.3"	
"20130131"	"Light Rain"	"07"	"21"	"55.4"	"13.0"	"0"	"0"	"-9999"	"-9999"	"94"	"rain"	"SPECI KBOS 311221Z 21021G31KT 10SM -RA FEW019 SCT032 OVC070 14/13 A2906 RMK AO2 PK WND 20038/1157 CIG 040 E P0002"	"0.02"	"0.5"	"29.06"	"984.0"	"1"	"0"	"57.2"	"14.0"	"0"	"0"	"10.0"	"16.1"	"210"	"SSW"	"35.7"	"57.4"	"-999"	"-999"	"24.2"	"38.9"	
"20130131"	"Light Rain"	"07"	"54"	"54.0"	"12.2"	"0"	"0"	"-9999"	"-9999"	"93"	"rain"	"METAR KBOS 311254Z 19017KT 8SM -RA FEW020 BKN070 OVC090 13/12 A2903 RMK AO2 PK WND 20038/1157 SLP831 P0002 T01330122"	"0.02"	"0.5"	"29.03"	"983.1"	"1"	"0"	"55.9"	"13.3"	"0"	"0"	"8.0"	"12.9"	"190"	"South"	"-9999.0"	"-9999.0"	"-999"	"-999"	"19.6"	"31.5"	
"20130131"	"Light Rain"	"08"	"54"	"52.0"	"11.1"	"0"	"0"	"-9999"	"-9999"	"89"	"rain"	"METAR KBOS 311354Z 20023G29KT 8SM -RA SCT020 BKN029 OVC048 13/11 A2898 RMK AO2 PK WND 20029/1354 SLP815 P0003 T01280111"	"0.03"	"0.8"	"28.99"	"981.5"	"1"	"0"	"55.0"	"12.8"	"0"	"0"	"8.0"	"12.9"	"200"	"SSW"	"33.4"	"53.7"	"-999"	"-999"	"26.5"	"42.6"	
"20130131"	"Light Rain"	"09"	"54"	"48.0"	"8.9"	"0"	"0"	"-9999"	"-9999"	"86"	"rain"	"METAR KBOS 311454Z 30037G50KT 5SM -RA BR BKN022 OVC045 11/09 A2908 RMK AO2 PK WND 29050/1453 RAE27B52 PRESRR SLP846 P0000 60005 T01110089 53009"	"0.00"	"0.0"	"29.08"	"984.6"	"1"	"0"	"52.0"	"11.1"	"0"	"0"	"5.0"	"8.0"	"300"	"WNW"	"57.5"	"92.6"	"-999"	"-999"	"42.6"	"68.5"	
"20130131"	"Light Rain"	"09"	"57"	"42.8"	"6.0"	"0"	"0"	"-9999"	"-9999"	"87"	"rain"	"SPECI KBOS 311457Z 29025G50KT 2SM R04R/5500VP6000FT -RA BR BKN022 OVC031 08/06 A2907 RMK AO2 PK WND 29037/1455 WSHFT 1443 PRESRR P0000"	"0.00"	"0.0"	"29.07"	"984.3"	"1"	"0"	"46.4"	"8.0"	"0"	"0"	"2.0"	"3.2"	"290"	"WNW"	"57.5"	"92.6"	"37.4"	"3.0"	"28.8"	"46.3"	
"20130131"	"Heavy Rain"	"09"	"58"	"39.2"	"4.0"	"0"	"0"	"-9999"	"-9999"	"81"	"rain"	"SPECI KBOS 311458Z 29028G50KT 1 3/4SM R04R/5500VP6000FT +RA BKN022 OVC031 07/04 A2907 RMK AO2 PK WND 30037/1458 WSHFT 1443 P0000 PNO"	"0.00"	"0.0"	"29.07"	"984.3"	"1"	"0"	"44.6"	"7.0"	"0"	"0"	"1.8"	"2.8"	"290"	"WNW"	"57.5"	"92.6"	"34.4"	"1.3"	"32.2"	"51.9"	
"20130131"	"Light Rain"	"10"	"06"	"39.2"	"4.0"	"0"	"0"	"-9999"	"-9999"	"81"	"rain"	"SPECI KBOS 311506Z 28024G37KT 3SM R04R/6000VP6000FT -RA BKN022 BKN036 OVC043 07/04 A2908 RMK AO2 PK WND 29037/1505 WSHFT 1443 P0002 $"	"0.02"	"0.5"	"29.08"	"984.6"	"1"	"0"	"44.6"	"7.0"	"0"	"0"	"3.0"	"4.8"	"280"	"West"	"42.6"	"68.5"	"35.1"	"1.7"	"27.6"	"44.4"	
"20130131"	"Light Rain"	"10"	"13"	"39.2"	"4.0"	"0"	"0"	"-9999"	"-9999"	"81"	"rain"	"SPECI KBOS 311513Z 29015G37KT 8SM -RA FEW020 SCT028 OVC039 07/04 A2909 RMK AO2 PK WND 29037/1505 WSHFT 1443 P0002 $"	"0.02"	"0.5"	"29.09"	"985.0"	"1"	"0"	"44.6"	"7.0"	"0"	"0"	"8.0"	"12.9"	"290"	"WNW"	"42.6"	"68.5"	"37.2"	"2.9"	"17.3"	"27.8"	
"20130131"	"Scattered Clouds"	"10"	"54"	"37.9"	"3.3"	"0"	"0"	"-9999"	"-9999"	"76"	"partlycloudy"	"METAR KBOS 311554Z 28026G33KT 10SM FEW023 SCT049 SCT100 07/03 A2912 RMK AO2 PK WND 29037/1505 WSHFT 1443 RAE40 SLP861 P0003 T00720033"	"0.03"	"0.8"	"29.12"	"986.1"	"0"	"0"	"45.0"	"7.2"	"0"	"0"	"10.0"	"16.1"	"280"	"West"	"38.0"	"61.1"	"35.2"	"1.8"	"29.9"	"48.2"	
"20130131"	"Scattered Clouds"	"11"	"54"	"35.1"	"1.7"	"0"	"0"	"-9999"	"-9999"	"66"	"partlycloudy"	"METAR KBOS 311654Z 27026G32KT 10SM FEW032 SCT045 SCT060 08/02 A2917 RMK AO2 PK WND 30036/1642 SLP877 T00780017"	"-9999.00"	"-9999.00"	"29.17"	"987.7"	"0"	"0"	"46.0"	"7.8"	"0"	"0"	"10.0"	"16.1"	"270"	"West"	"36.8"	"59.3"	"36.7"	"2.6"	"29.9"	"48.2"	
"20130131"	"Mostly Cloudy"	"12"	"54"	"30.0"	"-1.1"	"0"	"0"	"-9999"	"-9999"	"56"	"mostlycloudy"	"METAR KBOS 311754Z 28025G31KT 10SM SCT047 BKN055 07/M01 A2919 RMK AO2 PK WND 28033/1743 SLP886 60008 T00721011 10133 20061 51039"	"-9999.00"	"-9999.00"	"29.20"	"988.6"	"0"	"0"	"45.0"	"7.2"	"0"	"0"	"10.0"	"16.1"	"280"	"West"	"35.7"	"57.4"	"35.4"	"1.9"	"28.8"	"46.3"	
"20130131"	"Mostly Cloudy"	"13"	"54"	"24.1"	"-4.4"	"0"	"0"	"-9999"	"-9999"	"42"	"mostlycloudy"	"METAR KBOS 311854Z 28025G36KT 10SM BKN050 08/M04 A2923 RMK AO2 PK WND 28036/1851 SLP897 T00781044"	"-9999.00"	"-9999.00"	"29.23"	"989.7"	"0"	"0"	"46.0"	"7.8"	"0"	"0"	"10.0"	"16.1"	"280"	"West"	"41.4"	"66.7"	"36.9"	"2.7"	"28.8"	"46.3"	
"20130131"	"Scattered Clouds"	"14"	"54"	"19.9"	"-6.7"	"0"	"0"	"-9999"	"-9999"	"37"	"partlycloudy"	"METAR KBOS 311954Z 28024G37KT 10SM SCT060 07/M07 A2928 RMK AO2 PK WND 28043/1904 SLP916 T00721067"	"-9999.00"	"-9999.00"	"29.29"	"991.6"	"0"	"0"	"45.0"	"7.2"	"0"	"0"	"10.0"	"16.1"	"280"	"West"	"42.6"	"68.5"	"35.6"	"2.0"	"27.6"	"44.4"	
"20130131"	"Partly Cloudy"	"15"	"54"	"18.0"	"-7.8"	"0"	"0"	"-9999"	"-9999"	"37"	"partlycloudy"	"METAR KBOS 312054Z 28016G34KT 10SM FEW065 06/M08 A2933 RMK AO2 PK WND 28036/1958 SLP932 T00611078 53046"	"-9999.00"	"-9999.00"	"29.33"	"993.2"	"0"	"0"	"43.0"	"6.1"	"0"	"0"	"10.0"	"16.1"	"280"	"West"	"39.1"	"63.0"	"34.8"	"1.5"	"18.4"	"29.6"	
"20130131"	"Scattered Clouds"	"16"	"54"	"18.0"	"-7.8"	"0"	"0"	"-9999"	"-9999"	"40"	"partlycloudy"	"METAR KBOS 312154Z 29016G22KT 10SM SCT080 05/M08 A2936 RMK AO2 PK WND 28029/2102 SLP943 T00501078"	"-9999.00"	"-9999.00"	"29.37"	"994.3"	"0"	"0"	"41.0"	"5.0"	"0"	"0"	"10.0"	"16.1"	"290"	"WNW"	"25.3"	"40.7"	"32.2"	"0.1"	"18.4"	"29.6"	
"20130131"	"Scattered Clouds"	"17"	"54"	"17.1"	"-8.3"	"0"	"0"	"-9999"	"-9999"	"40"	"partlycloudy"	"METAR KBOS 312254Z 27018G39KT 10SM SCT080 04/M08 A2942 RMK AO2 PK WND 31039/2249 SLP961 T00441083"	"-9999.00"	"-9999.00"	"29.42"	"996.1"	"0"	"0"	"39.9"	"4.4"	"0"	"0"	"10.0"	"16.1"	"270"	"West"	"44.9"	"72.2"	"30.2"	"-1.0"	"20.7"	"33.3"	
"20130131"	"Mostly Cloudy"	"18"	"54"	"16.0"	"-8.9"	"0"	"0"	"-9999"	"-9999"	"41"	"mostlycloudy"	"METAR KBOS 312354Z 28026G34KT 10SM SCT060 BKN080 03/M09 A2946 RMK AO2 PK WND 29034/2350 SLP975 T00331089 10089 20033 53043"	"-9999.00"	"-9999.00"	"29.46"	"997.5"	"0"	"0"	"37.9"	"3.3"	"0"	"0"	"10.0"	"16.1"	"280"	"West"	"39.1"	"63.0"	"25.7"	"-3.5"	"29.9"	"48.2"	
"20130131"	"Partly Cloudy"	"19"	"54"	"14.0"	"-10.0"	"0"	"0"	"-9999"	"-9999"	"39"	"partlycloudy"	"METAR KBOS 010054Z 28017G32KT 10SM FEW070 03/M10 A2949 RMK AO2 PK WND 29035/2359 SLP986 T00281100"	"-9999.00"	"-9999.00"	"29.49"	"998.6"	"0"	"0"	"37.0"	"2.8"	"0"	"0"	"10.0"	"16.1"	"280"	"West"	"36.8"	"59.3"	"26.7"	"-2.9"	"19.6"	"31.5"	
"20130131"	"Mostly Cloudy"	"20"	"54"	"12.9"	"-10.6"	"0"	"0"	"-9999"	"-9999"	"39"	"mostlycloudy"	"METAR KBOS 010154Z 27019G31KT 10SM BKN080 02/M11 A2953 RMK AO2 PK WND 28031/0148 SLP997 T00221106"	"-9999.00"	"-9999.00"	"29.52"	"999.7"	"0"	"0"	"36.0"	"2.2"	"0"	"0"	"10.0"	"16.1"	"270"	"West"	"35.7"	"57.4"	"24.7"	"-4.0"	"21.9"	"35.2"	
"20130131"	"Overcast"	"21"	"54"	"14.0"	"-10.0"	"0"	"0"	"-9999"	"-9999"	"42"	"cloudy"	"METAR KBOS 010254Z 27015G25KT 10SM OVC070 02/M10 A2955 RMK AO2 PK WND 28030/0227 SLP007 T00171100 51032"	"-9999.00"	"-9999.00"	"29.55"	"1000.7"	"0"	"0"	"35.1"	"1.7"	"0"	"0"	"10.0"	"16.1"	"270"	"West"	"28.8"	"46.3"	"24.8"	"-4.0"	"17.3"	"27.8"	
"20130131"	"Mostly Cloudy"	"22"	"54"	"12.9"	"-10.6"	"0"	"0"	"-9999"	"-9999"	"43"	"mostlycloudy"	"METAR KBOS 010354Z 29019G28KT 10SM SCT055 BKN080 01/M11 A2958 RMK AO2 PK WND 28033/0339 SLP015 T00061106"	"-9999.00"	"-9999.00"	"29.58"	"1001.5"	"0"	"0"	"33.1"	"0.6"	"0"	"0"	"10.0"	"16.1"	"290"	"WNW"	"32.2"	"51.9"	"20.9"	"-6.2"	"21.9"	"35.2"	
"20130131"	"Partly Cloudy"	"23"	"54"	"14.0"	"-10.0"	"0"	"0"	"-9999"	"-9999"	"48"	"partlycloudy"	"METAR KBOS 010454Z 27013G24KT 10SM FEW075 00/M10 A2959 RMK AO2 PK WND 27030/0410 SLP020 T00001100 401560000"	"-9999.00"	"-9999.00"	"29.59"	"1002.0"	"0"	"0"	"32.0"	"0.0"	"0"	"0"	"10.0"	"16.1"	"270"	"West"	"27.6"	"44.4"	"21.6"	"-5.8"	"15.0"	"24.1"	
"20130130"	"Overcast"	"00"	"51"	"32.0"	"0.0"	"0"	"0"	"-9999"	"-9999"	"93"	"cloudy"	"SPECI KBOS 300551Z 00000KT 1 1/2SM BR OVC004 01/00 A3015 RMK AO2 SFC VIS 2 P0001"	"0.01"	"0.3"	"30.15"	"1020.9"	"0"	"0"	"33.8"	"1.0"	"0"	"0"	"1.5"	"2.4"	"0"	"North"	"-9999.0"	"-9999.0"	"-999"	"-999"	"0.0"	"0.0"	
"20130130"	"Overcast"	"00"	"54"	"32.0"	"0.0"	"0"	"0"	"-9999"	"-9999"	"96"	"cloudy"	"METAR KBOS 300554Z 00000KT 1 1/2SM BR OVC004 01/00 A3015 RMK AO2 SFC VIS 1 3/4 SLP207 P0001 60001 T00060000 10011 20006 58010"	"0.01"	"0.3"	"30.14"	"1020.7"	"0"	"0"	"33.1"	"0.6"	"0"	"0"	"1.5"	"2.4"	"0"	"North"	"-9999.0"	"-9999.0"	"-999"	"-999"	"0.0"	"0.0"	
"20130130"	"Light Rain"	"01"	"54"	"33.1"	"0.6"	"0"	"0"	"-9999"	"-9999"	"96"	"rain"	"METAR KBOS 300654Z 16003KT 1 1/2SM -RA BR SCT004 SCT008 OVC019 01/01 A3013 RMK AO2 RAB49 SLP202 P0001 T00110006"	"0.01"	"0.3"	"30.13"	"1020.2"	"1"	"0"	"34.0"	"1.1"	"0"	"0"	"1.5"	"2.4"	"160"	"SSE"	"-9999.0"	"-9999.0"	"31.0"	"-0.6"	"3.5"	"5.6"	
"20130130"	"Light Rain"	"02"	"26"	"33.8"	"1.0"	"0"	"0"	"-9999"	"-9999"	"100"	"rain"	"SPECI KBOS 300726Z 14004KT 1 1/2SM -RA BR BKN006 OVC019 01/01 A3012 RMK AO2 SFC VIS 2 1/2 P0000"	"0.00"	"0.0"	"30.12"	"1019.9"	"1"	"0"	"33.8"	"1.0"	"0"	"0"	"1.5"	"2.4"	"140"	"SE"	"-9999.0"	"-9999.0"	"29.6"	"-1.4"	"4.6"	"7.4"	
"20130130"	"Light Drizzle"	"02"	"54"	"33.1"	"0.6"	"0"	"0"	"-9999"	"-9999"	"96"	"rain"	"METAR KBOS 300754Z COR 13004KT 1 1/2SM -DZ BR OVC006 01/01 A3009 RMK AO2 SFC VIS 2 1/2 RAE34DZB34 PRESFR SLP189 P0001 T00110006"	"0.01"	"0.3"	"30.09"	"1018.9"	"0"	"0"	"34.0"	"1.1"	"0"	"0"	"1.5"	"2.4"	"130"	"SE"	"-9999.0"	"-9999.0"	"29.8"	"-1.2"	"4.6"	"7.4"	
"20130130"	"Light Drizzle"	"03"	"28"	"33.8"	"1.0"	"0"	"0"	"-9999"	"-9999"	"100"	"rain"	"SPECI KBOS 300828Z 13005KT 1 1/2SM -DZ BR OVC004 01/01 A3007 RMK AO2 SFC VIS 4 P0000"	"0.00"	"0.0"	"30.07"	"1018.2"	"0"	"0"	"33.8"	"1.0"	"0"	"0"	"1.5"	"2.4"	"130"	"SE"	"-9999.0"	"-9999.0"	"28.6"	"-1.9"	"5.8"	"9.3"	
"20130130"	"Light Drizzle"	"03"	"54"	"33.1"	"0.6"	"0"	"0"	"-9999"	"-9999"	"96"	"rain"	"METAR KBOS 300854Z 14004KT 1SM -DZ BR OVC004 01/01 A3006 RMK AO2 SFC VIS 3 SLP177 P0000 60002 T00110006 58030"	"0.00"	"0.0"	"30.06"	"1017.7"	"0"	"0"	"34.0"	"1.1"	"0"	"0"	"1.0"	"1.6"	"140"	"SE"	"-9999.0"	"-9999.0"	"29.8"	"-1.2"	"4.6"	"7.4"	
"20130130"	"Overcast"	"04"	"26"	"33.8"	"1.0"	"0"	"0"	"-9999"	"-9999"	"93"	"cloudy"	"SPECI KBOS 300926Z 15005KT 6SM BR OVC004 02/01 A3004 RMK AO2 DZE23 P0000"	"0.00"	"0.0"	"30.04"	"1017.2"	"0"	"0"	"35.6"	"2.0"	"0"	"0"	"6.0"	"9.7"	"150"	"SSE"	"-9999.0"	"-9999.0"	"30.7"	"-0.7"	"5.8"	"9.3"	
"20130130"	"Overcast"	"04"	"43"	"35.6"	"2.0"	"0"	"0"	"-9999"	"-9999"	"100"	"cloudy"	"SPECI KBOS 300943Z 17003KT 7SM OVC006 02/02 A3004 RMK AO2 DZE23 P0000"	"0.00"	"0.0"	"30.04"	"1017.2"	"0"	"0"	"35.6"	"2.0"	"0"	"0"	"7.0"	"11.3"	"170"	"South"	"-9999.0"	"-9999.0"	"32.8"	"0.5"	"3.5"	"5.6"	
"20130130"	"Overcast"	"04"	"54"	"35.1"	"1.7"	"0"	"0"	"-9999"	"-9999"	"97"	"cloudy"	"METAR KBOS 300954Z 17004KT 8SM OVC006 02/02 A3004 RMK AO2 DZE23 SLP170 P0000 T00220017"	"0.00"	"0.0"	"30.04"	"1017.0"	"0"	"0"	"36.0"	"2.2"	"0"	"0"	"8.0"	"12.9"	"170"	"South"	"-9999.0"	"-9999.0"	"32.1"	"0.0"	"4.6"	"7.4"	
"20130130"	"Overcast"	"05"	"54"	"35.1"	"1.7"	"0"	"0"	"-9999"	"-9999"	"97"	"cloudy"	"METAR KBOS 301054Z 15006KT 6SM BR OVC006 02/02 A3001 RMK AO2 SLP160 T00220017"	"-9999.00"	"-9999.00"	"30.01"	"1016.0"	"0"	"0"	"36.0"	"2.2"	"0"	"0"	"6.0"	"9.7"	"150"	"SSE"	"-9999.0"	"-9999.0"	"30.3"	"-0.9"	"6.9"	"11.1"	
"20130130"	"Overcast"	"06"	"54"	"35.1"	"1.7"	"0"	"0"	"-9999"	"-9999"	"97"	"cloudy"	"METAR KBOS 301154Z 14005KT 7SM OVC006 02/02 A2998 RMK AO2 SLP151 60002 70003 T00220017 10022 20006 58026"	"-9999.00"	"-9999.00"	"29.98"	"1015.1"	"0"	"0"	"36.0"	"2.2"	"0"	"0"	"7.0"	"11.3"	"140"	"SE"	"-9999.0"	"-9999.0"	"31.1"	"-0.5"	"5.8"	"9.3"	
"20130130"	"Overcast"	"07"	"54"	"37.9"	"3.3"	"0"	"0"	"-9999"	"-9999"	"96"	"cloudy"	"METAR KBOS 301254Z 15006KT 7SM OVC008 04/03 A2994 RMK AO2 SLP138 T00390033"	"-9999.00"	"-9999.00"	"29.94"	"1013.8"	"0"	"0"	"39.0"	"3.9"	"0"	"0"	"7.0"	"11.3"	"150"	"SSE"	"-9999.0"	"-9999.0"	"34.0"	"1.1"	"6.9"	"11.1"	
"20130130"	"Overcast"	"08"	"54"	"42.1"	"5.6"	"0"	"0"	"-9999"	"-9999"	"97"	"cloudy"	"METAR KBOS 301354Z 19010KT 4SM BR OVC006 06/06 A2990 RMK AO2 SLP126 T00610056"	"-9999.00"	"-9999.00"	"29.91"	"1012.6"	"0"	"0"	"43.0"	"6.1"	"0"	"0"	"4.0"	"6.4"	"190"	"South"	"-9999.0"	"-9999.0"	"36.8"	"2.7"	"11.5"	"18.5"	
"20130130"	"Overcast"	"09"	"54"	"46.0"	"7.8"	"0"	"0"	"-9999"	"-9999"	"93"	"cloudy"	"METAR KBOS 301454Z 20010KT 4SM BR OVC006 09/08 A2987 RMK AO2 SLP116 T00890078 56035"	"-9999.00"	"-9999.00"	"29.88"	"1011.6"	"0"	"0"	"48.0"	"8.9"	"0"	"0"	"4.0"	"6.4"	"200"	"SSW"	"-9999.0"	"-9999.0"	"-999"	"-999"	"11.5"	"18.5"	
"20130130"	"Overcast"	"10"	"54"	"48.9"	"9.4"	"0"	"0"	"-9999"	"-9999"	"92"	"cloudy"	"METAR KBOS 301554Z 20014G20KT 5SM BR OVC008 11/09 A2983 RMK AO2 SLP101 P0001 T01060094"	"0.01"	"0.3"	"29.83"	"1010.1"	"0"	"0"	"51.1"	"10.6"	"0"	"0"	"5.0"	"8.0"	"200"	"SSW"	"23.0"	"37.0"	"-999"	"-999"	"16.1"	"25.9"	
"20130130"	"Overcast"	"11"	"54"	"51.1"	"10.6"	"0"	"0"	"-9999"	"-9999"	"93"	"cloudy"	"METAR KBOS 301654Z 19014G20KT 5SM BR OVC008 12/11 A2977 RMK AO2 SLP079 T01170106"	"-9999.00"	"-9999.00"	"29.77"	"1007.9"	"0"	"0"	"53.1"	"11.7"	"0"	"0"	"5.0"	"8.0"	"190"	"South"	"23.0"	"37.0"	"-999"	"-999"	"16.1"	"25.9"	
"20130130"	"Overcast"	"12"	"54"	"51.1"	"10.6"	"0"	"0"	"-9999"	"-9999"	"93"	"cloudy"	"METAR KBOS 301754Z 19013G19KT 5SM BR OVC008 12/11 A2973 RMK AO2 SLP066 T01170106 10122 20022 56050"	"-9999.00"	"-9999.00"	"29.73"	"1006.6"	"0"	"0"	"53.1"	"11.7"	"0"	"0"	"5.0"	"8.0"	"190"	"South"	"21.9"	"35.2"	"-999"	"-999"	"15.0"	"24.1"	
"20130130"	"Overcast"	"13"	"13"	"51.8"	"11.0"	"0"	"0"	"-9999"	"-9999"	"94"	"cloudy"	"SPECI KBOS 301813Z 19011KT 5SM BR OVC010 12/11 A2971 RMK AO2 P0001"	"0.01"	"0.3"	"29.71"	"1006.0"	"0"	"0"	"53.6"	"12.0"	"0"	"0"	"5.0"	"8.0"	"190"	"South"	"-9999.0"	"-9999.0"	"-999"	"-999"	"12.7"	"20.4"	
"20130130"	"Overcast"	"13"	"54"	"52.0"	"11.1"	"0"	"0"	"-9999"	"-9999"	"93"	"cloudy"	"METAR KBOS 301854Z 20013KT 6SM BR OVC012 12/11 A2968 RMK AO2 SLP049 T01220111"	"-9999.00"	"-9999.00"	"29.68"	"1004.9"	"0"	"0"	"54.0"	"12.2"	"0"	"0"	"6.0"	"9.7"	"200"	"SSW"	"-9999.0"	"-9999.0"	"-999"	"-999"	"15.0"	"24.1"	
"20130130"	"Overcast"	"14"	"29"	"53.6"	"12.0"	"0"	"0"	"-9999"	"-9999"	"94"	"cloudy"	"SPECI KBOS 301929Z 20015KT 8SM BKN016 OVC023 13/12 A2965 RMK AO2"	"-9999.00"	"-9999.00"	"29.65"	"1003.9"	"0"	"0"	"55.4"	"13.0"	"0"	"0"	"8.0"	"12.9"	"200"	"SSW"	"-9999.0"	"-9999.0"	"-999"	"-999"	"17.3"	"27.8"	
"20130130"	"Overcast"	"14"	"54"	"54.0"	"12.2"	"0"	"0"	"-9999"	"-9999"	"83"	"cloudy"	"METAR KBOS 301954Z 21017KT 10SM OVC018 15/12 A2964 RMK AO2 SLP038 T01500122"	"-9999.00"	"-9999.00"	"29.65"	"1003.8"	"0"	"0"	"59.0"	"15.0"	"0"	"0"	"10.0"	"16.1"	"210"	"SSW"	"-9999.0"	"-9999.0"	"-999"	"-999"	"19.6"	"31.5"	
"20130130"	"Mostly Cloudy"	"15"	"54"	"54.0"	"12.2"	"0"	"0"	"-9999"	"-9999"	"80"	"mostlycloudy"	"METAR KBOS 302054Z 22022G30KT 10SM BKN022 BKN160 BKN250 16/12 A2962 RMK AO2 PK WND 22035/2012 SLP029 60002 T01560122 56036"	"-9999.00"	"-9999.00"	"29.62"	"1002.9"	"0"	"0"	"60.1"	"15.6"	"0"	"0"	"10.0"	"16.1"	"220"	"SW"	"34.5"	"55.6"	"-999"	"-999"	"25.3"	"40.7"	
"20130130"	"Mostly Cloudy"	"16"	"54"	"54.0"	"12.2"	"0"	"0"	"-9999"	"-9999"	"83"	"mostlycloudy"	"METAR KBOS 302154Z 21021G29KT 10SM BKN018 BKN160 BKN250 15/12 A2962 RMK AO2 PK WND 21034/2136 SLP030 T01500122"	"-9999.00"	"-9999.00"	"29.62"	"1003.0"	"0"	"0"	"59.0"	"15.0"	"0"	"0"	"10.0"	"16.1"	"210"	"SSW"	"33.4"	"53.7"	"-999"	"-999"	"24.2"	"38.9"	
"20130130"	"Overcast"	"17"	"54"	"54.0"	"12.2"	"0"	"0"	"-9999"	"-9999"	"83"	"cloudy"	"METAR KBOS 302254Z 22019G27KT 10SM OVC016 15/12 A2962 RMK AO2 PK WND 22031/2218 RAB23E32 SLP029 P0000 T01500122"	"0.00"	"0.0"	"29.62"	"1002.9"	"0"	"0"	"59.0"	"15.0"	"0"	"0"	"10.0"	"16.1"	"220"	"SW"	"31.1"	"50.0"	"-999"	"-999"	"21.9"	"35.2"	
"20130130"	"Overcast"	"18"	"54"	"54.0"	"12.2"	"0"	"0"	"-9999"	"-9999"	"80"	"cloudy"	"METAR KBOS 302354Z 22020G26KT 10SM OVC018 16/12 A2960 RMK AO2 PK WND 22031/2330 SLP023 60002 T01560122 10156 20117 58007"	"-9999.00"	"-9999.00"	"29.60"	"1002.3"	"0"	"0"	"60.1"	"15.6"	"0"	"0"	"10.0"	"16.1"	"220"	"SW"	"29.9"	"48.2"	"-999"	"-999"	"23.0"	"37.0"	
"20130130"	"Light Rain"	"19"	"54"	"55.0"	"12.8"	"0"	"0"	"-9999"	"-9999"	"87"	"rain"	"METAR KBOS 310054Z 21021G35KT 9SM -RA BKN018 BKN024 OVC055 15/13 A2957 RMK AO2 PK WND 22036/0039 RAB21 SLP014 P0000 T01500128 $"	"0.00"	"0.0"	"29.57"	"1001.4"	"1"	"0"	"59.0"	"15.0"	"0"	"0"	"9.0"	"14.5"	"210"	"SSW"	"40.3"	"64.8"	"-999"	"-999"	"24.2"	"38.9"	
"20130130"	"Light Rain"	"20"	"54"	"55.0"	"12.8"	"0"	"0"	"-9999"	"-9999"	"87"	"rain"	"METAR KBOS 310154Z 21022G28KT 10SM -RA OVC016 15/13 A2956 RMK AO2 PK WND 21031/0139 SLP010 P0001 T01500128"	"0.01"	"0.3"	"29.56"	"1001.0"	"1"	"0"	"59.0"	"15.0"	"0"	"0"	"10.0"	"16.1"	"210"	"SSW"	"32.2"	"51.9"	"-999"	"-999"	"25.3"	"40.7"	
"20130130"	"Light Rain"	"21"	"49"	"55.4"	"13.0"	"0"	"0"	"-9999"	"-9999"	"94"	"rain"	"SPECI KBOS 310249Z 22016G26KT 7SM -RA BKN014 OVC019 14/13 A2955 RMK AO2 PK WND 22031/0206 P0002"	"0.02"	"0.5"	"29.55"	"1000.6"	"1"	"0"	"57.2"	"14.0"	"0"	"0"	"7.0"	"11.3"	"220"	"SW"	"29.9"	"48.2"	"-999"	"-999"	"18.4"	"29.6"	
"20130130"	"Light Rain"	"21"	"54"	"55.0"	"12.8"	"0"	"0"	"-9999"	"-9999"	"90"	"rain"	"METAR KBOS 310254Z 21019G23KT 9SM -RA OVC014 14/13 A2954 RMK AO2 PK WND 22031/0206 SLP004 P0002 60003 T01440128 56010"	"0.02"	"0.5"	"29.55"	"1000.4"	"1"	"0"	"57.9"	"14.4"	"0"	"0"	"9.0"	"14.5"	"210"	"SSW"	"26.5"	"42.6"	"-999"	"-999"	"21.9"	"35.2"	
"20130130"	"Overcast"	"22"	"54"	"55.0"	"12.8"	"0"	"0"	"-9999"	"-9999"	"93"	"cloudy"	"METAR KBOS 310354Z 21017G25KT 7SM OVC012 14/13 A2952 RMK AO2 RAE53 SLP995 P0001 T01390128"	"0.01"	"0.3"	"29.52"	"999.5"	"0"	"0"	"57.0"	"13.9"	"0"	"0"	"7.0"	"11.3"	"210"	"SSW"	"28.8"	"46.3"	"-999"	"-999"	"19.6"	"31.5"	
"20130130"	"Overcast"	"23"	"54"	"55.0"	"12.8"	"0"	"0"	"-9999"	"-9999"	"93"	"cloudy"	"METAR KBOS 310454Z 20019G26KT 10SM OVC014 14/13 A2948 RMK AO2 PK WND 21027/0438 RAB29E39 SLP982 P0000 T01390128 401560006"	"0.00"	"0.0"	"29.48"	"998.2"	"0"	"0"	"57.0"	"13.9"	"0"	"0"	"10.0"	"16.1"	"200"	"SSW"	"29.9"	"48.2"	"-999"	"-999"	"21.9"	"35.2"	
"20130129"	"Light Snow"	"00"	"52"	"28.4"	"-2.0"	"0"	"0"	"-9999"	"-9999"	"93"	"snow"	"SPECI KBOS 290552Z 36004KT 4SM -SN BR OVC009 M01/M02 A3002 RMK AO2 P0000"	"0.00"	"0.0"	"30.02"	"1016.5"	"0"	"1"	"30.2"	"-1.0"	"0"	"0"	"4.0"	"6.4"	"360"	"North"	"-9999.0"	"-9999.0"	"25.4"	"-3.7"	"4.6"	"7.4"	
"20130129"	"Light Snow"	"00"	"54"	"28.0"	"-2.2"	"0"	"0"	"-9999"	"-9999"	"92"	"snow"	"METAR KBOS 290554Z 01004KT 3SM -SN BR OVC009 M01/M02 A3002 RMK AO2 SLP165 P0000 60008 T10111022 11011 21022 55005"	"0.00"	"0.0"	"30.02"	"1016.5"	"0"	"1"	"30.0"	"-1.1"	"0"	"0"	"3.0"	"4.8"	"10"	"North"	"-9999.0"	"-9999.0"	"25.2"	"-3.8"	"4.6"	"7.4"	
"20130129"	"Light Snow"	"01"	"05"	"26.6"	"-3.0"	"0"	"0"	"-9999"	"-9999"	"86"	"snow"	"SPECI KBOS 290605Z 01005KT 2 1/2SM -SN BR OVC009 M01/M03 A3003 RMK AO2 P0000"	"0.00"	"0.0"	"30.03"	"1016.8"	"0"	"1"	"30.2"	"-1.0"	"0"	"0"	"2.5"	"4.0"	"10"	"North"	"-9999.0"	"-9999.0"	"24.3"	"-4.3"	"5.8"	"9.3"	
"20130129"	"Light Snow"	"01"	"23"	"26.6"	"-3.0"	"0"	"0"	"-9999"	"-9999"	"93"	"snow"	"SPECI KBOS 290623Z 34005KT 3SM -SN BR OVC007 M02/M03 A3004 RMK AO2 P0000"	"0.00"	"0.0"	"30.04"	"1017.2"	"0"	"1"	"28.4"	"-2.0"	"0"	"0"	"3.0"	"4.8"	"340"	"NNW"	"-9999.0"	"-9999.0"	"22.2"	"-5.5"	"5.8"	"9.3"	
"20130129"	"Light Snow"	"01"	"43"	"26.6"	"-3.0"	"0"	"0"	"-9999"	"-9999"	"93"	"snow"	"SPECI KBOS 290643Z 36006KT 2 1/2SM -SN BR BKN007 OVC016 M02/M03 A3004 RMK AO2 P0000"	"0.00"	"0.0"	"30.04"	"1017.2"	"0"	"1"	"28.4"	"-2.0"	"0"	"0"	"2.5"	"4.0"	"360"	"North"	"-9999.0"	"-9999.0"	"21.2"	"-6.0"	"6.9"	"11.1"	
"20130129"	"Light Snow"	"01"	"54"	"26.1"	"-3.3"	"0"	"0"	"-9999"	"-9999"	"89"	"snow"	"METAR KBOS 290654Z 35006KT 2 1/2SM -SN BR BKN007 OVC016 M02/M03 A3005 RMK AO2 SLP173 P0001 T10171033"	"0.01"	"0.3"	"30.04"	"1017.3"	"0"	"1"	"28.9"	"-1.7"	"0"	"0"	"2.5"	"4.0"	"350"	"North"	"-9999.0"	"-9999.0"	"21.9"	"-5.6"	"6.9"	"11.1"	
"20130129"	"Light Snow"	"02"	"54"	"25.0"	"-3.9"	"0"	"0"	"-9999"	"-9999"	"88"	"snow"	"METAR KBOS 290754Z 35007KT 2 1/2SM -SN BR OVC009 M02/M04 A3005 RMK AO2 SLP176 P0000 T10221039"	"0.00"	"0.0"	"30.05"	"1017.6"	"0"	"1"	"28.0"	"-2.2"	"0"	"0"	"2.5"	"4.0"	"350"	"North"	"-9999.0"	"-9999.0"	"20.0"	"-6.7"	"8.1"	"13.0"	
"20130129"	"Overcast"	"03"	"54"	"25.0"	"-3.9"	"0"	"0"	"-9999"	"-9999"	"88"	"cloudy"	"METAR KBOS 290854Z 35007KT 9SM OVC011 M02/M04 A3006 RMK AO2 SNE54 SLP179 P0000 60001 T10221039 51014"	"0.00"	"0.0"	"30.06"	"1017.9"	"0"	"0"	"28.0"	"-2.2"	"0"	"0"	"9.0"	"14.5"	"350"	"North"	"-9999.0"	"-9999.0"	"20.0"	"-6.7"	"8.1"	"13.0"	
"20130129"	"Light Snow"	"04"	"32"	"24.8"	"-4.0"	"0"	"0"	"-9999"	"-9999"	"93"	"snow"	"SPECI KBOS 290932Z 34007KT 3SM -SN BR BKN015 OVC019 M03/M04 A3007 RMK AO2 SFC VIS 4 P0000"	"0.00"	"0.0"	"30.07"	"1018.2"	"0"	"1"	"26.6"	"-3.0"	"0"	"0"	"3.0"	"4.8"	"340"	"NNW"	"-9999.0"	"-9999.0"	"18.2"	"-7.6"	"8.1"	"13.0"	
"20130129"	"Light Snow"	"04"	"51"	"24.8"	"-4.0"	"0"	"0"	"-9999"	"-9999"	"93"	"snow"	"SPECI KBOS 290951Z 33007KT 7SM -SN SCT017 BKN033 OVC049 M03/M04 A3007 RMK AO2 CIG 014 E P0000"	"0.00"	"0.0"	"30.07"	"1018.2"	"0"	"1"	"26.6"	"-3.0"	"0"	"0"	"7.0"	"11.3"	"330"	"NNW"	"-9999.0"	"-9999.0"	"18.2"	"-7.6"	"8.1"	"13.0"	
"20130129"	"Overcast"	"04"	"54"	"24.1"	"-4.4"	"0"	"0"	"-9999"	"-9999"	"89"	"cloudy"	"METAR KBOS 290954Z 34007KT 8SM FEW017 BKN033 OVC049 M03/M04 A3008 RMK AO2 CIG 014 E SLP183 P0000 T10281044"	"0.00"	"0.0"	"30.07"	"1018.3"	"0"	"0"	"27.0"	"-2.8"	"0"	"0"	"8.0"	"12.9"	"340"	"NNW"	"-9999.0"	"-9999.0"	"18.7"	"-7.4"	"8.1"	"13.0"	
"20130129"	"Overcast"	"05"	"21"	"24.8"	"-4.0"	"0"	"0"	"-9999"	"-9999"	"93"	"cloudy"	"SPECI KBOS 291021Z 34009KT 10SM SCT009 BKN020 OVC049 M03/M04 A3008 RMK AO2 CIG 014 E"	"-9999.00"	"-9999.00"	"30.08"	"1018.5"	"0"	"0"	"26.6"	"-3.0"	"0"	"0"	"10.0"	"16.1"	"340"	"NNW"	"-9999.0"	"-9999.0"	"16.8"	"-8.4"	"10.4"	"16.7"	
"20130129"	"Overcast"	"05"	"28"	"24.8"	"-4.0"	"0"	"0"	"-9999"	"-9999"	"93"	"cloudy"	"SPECI KBOS 291028Z 34006KT 10SM SCT009 BKN014 OVC049 M03/M04 A3008 RMK AO2"	"-9999.00"	"-9999.00"	"30.08"	"1018.5"	"0"	"0"	"26.6"	"-3.0"	"0"	"0"	"10.0"	"16.1"	"340"	"NNW"	"-9999.0"	"-9999.0"	"19.1"	"-7.2"	"6.9"	"11.1"	
"20130129"	"Overcast"	"05"	"43"	"23.0"	"-5.0"	"0"	"0"	"-9999"	"-9999"	"86"	"cloudy"	"SPECI KBOS 291043Z 34008KT 10SM BKN009 OVC014 M03/M05 A3009 RMK AO2"	"-9999.00"	"-9999.00"	"30.09"	"1018.8"	"0"	"0"	"26.6"	"-3.0"	"0"	"0"	"10.0"	"16.1"	"340"	"NNW"	"-9999.0"	"-9999.0"	"17.5"	"-8.0"	"9.2"	"14.8"	
"20130129"	"Overcast"	"05"	"54"	"24.1"	"-4.4"	"0"	"0"	"-9999"	"-9999"	"89"	"cloudy"	"METAR KBOS 291054Z 33007KT 10SM SCT009 OVC014 M03/M04 A3009 RMK AO2 SLP189 T10281044"	"-9999.00"	"-9999.00"	"30.09"	"1018.9"	"0"	"0"	"27.0"	"-2.8"	"0"	"0"	"10.0"	"16.1"	"330"	"NNW"	"-9999.0"	"-9999.0"	"18.7"	"-7.4"	"8.1"	"13.0"	
"20130129"	"Overcast"	"06"	"54"	"23.0"	"-5.0"	"0"	"0"	"-9999"	"-9999"	"85"	"cloudy"	"METAR KBOS 291154Z 31006KT 10SM OVC010 M03/M05 A3012 RMK AO2 SLP199 60001 70018 T10281050 11011 21028 53016"	"-9999.00"	"-9999.00"	"30.12"	"1019.9"	"0"	"0"	"27.0"	"-2.8"	"0"	"0"	"10.0"	"16.1"	"310"	"NW"	"-9999.0"	"-9999.0"	"19.5"	"-6.9"	"6.9"	"11.1"	
"20130129"	"Overcast"	"07"	"54"	"24.1"	"-4.4"	"0"	"0"	"-9999"	"-9999"	"89"	"cloudy"	"METAR KBOS 291254Z 32006KT 10SM OVC010 M03/M04 A3015 RMK AO2 SLP208 T10281044"	"-9999.00"	"-9999.00"	"30.15"	"1020.8"	"0"	"0"	"27.0"	"-2.8"	"0"	"0"	"10.0"	"16.1"	"320"	"NW"	"-9999.0"	"-9999.0"	"19.5"	"-6.9"	"6.9"	"11.1"	
"20130129"	"Overcast"	"08"	"54"	"24.1"	"-4.4"	"0"	"0"	"-9999"	"-9999"	"85"	"cloudy"	"METAR KBOS 291354Z 29006KT 10SM OVC010 M02/M04 A3017 RMK AO2 SLP215 T10221044"	"-9999.00"	"-9999.00"	"30.17"	"1021.5"	"0"	"0"	"28.0"	"-2.2"	"0"	"0"	"10.0"	"16.1"	"290"	"WNW"	"-9999.0"	"-9999.0"	"20.8"	"-6.2"	"6.9"	"11.1"	
"20130129"	"Overcast"	"09"	"54"	"24.1"	"-4.4"	"0"	"0"	"-9999"	"-9999"	"85"	"cloudy"	"METAR KBOS 291454Z 32005KT 9SM OVC014 M02/M04 A3017 RMK AO2 SLP216 T10221044 51017"	"-9999.00"	"-9999.00"	"30.17"	"1021.6"	"0"	"0"	"28.0"	"-2.2"	"0"	"0"	"9.0"	"14.5"	"320"	"NW"	"-9999.0"	"-9999.0"	"21.7"	"-5.7"	"5.8"	"9.3"	
"20130129"	"Overcast"	"10"	"05"	"24.8"	"-4.0"	"0"	"0"	"-9999"	"-9999"	"86"	"cloudy"	"SPECI KBOS 291505Z 32004KT 8SM OVC016 M02/M04 A3017 RMK AO2"	"-9999.00"	"-9999.00"	"30.17"	"1021.6"	"0"	"0"	"28.4"	"-2.0"	"0"	"0"	"8.0"	"12.9"	"320"	"NW"	"-9999.0"	"-9999.0"	"23.3"	"-4.9"	"4.6"	"7.4"	
"20130129"	"Overcast"	"10"	"54"	"26.1"	"-3.3"	"0"	"0"	"-9999"	"-9999"	"82"	"cloudy"	"METAR KBOS 291554Z 32003KT 8SM OVC016 M01/M03 A3019 RMK AO2 SLP222 T10061033"	"-9999.00"	"-9999.00"	"30.19"	"1022.2"	"0"	"0"	"30.9"	"-0.6"	"0"	"0"	"8.0"	"12.9"	"320"	"NW"	"-9999.0"	"-9999.0"	"27.5"	"-2.5"	"3.5"	"5.6"	
"20130129"	"Overcast"	"11"	"54"	"27.0"	"-2.8"	"0"	"0"	"-9999"	"-9999"	"82"	"cloudy"	"METAR KBOS 291654Z 36004KT 10SM OVC016 00/M03 A3019 RMK AO2 SLP221 T00001028"	"-9999.00"	"-9999.00"	"30.19"	"1022.1"	"0"	"0"	"32.0"	"0.0"	"0"	"0"	"10.0"	"16.1"	"360"	"North"	"-9999.0"	"-9999.0"	"27.5"	"-2.5"	"4.6"	"7.4"	
"20130129"	"Overcast"	"12"	"54"	"28.0"	"-2.2"	"0"	"0"	"-9999"	"-9999"	"82"	"cloudy"	"METAR KBOS 291754Z 33003KT 8SM OVC016 01/M02 A3017 RMK AO2 SLP217 T00061022 10006 21028 50001"	"-9999.00"	"-9999.00"	"30.17"	"1021.7"	"0"	"0"	"33.1"	"0.6"	"0"	"0"	"8.0"	"12.9"	"330"	"NNW"	"-9999.0"	"-9999.0"	"30.0"	"-1.1"	"3.5"	"5.6"	
"20130129"	"Overcast"	"13"	"54"	"28.0"	"-2.2"	"0"	"0"	"-9999"	"-9999"	"79"	"cloudy"	"METAR KBOS 291854Z 00000KT 8SM OVC014 01/M02 A3016 RMK AO2 SLP213 T00111022"	"-9999.00"	"-9999.00"	"30.16"	"1021.3"	"0"	"0"	"34.0"	"1.1"	"0"	"0"	"8.0"	"12.9"	"0"	"North"	"-9999.0"	"-9999.0"	"-999"	"-999"	"0.0"	"0.0"	
"20130129"	"Overcast"	"14"	"54"	"28.9"	"-1.7"	"0"	"0"	"-9999"	"-9999"	"85"	"cloudy"	"METAR KBOS 291954Z 00000KT 10SM OVC014 01/M02 A3018 RMK AO2 SLP219 T00061017"	"-9999.00"	"-9999.00"	"30.18"	"1021.9"	"0"	"0"	"33.1"	"0.6"	"0"	"0"	"10.0"	"16.1"	"0"	"North"	"-9999.0"	"-9999.0"	"-999"	"-999"	"0.0"	"0.0"	
"20130129"	"Overcast"	"15"	"54"	"28.0"	"-2.2"	"0"	"0"	"-9999"	"-9999"	"82"	"cloudy"	"METAR KBOS 292054Z 15003KT 8SM OVC014 01/M02 A3017 RMK AO2 SLP217 T00061022 53000 $"	"-9999.00"	"-9999.00"	"30.17"	"1021.7"	"0"	"0"	"33.1"	"0.6"	"0"	"0"	"8.0"	"12.9"	"150"	"SSE"	"-9999.0"	"-9999.0"	"30.0"	"-1.1"	"3.5"	"5.6"	
"20130129"	"Overcast"	"16"	"54"	"28.0"	"-2.2"	"0"	"0"	"-9999"	"-9999"	"82"	"cloudy"	"METAR KBOS 292154Z 23003KT 8SM OVC012 01/M02 A3019 RMK AO2 SLP221 T00061022"	"-9999.00"	"-9999.00"	"30.19"	"1022.1"	"0"	"0"	"33.1"	"0.6"	"0"	"0"	"8.0"	"12.9"	"230"	"SW"	"-9999.0"	"-9999.0"	"30.0"	"-1.1"	"3.5"	"5.6"	
"20130129"	"Overcast"	"17"	"54"	"28.9"	"-1.7"	"0"	"0"	"-9999"	"-9999"	"85"	"cloudy"	"METAR KBOS 292254Z 16003KT 9SM OVC012 01/M02 A3018 RMK AO2 SLP220 T00061017"	"-9999.00"	"-9999.00"	"30.18"	"1022.0"	"0"	"0"	"33.1"	"0.6"	"0"	"0"	"9.0"	"14.5"	"160"	"SSE"	"-9999.0"	"-9999.0"	"30.0"	"-1.1"	"3.5"	"5.6"	
"20130129"	"Overcast"	"18"	"54"	"28.9"	"-1.7"	"0"	"0"	"-9999"	"-9999"	"85"	"cloudy"	"METAR KBOS 292354Z 00000KT 7SM BKN010 BKN015 OVC026 01/M02 A3019 RMK AO2 SLP224 T00061017 10011 20000 52007"	"-9999.00"	"-9999.00"	"30.19"	"1022.4"	"0"	"0"	"33.1"	"0.6"	"0"	"0"	"7.0"	"11.3"	"0"	"North"	"-9999.0"	"-9999.0"	"-999"	"-999"	"0.0"	"0.0"	
"20130129"	"Overcast"	"19"	"27"	"28.4"	"-2.0"	"0"	"0"	"-9999"	"-9999"	"81"	"cloudy"	"SPECI KBOS 300027Z 12004KT 7SM BKN008 OVC015 01/M02 A3018 RMK AO2"	"-9999.00"	"-9999.00"	"30.18"	"1021.9"	"0"	"0"	"33.8"	"1.0"	"0"	"0"	"7.0"	"11.3"	"120"	"ESE"	"-9999.0"	"-9999.0"	"29.6"	"-1.4"	"4.6"	"7.4"	
"20130129"	"Overcast"	"19"	"54"	"30.0"	"-1.1"	"0"	"0"	"-9999"	"-9999"	"89"	"cloudy"	"METAR KBOS 300054Z 00000KT 7SM BKN008 OVC015 01/M01 A3019 RMK AO2 SLP223 T00061011"	"-9999.00"	"-9999.00"	"30.19"	"1022.3"	"0"	"0"	"33.1"	"0.6"	"0"	"0"	"7.0"	"11.3"	"0"	"North"	"-9999.0"	"-9999.0"	"-999"	"-999"	"0.0"	"0.0"	
"20130129"	"Overcast"	"20"	"54"	"30.9"	"-0.6"	"0"	"0"	"-9999"	"-9999"	"92"	"cloudy"	"METAR KBOS 300154Z 19003KT 5SM BR OVC008 01/M01 A3019 RMK AO2 SLP223 T00061006"	"-9999.00"	"-9999.00"	"30.19"	"1022.3"	"0"	"0"	"33.1"	"0.6"	"0"	"0"	"5.0"	"8.0"	"190"	"South"	"-9999.0"	"-9999.0"	"30.0"	"-1.1"	"3.5"	"5.6"	
"20130129"	"Light Rain"	"21"	"43"	"30.2"	"-1.0"	"0"	"0"	"-9999"	"-9999"	"87"	"rain"	"SPECI KBOS 300243Z 17005KT 2SM -RA BR OVC008 01/M01 A3018 RMK AO2 RAB33 PRESFR P0000"	"0.00"	"0.0"	"30.18"	"1021.9"	"1"	"0"	"33.8"	"1.0"	"0"	"0"	"2.0"	"3.2"	"170"	"South"	"-9999.0"	"-9999.0"	"28.6"	"-1.9"	"5.8"	"9.3"	
"20130129"	"Overcast"	"21"	"54"	"30.9"	"-0.6"	"0"	"0"	"-9999"	"-9999"	"92"	"cloudy"	"METAR KBOS 300254Z 15004KT 2SM BR OVC008 01/M01 A3018 RMK AO2 RAB33E45UPB45E53 SLP218 P0000 60000 T00061006 58006"	"0.00"	"0.0"	"30.18"	"1021.8"	"0"	"0"	"33.1"	"0.6"	"0"	"0"	"2.0"	"3.2"	"150"	"SSE"	"-9999.0"	"-9999.0"	"28.7"	"-1.8"	"4.6"	"7.4"	
"20130129"	"Light Drizzle"	"22"	"35"	"30.2"	"-1.0"	"0"	"0"	"-9999"	"-9999"	"87"	"rain"	"SPECI KBOS 300335Z COR 11003KT 2 1/2SM -DZ BR OVC006 01/M01 A3016 RMK AO2 P0000"	"0.00"	"0.0"	"30.16"	"1021.2"	"0"	"0"	"33.8"	"1.0"	"0"	"0"	"2.5"	"4.0"	"110"	"ESE"	"-9999.0"	"-9999.0"	"30.8"	"-0.7"	"3.5"	"5.6"	
"20130129"	"Overcast"	"22"	"54"	"30.9"	"-0.6"	"0"	"0"	"-9999"	"-9999"	"92"	"cloudy"	"METAR KBOS 300354Z 13004KT 2 1/2SM BR BKN006 OVC009 01/M01 A3016 RMK AO2 SLP212 P0000 T00061006"	"0.00"	"0.0"	"30.16"	"1021.2"	"0"	"0"	"33.1"	"0.6"	"0"	"0"	"2.5"	"4.0"	"130"	"SE"	"-9999.0"	"-9999.0"	"28.7"	"-1.8"	"4.6"	"7.4"	
"20130129"	"Overcast"	"23"	"54"	"30.9"	"-0.6"	"0"	"0"	"-9999"	"-9999"	"92"	"cloudy"	"METAR KBOS 300454Z 00000KT 2SM BR OVC008 01/M01 A3017 RMK AO2 SLP214 T00061006 400111028"	"-9999.00"	"-9999.00"	"30.17"	"1021.4"	"0"	"0"	"33.1"	"0.6"	"0"	"0"	"2.0"	"3.2"	"0"	"North"	"-9999.0"	"-9999.0"	"-999"	"-999"	"0.0"	"0.0"	
"20130128"	"Scattered Clouds"	"00"	"54"	"-0.9"	"-18.3"	"0"	"0"	"-9999"	"-9999"	"37"	"partlycloudy"	"METAR KBOS 280554Z 27008KT 10SM FEW140 SCT220 M06/M18 A3045 RMK AO2 SLP309 T10561183 11028 21056 58002"	"-9999.00"	"-9999.00"	"30.45"	"1030.9"	"0"	"0"	"21.9"	"-5.6"	"0"	"0"	"10.0"	"16.1"	"270"	"West"	"-9999.0"	"-9999.0"	"11.7"	"-11.3"	"9.2"	"14.8"	
"20130128"	"Clear"	"01"	"54"	"-0.0"	"-17.8"	"0"	"0"	"-9999"	"-9999"	"38"	"clear"	"METAR KBOS 280654Z 28008KT 10SM CLR M06/M18 A3045 RMK AO2 SLP311 T10561178"	"-9999.00"	"-9999.00"	"30.45"	"1031.1"	"0"	"0"	"21.9"	"-5.6"	"0"	"0"	"10.0"	"16.1"	"280"	"West"	"-9999.0"	"-9999.0"	"11.7"	"-11.3"	"9.2"	"14.8"	
"20130128"	"Scattered Clouds"	"02"	"54"	"-0.0"	"-17.8"	"0"	"0"	"-9999"	"-9999"	"38"	"partlycloudy"	"METAR KBOS 280754Z 28005KT 10SM SCT220 M06/M18 A3044 RMK AO2 SLP307 T10561178"	"-9999.00"	"-9999.00"	"30.44"	"1030.7"	"0"	"0"	"21.9"	"-5.6"	"0"	"0"	"10.0"	"16.1"	"280"	"West"	"-9999.0"	"-9999.0"	"14.5"	"-9.7"	"5.8"	"9.3"	
"20130128"	"Overcast"	"03"	"54"	"-0.0"	"-17.8"	"0"	"0"	"-9999"	"-9999"	"38"	"cloudy"	"METAR KBOS 280854Z 30008KT 10SM OVC065 M06/M18 A3043 RMK AO2 SLP303 T10561178 58005"	"-9999.00"	"-9999.00"	"30.43"	"1030.3"	"0"	"0"	"21.9"	"-5.6"	"0"	"0"	"10.0"	"16.1"	"300"	"WNW"	"-9999.0"	"-9999.0"	"11.7"	"-11.3"	"9.2"	"14.8"	
"20130128"	"Overcast"	"04"	"54"	"1.0"	"-17.2"	"0"	"0"	"-9999"	"-9999"	"40"	"cloudy"	"METAR KBOS 280954Z 29007KT 10SM OVC065 M06/M17 A3042 RMK AO2 SLP300 T10561172"	"-9999.00"	"-9999.00"	"30.42"	"1030.0"	"0"	"0"	"21.9"	"-5.6"	"0"	"0"	"10.0"	"16.1"	"290"	"WNW"	"-9999.0"	"-9999.0"	"12.5"	"-10.8"	"8.1"	"13.0"	
"20130128"	"Partly Cloudy"	"05"	"54"	"1.0"	"-17.2"	"0"	"0"	"-9999"	"-9999"	"39"	"partlycloudy"	"METAR KBOS 281054Z 00000KT 10SM FEW060 M05/M17 A3042 RMK AO2 SLP301 T10501172"	"-9999.00"	"-9999.00"	"30.42"	"1030.1"	"0"	"0"	"23.0"	"-5.0"	"0"	"0"	"10.0"	"16.1"	"0"	"North"	"-9999.0"	"-9999.0"	"-999"	"-999"	"0.0"	"0.0"	
"20130128"	"Mostly Cloudy"	"06"	"54"	"5.0"	"-15.0"	"0"	"0"	"-9999"	"-9999"	"50"	"mostlycloudy"	"METAR KBOS 281154Z 22004KT 10SM FEW065 SCT200 BKN250 M06/M15 A3041 RMK AO2 SLP298 T10611150 11050 21061 56005"	"-9999.00"	"-9999.00"	"30.41"	"1029.8"	"0"	"0"	"21.0"	"-6.1"	"0"	"0"	"10.0"	"16.1"	"220"	"SW"	"-9999.0"	"-9999.0"	"14.6"	"-9.6"	"4.6"	"7.4"	
"20130128"	"Overcast"	"07"	"54"	"3.9"	"-15.6"	"0"	"0"	"-9999"	"-9999"	"44"	"cloudy"	"METAR KBOS 281254Z 22004KT 10SM OVC090 M05/M16 A3042 RMK AO2 SLP299 T10501156"	"-9999.00"	"-9999.00"	"30.42"	"1029.9"	"0"	"0"	"23.0"	"-5.0"	"0"	"0"	"10.0"	"16.1"	"220"	"SW"	"-9999.0"	"-9999.0"	"17.0"	"-8.4"	"4.6"	"7.4"	
"20130128"	"Mostly Cloudy"	"08"	"54"	"3.9"	"-15.6"	"0"	"0"	"-9999"	"-9999"	"41"	"mostlycloudy"	"METAR KBOS 281354Z 23003KT 10SM FEW075 SCT090 BKN200 M04/M16 A3041 RMK AO2 SLP297 T10391156"	"-9999.00"	"-9999.00"	"30.41"	"1029.7"	"0"	"0"	"25.0"	"-3.9"	"0"	"0"	"10.0"	"16.1"	"230"	"SW"	"-9999.0"	"-9999.0"	"20.7"	"-6.3"	"3.5"	"5.6"	
"20130128"	"Overcast"	"09"	"54"	"-0.0"	"-17.8"	"0"	"0"	"-9999"	"-9999"	"30"	"cloudy"	"METAR KBOS 281454Z 21004KT 10SM OVC075 M02/M18 A3040 RMK AO2 SLP294 T10221178 58004"	"-9999.00"	"-9999.00"	"30.40"	"1029.4"	"0"	"0"	"28.0"	"-2.2"	"0"	"0"	"10.0"	"16.1"	"210"	"SSW"	"-9999.0"	"-9999.0"	"22.8"	"-5.1"	"4.6"	"7.4"	
"20130128"	"Overcast"	"10"	"54"	"5.0"	"-15.0"	"0"	"0"	"-9999"	"-9999"	"38"	"cloudy"	"METAR KBOS 281554Z 18006KT 10SM OVC070 M02/M15 A3038 RMK AO2 SLP285 T10221150"	"-9999.00"	"-9999.00"	"30.38"	"1028.5"	"0"	"0"	"28.0"	"-2.2"	"0"	"0"	"10.0"	"16.1"	"180"	"South"	"-9999.0"	"-9999.0"	"20.8"	"-6.2"	"6.9"	"11.1"	
"20130128"	"Overcast"	"11"	"54"	"1.0"	"-17.2"	"0"	"0"	"-9999"	"-9999"	"30"	"cloudy"	"METAR KBOS 281654Z 19004KT 10SM OVC060 M02/M17 A3034 RMK AO2 SLP272 T10171172"	"-9999.00"	"-9999.00"	"30.34"	"1027.2"	"0"	"0"	"28.9"	"-1.7"	"0"	"0"	"10.0"	"16.1"	"190"	"South"	"-9999.0"	"-9999.0"	"23.9"	"-4.5"	"4.6"	"7.4"	
"20130128"	"Overcast"	"12"	"54"	"5.0"	"-15.0"	"0"	"0"	"-9999"	"-9999"	"35"	"cloudy"	"METAR KBOS 281754Z 15003KT 10SM OVC070 M01/M15 A3029 RMK AO2 SLP257 T10111150 11011 21061 58037"	"-9999.00"	"-9999.00"	"30.29"	"1025.7"	"0"	"0"	"30.0"	"-1.1"	"0"	"0"	"10.0"	"16.1"	"150"	"SSE"	"-9999.0"	"-9999.0"	"26.5"	"-3.1"	"3.5"	"5.6"	
"20130128"	"Overcast"	"13"	"54"	"5.0"	"-15.0"	"0"	"0"	"-9999"	"-9999"	"33"	"cloudy"	"METAR KBOS 281854Z 23009KT 10SM BKN047 OVC055 M01/M15 A3024 RMK AO2 SLP239 T10061150"	"-9999.00"	"-9999.00"	"30.24"	"1023.9"	"0"	"0"	"30.9"	"-0.6"	"0"	"0"	"10.0"	"16.1"	"230"	"SW"	"-9999.0"	"-9999.0"	"22.2"	"-5.4"	"10.4"	"16.7"	
"20130128"	"Light Snow"	"14"	"47"	"14.0"	"-10.0"	"0"	"0"	"-9999"	"-9999"	"55"	"snow"	"SPECI KBOS 281947Z 22007KT 2 1/2SM -SN BKN036 OVC050 M02/M10 A3021 RMK AO2 SFC VIS 4 SNB42 P0000"	"0.00"	"0.0"	"30.21"	"1022.9"	"0"	"1"	"28.4"	"-2.0"	"0"	"0"	"2.5"	"4.0"	"220"	"SW"	"-9999.0"	"-9999.0"	"20.4"	"-6.4"	"8.1"	"13.0"	
"20130128"	"Light Snow"	"14"	"54"	"16.0"	"-8.9"	"0"	"0"	"-9999"	"-9999"	"61"	"snow"	"METAR KBOS 281954Z 23008KT 2 1/2SM -SN OVC032 M02/M09 A3021 RMK AO2 SFC VIS 3 SNB42 SLP230 P0000 T10221089"	"0.00"	"0.0"	"30.21"	"1023.0"	"0"	"1"	"28.0"	"-2.2"	"0"	"0"	"2.5"	"4.0"	"230"	"SW"	"-9999.0"	"-9999.0"	"19.3"	"-7.1"	"9.2"	"14.8"	
"20130128"	"Light Snow"	"15"	"07"	"17.6"	"-8.0"	"0"	"0"	"-9999"	"-9999"	"69"	"snow"	"SPECI KBOS 282007Z 20008KT 1 3/4SM -SN BKN027 OVC035 M03/M08 A3021 RMK AO2 TWR VIS 2 1/2 P0000"	"0.00"	"0.0"	"30.21"	"1022.9"	"0"	"1"	"26.6"	"-3.0"	"0"	"0"	"1.8"	"2.8"	"200"	"SSW"	"-9999.0"	"-9999.0"	"17.5"	"-8.0"	"9.2"	"14.8"	
"20130128"	"Snow"	"15"	"54"	"19.9"	"-6.7"	"0"	"0"	"-9999"	"-9999"	"78"	"snow"	"METAR KBOS 282054Z 18004KT 1/2SM R04R/3500V6000FT SN VV016 M03/M07 A3019 RMK AO2 TWR VIS 3/4 SLP222 P0001 60001 T10331067 56035"	"0.01"	"0.3"	"30.19"	"1022.2"	"0"	"1"	"26.1"	"-3.3"	"0"	"0"	"0.5"	"0.8"	"180"	"South"	"-9999.0"	"-9999.0"	"20.5"	"-6.4"	"4.6"	"7.4"	
"20130128"	"Light Snow"	"16"	"21"	"21.2"	"-6.0"	"0"	"0"	"-9999"	"-9999"	"80"	"snow"	"SPECI KBOS 282121Z 00000KT 1 1/2SM -SN FEW019 BKN031 OVC044 M03/M06 A3020 RMK AO2 P0002"	"0.02"	"0.5"	"30.20"	"1022.6"	"0"	"1"	"26.6"	"-3.0"	"0"	"0"	"1.5"	"2.4"	"0"	"North"	"-9999.0"	"-9999.0"	"-999"	"-999"	"0.0"	"0.0"	
"20130128"	"Light Snow"	"16"	"43"	"21.2"	"-6.0"	"0"	"0"	"-9999"	"-9999"	"80"	"snow"	"SPECI KBOS 282143Z 10003KT 1 1/2SM -SN FEW019 BKN029 OVC045 M03/M06 A3018 RMK AO2 P0003"	"0.03"	"0.8"	"30.18"	"1021.9"	"0"	"1"	"26.6"	"-3.0"	"0"	"0"	"1.5"	"2.4"	"100"	"East"	"-9999.0"	"-9999.0"	"22.6"	"-5.2"	"3.5"	"5.6"	
"20130128"	"Light Snow"	"16"	"54"	"21.0"	"-6.1"	"0"	"0"	"-9999"	"-9999"	"81"	"snow"	"METAR KBOS 282154Z 11006KT 1SM R04R/P6000FT -SN FEW016 OVC023 M03/M06 A3017 RMK AO2 PRESFR SLP214 P0003 T10331061"	"0.03"	"0.8"	"30.17"	"1021.4"	"0"	"1"	"26.1"	"-3.3"	"0"	"0"	"1.0"	"1.6"	"110"	"ESE"	"-9999.0"	"-9999.0"	"18.4"	"-7.5"	"6.9"	"11.1"	
"20130128"	"Light Snow"	"17"	"15"	"21.2"	"-6.0"	"0"	"0"	"-9999"	"-9999"	"80"	"snow"	"SPECI KBOS 282215Z 10006KT 1SM -SN BR FEW005 OVC015 M03/M06 A3015 RMK AO2 SFC VIS 1 1/4 P0002"	"0.02"	"0.5"	"30.15"	"1020.9"	"0"	"1"	"26.6"	"-3.0"	"0"	"0"	"1.0"	"1.6"	"100"	"East"	"-9999.0"	"-9999.0"	"19.1"	"-7.2"	"6.9"	"11.1"	
"20130128"	"Light Snow"	"17"	"40"	"23.0"	"-5.0"	"0"	"0"	"-9999"	"-9999"	"86"	"snow"	"SPECI KBOS 282240Z 11007KT 1SM R04R/6000VP6000FT -SN BR SCT007 OVC013 M03/M05 A3014 RMK AO2 P0004"	"0.04"	"1.0"	"30.14"	"1020.5"	"0"	"1"	"26.6"	"-3.0"	"0"	"0"	"1.0"	"1.6"	"110"	"ESE"	"-9999.0"	"-9999.0"	"18.2"	"-7.6"	"8.1"	"13.0"	
"20130128"	"Light Snow"	"17"	"54"	"23.0"	"-5.0"	"0"	"0"	"-9999"	"-9999"	"85"	"snow"	"METAR KBOS 282254Z 12008KT 1SM -SN BR SCT007 OVC014 M03/M05 A3012 RMK AO2 SFC VIS 2 1/2 SLP200 P0004 T10281050"	"0.04"	"1.0"	"30.12"	"1020.0"	"0"	"1"	"27.0"	"-2.8"	"0"	"0"	"1.0"	"1.6"	"120"	"ESE"	"-9999.0"	"-9999.0"	"18.0"	"-7.8"	"9.2"	"14.8"	
"20130128"	"Light Snow"	"18"	"06"	"24.8"	"-4.0"	"0"	"0"	"-9999"	"-9999"	"93"	"snow"	"SPECI KBOS 282306Z 12009KT 1SM -SN BR BKN007 OVC020 M03/M04 A3012 RMK AO2 SFC VIS 2 P0000"	"0.00"	"0.0"	"30.12"	"1019.9"	"0"	"1"	"26.6"	"-3.0"	"0"	"0"	"1.0"	"1.6"	"120"	"ESE"	"-9999.0"	"-9999.0"	"16.8"	"-8.4"	"10.4"	"16.7"	
"20130128"	"Light Snow"	"18"	"35"	"24.8"	"-4.0"	"0"	"0"	"-9999"	"-9999"	"93"	"snow"	"SPECI KBOS 282335Z 14010KT 4SM -SN BR SCT007 BKN022 OVC031 M03/M04 A3010 RMK AO2 P0001"	"0.01"	"0.3"	"30.10"	"1019.2"	"0"	"1"	"26.6"	"-3.0"	"0"	"0"	"4.0"	"6.4"	"140"	"SE"	"-9999.0"	"-9999.0"	"16.2"	"-8.8"	"11.5"	"18.5"	
"20130128"	"Light Snow"	"18"	"44"	"24.8"	"-4.0"	"0"	"0"	"-9999"	"-9999"	"86"	"snow"	"SPECI KBOS 282344Z 14009KT 6SM -SN BR SCT007 SCT025 OVC031 M02/M04 A3010 RMK AO2 CIG 025 E P0001"	"0.01"	"0.3"	"30.10"	"1019.2"	"0"	"1"	"28.4"	"-2.0"	"0"	"0"	"6.0"	"9.7"	"140"	"SE"	"-9999.0"	"-9999.0"	"19.1"	"-7.2"	"10.4"	"16.7"	
"20130128"	"Light Snow"	"18"	"54"	"25.0"	"-3.9"	"0"	"0"	"-9999"	"-9999"	"88"	"snow"	"METAR KBOS 282354Z 14009KT 6SM -SN BR SCT007 SCT025 OVC031 M02/M04 A3011 RMK AO2 SLP195 PCPN VRY LGT P0001 60009 T10221039 11006 21033 56028"	"0.01"	"0.3"	"30.11"	"1019.5"	"0"	"1"	"28.0"	"-2.2"	"0"	"0"	"6.0"	"9.7"	"140"	"SE"	"-9999.0"	"-9999.0"	"18.6"	"-7.4"	"10.4"	"16.7"	
"20130128"	"Light Snow"	"19"	"00"	"24.8"	"-4.0"	"0"	"0"	"-9999"	"-9999"	"86"	"snow"	"SPECI KBOS 290000Z 15007KT 5SM -SN BR SCT007 BKN017 OVC031 M02/M04 A3011 RMK AO2 P0000"	"0.00"	"0.0"	"30.11"	"1019.5"	"0"	"1"	"28.4"	"-2.0"	"0"	"0"	"5.0"	"8.0"	"150"	"SSE"	"-9999.0"	"-9999.0"	"20.4"	"-6.4"	"8.1"	"13.0"	
"20130128"	"Light Ice Pellets"	"19"	"54"	"26.1"	"-3.3"	"0"	"0"	"-9999"	"-9999"	"92"	"snow"	"METAR KBOS 290054Z 14003KT 7SM -PLSN SCT007 OVC015 M02/M03 A3009 RMK AO2 PLB48 SLP188 PCPN VRY LGT P0000 T10221033"	"0.00"	"0.0"	"30.09"	"1018.8"	"0"	"1"	"28.0"	"-2.2"	"0"	"0"	"7.0"	"11.3"	"140"	"SE"	"-9999.0"	"-9999.0"	"24.2"	"-4.3"	"3.5"	"5.6"	
"20130128"	"Light Snow"	"20"	"08"	"26.6"	"-3.0"	"0"	"0"	"-9999"	"-9999"	"93"	"snow"	"SPECI KBOS 290108Z 00000KT 8SM -SN BKN007 OVC015 M02/M03 A3009 RMK AO2 PLE08 PCPN VRY LGT P0001"	"0.01"	"0.3"	"30.09"	"1018.8"	"0"	"1"	"28.4"	"-2.0"	"0"	"0"	"8.0"	"12.9"	"0"	"North"	"-9999.0"	"-9999.0"	"-999"	"-999"	"0.0"	"0.0"	
"20130128"	"Light Freezing Drizzle"	"20"	"43"	"26.6"	"-3.0"	"0"	"0"	"-9999"	"-9999"	"93"	"snow"	"SPECI KBOS 290143Z 00000KT 2 1/2SM -FZDZSN OVC007 M02/M03 A3008 RMK AO2 PLE08FZDZB41 P0001"	"0.01"	"0.3"	"30.08"	"1018.5"	"0"	"1"	"28.4"	"-2.0"	"0"	"0"	"2.5"	"4.0"	"0"	"North"	"-9999.0"	"-9999.0"	"-999"	"-999"	"0.0"	"0.0"	
"20130128"	"Light Freezing Drizzle"	"20"	"54"	"26.1"	"-3.3"	"0"	"0"	"-9999"	"-9999"	"89"	"snow"	"METAR KBOS 290154Z 00000KT 2 1/2SM -FZDZSN OVC007 M02/M03 A3008 RMK AO2 SLP183 PLE08FZDZB41 P0001 T10171033"	"0.01"	"0.3"	"30.07"	"1018.3"	"0"	"1"	"28.9"	"-1.7"	"0"	"0"	"2.5"	"4.0"	"0"	"North"	"-9999.0"	"-9999.0"	"-999"	"-999"	"0.0"	"0.0"	
"20130128"	"Light Freezing Drizzle"	"21"	"08"	"26.6"	"-3.0"	"0"	"0"	"-9999"	"-9999"	"93"	"snow"	"SPECI KBOS 290208Z 00000KT 2 1/2SM -FZDZGSSN BKN009 OVC012 M02/M03 A3006 RMK AO2 GSB07 P0002"	"0.02"	"0.5"	"30.06"	"1017.8"	"0"	"1"	"28.4"	"-2.0"	"0"	"0"	"2.5"	"4.0"	"0"	"North"	"-9999.0"	"-9999.0"	"-999"	"-999"	"0.0"	"0.0"	
"20130128"	"Small Hail"	"21"	"27"	"26.6"	"-3.0"	"0"	"0"	"-9999"	"-9999"	"93"	"snow"	"SPECI KBOS 290227Z 12003KT 1 1/2SM GSSN BKN009 OVC016 M02/M03 A3004 RMK AO2 FZDZE27GSB07 P0004"	"0.04"	"1.0"	"30.04"	"1017.2"	"0"	"1"	"28.4"	"-2.0"	"0"	"0"	"1.5"	"2.4"	"120"	"ESE"	"-9999.0"	"-9999.0"	"24.6"	"-4.1"	"3.5"	"5.6"	
"20130128"	"Small Hail"	"21"	"34"	"26.6"	"-3.0"	"0"	"0"	"-9999"	"-9999"	"93"	"snow"	"SPECI KBOS 290234Z 00000KT 1 3/4SM GSSN FEW009 OVC020 M02/M03 A3004 RMK AO2 FZDZE27GSB07 P0005"	"0.05"	"1.3"	"30.04"	"1017.2"	"0"	"1"	"28.4"	"-2.0"	"0"	"0"	"1.8"	"2.8"	"0"	"North"	"-9999.0"	"-9999.0"	"-999"	"-999"	"0.0"	"0.0"	
"20130128"	"Light Snow"	"21"	"38"	"26.6"	"-3.0"	"0"	"0"	"-9999"	"-9999"	"93"	"snow"	"SPECI KBOS 290238Z 00000KT 2 1/2SM -SN BR SCT014 OVC020 M02/M03 A3004 RMK AO2 FZDZE27GSB07E38 P0005"	"0.05"	"1.3"	"30.04"	"1017.2"	"0"	"1"	"28.4"	"-2.0"	"0"	"0"	"2.5"	"4.0"	"0"	"North"	"-9999.0"	"-9999.0"	"-999"	"-999"	"0.0"	"0.0"	
"20130128"	"Light Snow"	"21"	"42"	"26.6"	"-3.0"	"0"	"0"	"-9999"	"-9999"	"93"	"snow"	"SPECI KBOS 290242Z 12003KT 4SM -SN BR BKN014 OVC020 M02/M03 A3004 RMK AO2 FZDZE27GSB07E38 P0005"	"0.05"	"1.3"	"30.04"	"1017.2"	"0"	"1"	"28.4"	"-2.0"	"0"	"0"	"4.0"	"6.4"	"120"	"ESE"	"-9999.0"	"-9999.0"	"24.6"	"-4.1"	"3.5"	"5.6"	
"20130128"	"Light Freezing Drizzle"	"21"	"54"	"27.0"	"-2.8"	"0"	"0"	"-9999"	"-9999"	"92"	"snow"	"METAR KBOS 290254Z 12003KT 5SM -FZDZSN BR BKN014 OVC020 M02/M03 A3004 RMK AO2 SLP170 FZDZE27B48GSB07E38 P0005 60006 T10171028 58024"	"0.05"	"1.3"	"30.04"	"1017.0"	"0"	"1"	"28.9"	"-1.7"	"0"	"0"	"5.0"	"8.0"	"120"	"ESE"	"-9999.0"	"-9999.0"	"25.2"	"-3.8"	"3.5"	"5.6"	
"20130128"	"Overcast"	"22"	"54"	"28.0"	"-2.2"	"0"	"0"	"-9999"	"-9999"	"92"	"cloudy"	"METAR KBOS 290354Z 00000KT 5SM BR BKN013 OVC020 M01/M02 A3003 RMK AO2 FZDZE49SNE19 SLP169 P0000 T10111022"	"0.00"	"0.0"	"30.03"	"1016.9"	"0"	"0"	"30.0"	"-1.1"	"0"	"0"	"5.0"	"8.0"	"0"	"North"	"-9999.0"	"-9999.0"	"-999"	"-999"	"0.0"	"0.0"	
"20130128"	"Light Freezing Rain"	"23"	"07"	"28.4"	"-2.0"	"0"	"0"	"-9999"	"-9999"	"93"	"sleet"	"SPECI KBOS 290407Z 00000KT 4SM -FZRA BR OVC007 M01/M02 A3003 RMK AO2 FZRAB06 P0000"	"0.00"	"0.0"	"30.03"	"1016.8"	"1"	"0"	"30.2"	"-1.0"	"0"	"0"	"4.0"	"6.4"	"0"	"North"	"-9999.0"	"-9999.0"	"-999"	"-999"	"0.0"	"0.0"	
"20130128"	"Light Snow"	"23"	"15"	"28.4"	"-2.0"	"0"	"0"	"-9999"	"-9999"	"93"	"snow"	"SPECI KBOS 290415Z 00000KT 3SM R04R/5500VP6000FT -SN BR BKN007 OVC013 M01/M02 A3003 RMK AO2 FZRAB06E09SNB09 P0001"	"0.01"	"0.3"	"30.03"	"1016.8"	"0"	"1"	"30.2"	"-1.0"	"0"	"0"	"3.0"	"4.8"	"0"	"North"	"-9999.0"	"-9999.0"	"-999"	"-999"	"0.0"	"0.0"	
"20130128"	"Light Snow"	"23"	"30"	"28.4"	"-2.0"	"0"	"0"	"-9999"	"-9999"	"93"	"snow"	"SPECI KBOS 290430Z 00000KT 2SM -SN BR BKN007 OVC015 M01/M02 A3003 RMK AO2 SFC VIS 2 1/2 FZRAB06E09SNB09 P0001"	"0.01"	"0.3"	"30.03"	"1016.8"	"0"	"1"	"30.2"	"-1.0"	"0"	"0"	"2.0"	"3.2"	"0"	"North"	"-9999.0"	"-9999.0"	"-999"	"-999"	"0.0"	"0.0"	
"20130128"	"Light Snow"	"23"	"54"	"28.9"	"-1.7"	"0"	"0"	"-9999"	"-9999"	"96"	"snow"	"METAR KBOS 290454Z 00000KT 3SM -SN BR BKN007 OVC015 M01/M02 A3002 RMK AO2 FZRAB06E09SNB09 SLP165 P0002 T10111017 410061061"	"0.02"	"0.5"	"30.02"	"1016.5"	"0"	"1"	"30.0"	"-1.1"	"0"	"0"	"3.0"	"4.8"	"0"	"North"	"-9999.0"	"-9999.0"	"-999"	"-999"	"0.0"	"0.0"	
"20130127"	"Clear"	"00"	"54"	"-0.9"	"-18.3"	"0"	"0"	"-9999"	"-9999"	"49"	"clear"	"METAR KBOS 270554Z 31010G20KT 10SM CLR M09/M18 A3024 RMK AO2 SLP238 T10941183 11067 21094 51012"	"-9999.00"	"-9999.00"	"30.24"	"1023.8"	"0"	"0"	"15.1"	"-9.4"	"0"	"0"	"10.0"	"16.1"	"310"	"NW"	"23.0"	"37.0"	"1.8"	"-16.8"	"11.5"	"18.5"	
"20130127"	"Clear"	"01"	"54"	"-0.0"	"-17.8"	"0"	"0"	"-9999"	"-9999"	"51"	"clear"	"METAR KBOS 270654Z 29010G19KT 10SM CLR M09/M18 A3026 RMK AO2 SLP247 T10941178"	"-9999.00"	"-9999.00"	"30.26"	"1024.7"	"0"	"0"	"15.1"	"-9.4"	"0"	"0"	"10.0"	"16.1"	"290"	"WNW"	"21.9"	"35.2"	"1.8"	"-16.8"	"11.5"	"18.5"	
"20130127"	"Clear"	"02"	"54"	"1.0"	"-17.2"	"0"	"0"	"-9999"	"-9999"	"54"	"clear"	"METAR KBOS 270754Z 30015G21KT 10SM CLR M09/M17 A3028 RMK AO2 SLP251 T10941172"	"-9999.00"	"-9999.00"	"30.27"	"1025.1"	"0"	"0"	"15.1"	"-9.4"	"0"	"0"	"10.0"	"16.1"	"300"	"WNW"	"24.2"	"38.9"	"-1.1"	"-18.4"	"17.3"	"27.8"	
"20130127"	"Clear"	"03"	"54"	"1.0"	"-17.2"	"0"	"0"	"-9999"	"-9999"	"54"	"clear"	"METAR KBOS 270854Z 29013G19KT 10SM CLR M09/M17 A3029 RMK AO2 SLP255 T10941172 51016"	"-9999.00"	"-9999.00"	"30.29"	"1025.5"	"0"	"0"	"15.1"	"-9.4"	"0"	"0"	"10.0"	"16.1"	"290"	"WNW"	"21.9"	"35.2"	"-0.1"	"-17.8"	"15.0"	"24.1"	
"20130127"	"Clear"	"04"	"54"	"1.0"	"-17.2"	"0"	"0"	"-9999"	"-9999"	"54"	"clear"	"METAR KBOS 270954Z 30012KT 10SM CLR M09/M17 A3030 RMK AO2 SLP258 T10941172"	"-9999.00"	"-9999.00"	"30.30"	"1025.8"	"0"	"0"	"15.1"	"-9.4"	"0"	"0"	"10.0"	"16.1"	"300"	"WNW"	"-9999.0"	"-9999.0"	"0.5"	"-17.5"	"13.8"	"22.2"	
"20130127"	"Partly Cloudy"	"05"	"54"	"1.0"	"-17.2"	"0"	"0"	"-9999"	"-9999"	"54"	"partlycloudy"	"METAR KBOS 271054Z COR 29013KT 10SM FEW028 M09/M17 A3031 RMK AO2 SLP261 T10941172"	"-9999.00"	"-9999.00"	"30.30"	"1026.1"	"0"	"0"	"15.1"	"-9.4"	"0"	"0"	"10.0"	"16.1"	"290"	"WNW"	"-9999.0"	"-9999.0"	"-0.1"	"-17.8"	"15.0"	"24.1"	
"20130127"	"Partly Cloudy"	"06"	"54"	"1.0"	"-17.2"	"0"	"0"	"-9999"	"-9999"	"56"	"partlycloudy"	"METAR KBOS 271154Z 28009KT 10SM FEW028 M10/M17 A3033 RMK AO2 SLP269 T11001172 11094 21100 53015"	"-9999.00"	"-9999.00"	"30.33"	"1026.9"	"0"	"0"	"14.0"	"-10.0"	"0"	"0"	"10.0"	"16.1"	"280"	"West"	"-9999.0"	"-9999.0"	"1.2"	"-17.1"	"10.4"	"16.7"	
"20130127"	"Partly Cloudy"	"07"	"54"	"-0.0"	"-17.8"	"0"	"0"	"-9999"	"-9999"	"51"	"partlycloudy"	"METAR KBOS 271254Z 30014G25KT 10SM FEW035 M09/M18 A3035 RMK AO2 SLP275 T10941178"	"-9999.00"	"-9999.00"	"30.35"	"1027.5"	"0"	"0"	"15.1"	"-9.4"	"0"	"0"	"10.0"	"16.1"	"300"	"WNW"	"28.8"	"46.3"	"-0.6"	"-18.1"	"16.1"	"25.9"	
"20130127"	"Partly Cloudy"	"08"	"54"	"-0.9"	"-18.3"	"0"	"0"	"-9999"	"-9999"	"44"	"partlycloudy"	"METAR KBOS 271354Z 30014G22KT 10SM FEW042 M08/M18 A3037 RMK AO2 SLP283 T10781183"	"-9999.00"	"-9999.00"	"30.37"	"1028.3"	"0"	"0"	"18.0"	"-7.8"	"0"	"0"	"10.0"	"16.1"	"300"	"WNW"	"25.3"	"40.7"	"3.1"	"-16.0"	"16.1"	"25.9"	
"20130127"	"Partly Cloudy"	"09"	"54"	"-2.9"	"-19.4"	"0"	"0"	"-9999"	"-9999"	"35"	"partlycloudy"	"METAR KBOS 271454Z 31020G24KT 10SM FEW049 M06/M19 A3039 RMK AO2 SLP290 T10611194 53020"	"-9999.00"	"-9999.00"	"30.39"	"1029.0"	"0"	"0"	"21.0"	"-6.1"	"0"	"0"	"10.0"	"16.1"	"310"	"NW"	"27.6"	"44.4"	"4.6"	"-15.2"	"23.0"	"37.0"	
"20130127"	"Partly Cloudy"	"10"	"54"	"-2.0"	"-18.9"	"0"	"0"	"-9999"	"-9999"	"32"	"partlycloudy"	"METAR KBOS 271554Z 32015G21KT 10SM FEW050 M04/M19 A3039 RMK AO2 PK WND 31031/1505 SLP290 T10441189"	"-9999.00"	"-9999.00"	"30.39"	"1029.0"	"0"	"0"	"24.1"	"-4.4"	"0"	"0"	"10.0"	"16.1"	"320"	"NW"	"24.2"	"38.9"	"10.6"	"-11.9"	"17.3"	"27.8"	
"20130127"	"Partly Cloudy"	"11"	"54"	"-0.9"	"-18.3"	"0"	"0"	"-9999"	"-9999"	"30"	"partlycloudy"	"METAR KBOS 271654Z 31013G19KT 10SM FEW055 M03/M18 A3039 RMK AO2 SLP289 T10281183"	"-9999.00"	"-9999.00"	"30.39"	"1028.9"	"0"	"0"	"27.0"	"-2.8"	"0"	"0"	"10.0"	"16.1"	"310"	"NW"	"21.9"	"35.2"	"15.2"	"-9.4"	"15.0"	"24.1"	
"20130127"	"Partly Cloudy"	"12"	"54"	"-2.0"	"-18.9"	"0"	"0"	"-9999"	"-9999"	"27"	"partlycloudy"	"METAR KBOS 271754Z 30014G23KT 10SM FEW055 M02/M19 A3038 RMK AO2 SLP286 T10221189 11017 21100 58004"	"-9999.00"	"-9999.00"	"30.38"	"1028.6"	"0"	"0"	"28.0"	"-2.2"	"0"	"0"	"10.0"	"16.1"	"300"	"WNW"	"26.5"	"42.6"	"16.1"	"-8.8"	"16.1"	"25.9"	
"20130127"	"Partly Cloudy"	"13"	"54"	"-2.0"	"-18.9"	"0"	"0"	"-9999"	"-9999"	"26"	"partlycloudy"	"METAR KBOS 271854Z 31013G18KT 10SM FEW060 M02/M19 A3037 RMK AO2 PK WND 32026/1808 SLP283 T10171189"	"-9999.00"	"-9999.00"	"30.37"	"1028.3"	"0"	"0"	"28.9"	"-1.7"	"0"	"0"	"10.0"	"16.1"	"310"	"NW"	"20.7"	"33.3"	"17.7"	"-7.9"	"15.0"	"24.1"	
"20130127"	"Clear"	"14"	"54"	"-2.9"	"-19.4"	"0"	"0"	"-9999"	"-9999"	"23"	"clear"	"METAR KBOS 271954Z 30009G17KT 10SM CLR M01/M19 A3037 RMK AO2 SLP283 T10061194"	"-9999.00"	"-9999.00"	"30.37"	"1028.3"	"0"	"0"	"30.9"	"-0.6"	"0"	"0"	"10.0"	"16.1"	"300"	"WNW"	"19.6"	"31.5"	"22.2"	"-5.4"	"10.4"	"16.7"	
"20130127"	"Clear"	"15"	"54"	"-2.9"	"-19.4"	"0"	"0"	"-9999"	"-9999"	"24"	"clear"	"METAR KBOS 272054Z 30013KT 10SM CLR M01/M19 A3037 RMK AO2 SLP283 T10111194 55002"	"-9999.00"	"-9999.00"	"30.37"	"1028.3"	"0"	"0"	"30.0"	"-1.1"	"0"	"0"	"10.0"	"16.1"	"300"	"WNW"	"-9999.0"	"-9999.0"	"19.1"	"-7.2"	"15.0"	"24.1"	
"20130127"	"Partly Cloudy"	"16"	"54"	"-2.9"	"-19.4"	"0"	"0"	"-9999"	"-9999"	"25"	"partlycloudy"	"METAR KBOS 272154Z 30011KT 10SM FEW220 M02/M19 A3040 RMK AO2 SLP292 T10171194"	"-9999.00"	"-9999.00"	"30.40"	"1029.2"	"0"	"0"	"28.9"	"-1.7"	"0"	"0"	"10.0"	"16.1"	"300"	"WNW"	"-9999.0"	"-9999.0"	"18.6"	"-7.4"	"12.7"	"20.4"	
"20130127"	"Partly Cloudy"	"17"	"54"	"-2.9"	"-19.4"	"0"	"0"	"-9999"	"-9999"	"26"	"partlycloudy"	"METAR KBOS 272254Z 29012G17KT 10SM FEW250 M02/M19 A3041 RMK AO2 SLP297 T10221194"	"-9999.00"	"-9999.00"	"30.41"	"1029.7"	"0"	"0"	"28.0"	"-2.2"	"0"	"0"	"10.0"	"16.1"	"290"	"WNW"	"19.6"	"31.5"	"17.0"	"-8.3"	"13.8"	"22.2"	
"20130127"	"Partly Cloudy"	"18"	"54"	"-6.0"	"-21.1"	"0"	"0"	"-9999"	"-9999"	"24"	"partlycloudy"	"METAR KBOS 272354Z 30013G19KT 10SM FEW220 M03/M21 A3043 RMK AO2 SLP302 T10281211 10000 21028 51019"	"-9999.00"	"-9999.00"	"30.43"	"1030.2"	"0"	"0"	"27.0"	"-2.8"	"0"	"0"	"10.0"	"16.1"	"300"	"WNW"	"21.9"	"35.2"	"15.2"	"-9.4"	"15.0"	"24.1"	
"20130127"	"Partly Cloudy"	"19"	"54"	"-7.1"	"-21.7"	"0"	"0"	"-9999"	"-9999"	"23"	"partlycloudy"	"METAR KBOS 280054Z 32008G18KT 10SM FEW220 M03/M22 A3044 RMK AO2 SLP307 T10331217"	"-9999.00"	"-9999.00"	"30.44"	"1030.7"	"0"	"0"	"26.1"	"-3.3"	"0"	"0"	"10.0"	"16.1"	"320"	"NW"	"20.7"	"33.3"	"16.8"	"-8.4"	"9.2"	"14.8"	
"20130127"	"Partly Cloudy"	"20"	"54"	"-4.0"	"-20.0"	"0"	"0"	"-9999"	"-9999"	"28"	"partlycloudy"	"METAR KBOS 280154Z 30010KT 10SM FEW220 M04/M20 A3044 RMK AO2 SLP307 T10391200"	"-9999.00"	"-9999.00"	"30.44"	"1030.7"	"0"	"0"	"25.0"	"-3.9"	"0"	"0"	"10.0"	"16.1"	"300"	"WNW"	"-9999.0"	"-9999.0"	"14.2"	"-9.9"	"11.5"	"18.5"	
"20130127"	"Partly Cloudy"	"21"	"54"	"-4.0"	"-20.0"	"0"	"0"	"-9999"	"-9999"	"29"	"partlycloudy"	"METAR KBOS 280254Z 29009KT 10SM FEW220 M04/M20 A3045 RMK AO2 SLP311 T10441200 51008"	"-9999.00"	"-9999.00"	"30.45"	"1031.1"	"0"	"0"	"24.1"	"-4.4"	"0"	"0"	"10.0"	"16.1"	"290"	"WNW"	"-9999.0"	"-9999.0"	"13.7"	"-10.2"	"10.4"	"16.7"	
"20130127"	"Partly Cloudy"	"22"	"54"	"-2.0"	"-18.9"	"0"	"0"	"-9999"	"-9999"	"34"	"partlycloudy"	"METAR KBOS 280354Z 29009KT 10SM FEW220 M05/M19 A3046 RMK AO2 SLP314 T10501189"	"-9999.00"	"-9999.00"	"30.46"	"1031.4"	"0"	"0"	"23.0"	"-5.0"	"0"	"0"	"10.0"	"16.1"	"290"	"WNW"	"-9999.0"	"-9999.0"	"12.4"	"-10.9"	"10.4"	"16.7"	
"20130127"	"Scattered Clouds"	"23"	"54"	"-0.9"	"-18.3"	"0"	"0"	"-9999"	"-9999"	"37"	"partlycloudy"	"METAR KBOS 280454Z 29008KT 10SM FEW140 SCT220 M06/M18 A3046 RMK AO2 SLP313 T10561183 400001100"	"-9999.00"	"-9999.00"	"30.46"	"1031.3"	"0"	"0"	"21.9"	"-5.6"	"0"	"0"	"10.0"	"16.1"	"290"	"WNW"	"-9999.0"	"-9999.0"	"11.7"	"-11.3"	"9.2"	"14.8"	
"20130126"	"Light Snow"	"00"	"05"	"10.4"	"-12.0"	"0"	"0"	"-9999"	"-9999"	"73"	"snow"	"SPECI KBOS 260505Z 33006KT 1 3/4SM -SN OVC017 M08/M12 A3007 RMK AO2 P0000"	"0.00"	"0.0"	"30.07"	"1018.2"	"0"	"1"	"17.6"	"-8.0"	"0"	"0"	"1.8"	"2.8"	"330"	"NNW"	"-9999.0"	"-9999.0"	"8.2"	"-13.2"	"6.9"	"11.1"	
"20130126"	"Light Snow"	"00"	"25"	"10.4"	"-12.0"	"0"	"0"	"-9999"	"-9999"	"73"	"snow"	"SPECI KBOS 260525Z 34005KT 3SM -SN OVC023 M08/M12 A3006 RMK AO2 P0001"	"0.01"	"0.3"	"30.06"	"1017.8"	"0"	"1"	"17.6"	"-8.0"	"0"	"0"	"3.0"	"4.8"	"340"	"NNW"	"-9999.0"	"-9999.0"	"9.3"	"-12.6"	"5.8"	"9.3"	
"20130126"	"Light Snow"	"00"	"41"	"12.2"	"-11.0"	"0"	"0"	"-9999"	"-9999"	"79"	"snow"	"SPECI KBOS 260541Z 32006KT 6SM -SN OVC033 M08/M11 A3006 RMK AO2 P0001"	"0.01"	"0.3"	"30.06"	"1017.8"	"0"	"1"	"17.6"	"-8.0"	"0"	"0"	"6.0"	"9.7"	"320"	"NW"	"-9999.0"	"-9999.0"	"8.2"	"-13.2"	"6.9"	"11.1"	
"20130126"	"Light Snow"	"00"	"54"	"12.0"	"-11.1"	"0"	"0"	"-9999"	"-9999"	"81"	"snow"	"METAR KBOS 260554Z 33005KT 4SM -SN OVC039 M08/M11 A3006 RMK AO2 SLP177 P0001 60002 T10831111 11050 21083 58012"	"0.01"	"0.3"	"30.06"	"1017.7"	"0"	"1"	"17.1"	"-8.3"	"0"	"0"	"4.0"	"6.4"	"330"	"NNW"	"-9999.0"	"-9999.0"	"8.7"	"-12.9"	"5.8"	"9.3"	
"20130126"	"Light Snow"	"01"	"54"	"10.9"	"-11.7"	"0"	"0"	"-9999"	"-9999"	"77"	"snow"	"METAR KBOS 260654Z 33005KT 7SM -SN SCT015 OVC037 M08/M12 A3004 RMK AO2 SLP172 P0000 T10831117"	"0.00"	"0.0"	"30.04"	"1017.2"	"0"	"1"	"17.1"	"-8.3"	"0"	"0"	"7.0"	"11.3"	"330"	"NNW"	"-9999.0"	"-9999.0"	"8.7"	"-12.9"	"5.8"	"9.3"	
"20130126"	"Mostly Cloudy"	"02"	"54"	"9.0"	"-12.8"	"0"	"0"	"-9999"	"-9999"	"77"	"mostlycloudy"	"METAR KBOS 260754Z 35007KT 10SM FEW120 BKN180 M09/M13 A3002 RMK AO2 SNE03 SLP166 P0000 T10941128"	"0.00"	"0.0"	"30.02"	"1016.6"	"0"	"0"	"15.1"	"-9.4"	"0"	"0"	"10.0"	"16.1"	"350"	"North"	"-9999.0"	"-9999.0"	"4.2"	"-15.4"	"8.1"	"13.0"	
"20130126"	"Mostly Cloudy"	"03"	"54"	"8.1"	"-13.3"	"0"	"0"	"-9999"	"-9999"	"77"	"mostlycloudy"	"METAR KBOS 260854Z 33007KT 10SM FEW120 BKN180 M10/M13 A3002 RMK AO2 SLP163 60000 T11001133 56014"	"-9999.00"	"-9999.00"	"30.01"	"1016.3"	"0"	"0"	"14.0"	"-10.0"	"0"	"0"	"10.0"	"16.1"	"330"	"NNW"	"-9999.0"	"-9999.0"	"2.9"	"-16.2"	"8.1"	"13.0"	
"20130126"	"Mostly Cloudy"	"04"	"54"	"7.0"	"-13.9"	"0"	"0"	"-9999"	"-9999"	"74"	"mostlycloudy"	"METAR KBOS 260954Z 32007KT 10SM BKN160 M10/M14 A3001 RMK AO2 SLP162 T11001139"	"-9999.00"	"-9999.00"	"30.01"	"1016.2"	"0"	"0"	"14.0"	"-10.0"	"0"	"0"	"10.0"	"16.1"	"320"	"NW"	"-9999.0"	"-9999.0"	"2.9"	"-16.2"	"8.1"	"13.0"	
"20130126"	"Clear"	"05"	"54"	"7.0"	"-13.9"	"0"	"0"	"-9999"	"-9999"	"77"	"clear"	"METAR KBOS 261054Z 32006KT 10SM CLR M11/M14 A3003 RMK AO2 SLP168 T11061139"	"-9999.00"	"-9999.00"	"30.03"	"1016.8"	"0"	"0"	"12.9"	"-10.6"	"0"	"0"	"10.0"	"16.1"	"320"	"NW"	"-9999.0"	"-9999.0"	"2.6"	"-16.3"	"6.9"	"11.1"	
"20130126"	"Clear"	"06"	"54"	"6.1"	"-14.4"	"0"	"0"	"-9999"	"-9999"	"74"	"clear"	"METAR KBOS 261154Z 33009KT 10SM CLR M11/M14 A3004 RMK AO2 SLP172 60000 70002 T11061144 11083 21106 53008"	"-9999.00"	"-9999.00"	"30.04"	"1017.2"	"0"	"0"	"12.9"	"-10.6"	"0"	"0"	"10.0"	"16.1"	"330"	"NNW"	"-9999.0"	"-9999.0"	"-0.2"	"-17.9"	"10.4"	"16.7"	
"20130126"	"Clear"	"07"	"54"	"5.0"	"-15.0"	"0"	"0"	"-9999"	"-9999"	"71"	"clear"	"METAR KBOS 261254Z 33009KT 10SM CLR M11/M15 A3005 RMK AO2 SLP174 T11061150"	"-9999.00"	"-9999.00"	"30.05"	"1017.4"	"0"	"0"	"12.9"	"-10.6"	"0"	"0"	"10.0"	"16.1"	"330"	"NNW"	"-9999.0"	"-9999.0"	"-0.2"	"-17.9"	"10.4"	"16.7"	
"20130126"	"Clear"	"08"	"54"	"5.0"	"-15.0"	"0"	"0"	"-9999"	"-9999"	"64"	"clear"	"METAR KBOS 261354Z 32012G16KT 10SM CLR M09/M15 A3006 RMK AO2 SLP179 T10941150"	"-9999.00"	"-9999.00"	"30.06"	"1017.9"	"0"	"0"	"15.1"	"-9.4"	"0"	"0"	"10.0"	"16.1"	"320"	"NW"	"18.4"	"29.6"	"0.5"	"-17.5"	"13.8"	"22.2"	
"20130126"	"Clear"	"09"	"54"	"3.9"	"-15.6"	"0"	"0"	"-9999"	"-9999"	"56"	"clear"	"METAR KBOS 261454Z 33011KT 10SM CLR M08/M16 A3007 RMK AO2 SLP183 T10831156 53011"	"-9999.00"	"-9999.00"	"30.07"	"1018.3"	"0"	"0"	"17.1"	"-8.3"	"0"	"0"	"10.0"	"16.1"	"330"	"NNW"	"-9999.0"	"-9999.0"	"3.6"	"-15.8"	"12.7"	"20.4"	
"20130126"	"Clear"	"10"	"54"	"3.9"	"-15.6"	"0"	"0"	"-9999"	"-9999"	"52"	"clear"	"METAR KBOS 261554Z 34009KT 10SM CLR M07/M16 A3006 RMK AO2 SLP178 T10721156"	"-9999.00"	"-9999.00"	"30.06"	"1017.8"	"0"	"0"	"19.0"	"-7.2"	"0"	"0"	"10.0"	"16.1"	"340"	"NNW"	"-9999.0"	"-9999.0"	"7.5"	"-13.6"	"10.4"	"16.7"	
"20130126"	"Partly Cloudy"	"11"	"54"	"5.0"	"-15.0"	"0"	"0"	"-9999"	"-9999"	"50"	"partlycloudy"	"METAR KBOS 261654Z 32009G16KT 10SM FEW140 M06/M15 A3004 RMK AO2 SLP172 T10611150"	"-9999.00"	"-9999.00"	"30.04"	"1017.2"	"0"	"0"	"21.0"	"-6.1"	"0"	"0"	"10.0"	"16.1"	"320"	"NW"	"18.4"	"29.6"	"9.9"	"-12.3"	"10.4"	"16.7"	
"20130126"	"Scattered Clouds"	"12"	"54"	"3.9"	"-15.6"	"0"	"0"	"-9999"	"-9999"	"44"	"partlycloudy"	"METAR KBOS 261754Z 30008KT 10SM FEW045 SCT160 SCT260 M05/M16 A3003 RMK AO2 SLP168 T10501156 11050 21106 56014"	"-9999.00"	"-9999.00"	"30.03"	"1016.8"	"0"	"0"	"23.0"	"-5.0"	"0"	"0"	"10.0"	"16.1"	"300"	"WNW"	"-9999.0"	"-9999.0"	"13.1"	"-10.5"	"9.2"	"14.8"	
"20130126"	"Mostly Cloudy"	"13"	"54"	"-0.0"	"-17.8"	"0"	"0"	"-9999"	"-9999"	"34"	"mostlycloudy"	"METAR KBOS 261854Z 29009G16KT 10SM FEW045 BKN300 M04/M18 A3003 RMK AO2 SLP167 T10391178"	"-9999.00"	"-9999.00"	"30.03"	"1016.7"	"0"	"0"	"25.0"	"-3.9"	"0"	"0"	"10.0"	"16.1"	"290"	"WNW"	"18.4"	"29.6"	"14.8"	"-9.5"	"10.4"	"16.7"	
"20130126"	"Mostly Cloudy"	"14"	"54"	"-5.1"	"-20.6"	"0"	"0"	"-9999"	"-9999"	"28"	"mostlycloudy"	"METAR KBOS 261954Z 33013G21KT 10SM FEW045 BKN300 M04/M21 A3004 RMK AO2 SLP173 T10441206"	"-9999.00"	"-9999.00"	"30.04"	"1017.3"	"0"	"0"	"24.1"	"-4.4"	"0"	"0"	"10.0"	"16.1"	"330"	"NNW"	"24.2"	"38.9"	"11.5"	"-11.4"	"15.0"	"24.1"	
"20130126"	"Scattered Clouds"	"15"	"54"	"-4.0"	"-20.0"	"0"	"0"	"-9999"	"-9999"	"29"	"partlycloudy"	"METAR KBOS 262054Z 30013G20KT 10SM FEW045 SCT130 SCT300 M04/M20 A3007 RMK AO2 SLP180 T10441200 53012"	"-9999.00"	"-9999.00"	"30.06"	"1018.0"	"0"	"0"	"24.1"	"-4.4"	"0"	"0"	"10.0"	"16.1"	"300"	"WNW"	"23.0"	"37.0"	"11.5"	"-11.4"	"15.0"	"24.1"	
"20130126"	"Mostly Cloudy"	"16"	"54"	"-7.1"	"-21.7"	"0"	"0"	"-9999"	"-9999"	"29"	"mostlycloudy"	"METAR KBOS 262154Z 31014G23KT 10SM SCT130 BKN300 M06/M22 A3010 RMK AO2 SLP192 T10611217"	"-9999.00"	"-9999.00"	"30.10"	"1019.2"	"0"	"0"	"21.0"	"-6.1"	"0"	"0"	"10.0"	"16.1"	"310"	"NW"	"26.5"	"42.6"	"7.1"	"-13.9"	"16.1"	"25.9"	
"20130126"	"Mostly Cloudy"	"17"	"54"	"-8.0"	"-22.2"	"0"	"0"	"-9999"	"-9999"	"28"	"mostlycloudy"	"METAR KBOS 262254Z 32012KT 10SM BKN120 BKN260 M06/M22 A3012 RMK AO2 SLP198 T10611222"	"-9999.00"	"-9999.00"	"30.12"	"1019.8"	"0"	"0"	"21.0"	"-6.1"	"0"	"0"	"10.0"	"16.1"	"320"	"NW"	"-9999.0"	"-9999.0"	"8.1"	"-13.3"	"13.8"	"22.2"	
"20130126"	"Overcast"	"18"	"54"	"-9.0"	"-22.8"	"0"	"0"	"-9999"	"-9999"	"27"	"cloudy"	"METAR KBOS 262354Z 33014G19KT 10SM OVC130 M07/M23 A3015 RMK AO2 SLP208 T10671228 11039 21067 51028"	"-9999.00"	"-9999.00"	"30.15"	"1020.8"	"0"	"0"	"19.9"	"-6.7"	"0"	"0"	"10.0"	"16.1"	"330"	"NNW"	"21.9"	"35.2"	"5.7"	"-14.6"	"16.1"	"25.9"	
"20130126"	"Mostly Cloudy"	"19"	"54"	"-9.0"	"-22.8"	"0"	"0"	"-9999"	"-9999"	"29"	"mostlycloudy"	"METAR KBOS 270054Z 32016G24KT 10SM BKN130 M07/M23 A3017 RMK AO2 PK WND 32026/0031 SLP216 T10721228"	"-9999.00"	"-9999.00"	"30.17"	"1021.6"	"0"	"0"	"19.0"	"-7.2"	"0"	"0"	"10.0"	"16.1"	"320"	"NW"	"27.6"	"44.4"	"3.6"	"-15.8"	"18.4"	"29.6"	
"20130126"	"Partly Cloudy"	"20"	"54"	"-6.0"	"-21.1"	"0"	"0"	"-9999"	"-9999"	"36"	"partlycloudy"	"METAR KBOS 270154Z 32018G22KT 10SM FEW130 M08/M21 A3018 RMK AO2 PK WND 31026/0117 SLP220 T10831211"	"-9999.00"	"-9999.00"	"30.18"	"1022.0"	"0"	"0"	"17.1"	"-8.3"	"0"	"0"	"10.0"	"16.1"	"320"	"NW"	"25.3"	"40.7"	"0.1"	"-17.7"	"20.7"	"33.3"	
"20130126"	"Clear"	"21"	"54"	"-4.0"	"-20.0"	"0"	"0"	"-9999"	"-9999"	"39"	"clear"	"METAR KBOS 270254Z 30010G24KT 10SM CLR M08/M20 A3020 RMK AO2 SLP226 T10831200 51019"	"-9999.00"	"-9999.00"	"30.20"	"1022.6"	"0"	"0"	"17.1"	"-8.3"	"0"	"0"	"10.0"	"16.1"	"300"	"WNW"	"27.6"	"44.4"	"4.3"	"-15.4"	"11.5"	"18.5"	
"20130126"	"Clear"	"22"	"54"	"-2.9"	"-19.4"	"0"	"0"	"-9999"	"-9999"	"43"	"clear"	"METAR KBOS 270354Z 29016G22KT 10SM CLR M09/M19 A3022 RMK AO2 SLP232 T10891194"	"-9999.00"	"-9999.00"	"30.22"	"1023.2"	"0"	"0"	"16.0"	"-8.9"	"0"	"0"	"10.0"	"16.1"	"290"	"WNW"	"25.3"	"40.7"	"-0.4"	"-18.0"	"18.4"	"29.6"	
"20130126"	"Clear"	"23"	"54"	"-2.0"	"-18.9"	"0"	"0"	"-9999"	"-9999"	"45"	"clear"	"METAR KBOS 270454Z 30011G20KT 10SM CLR M09/M19 A3023 RMK AO2 SLP236 T10891189 410391106"	"-9999.00"	"-9999.00"	"30.23"	"1023.6"	"0"	"0"	"16.0"	"-8.9"	"0"	"0"	"10.0"	"16.1"	"300"	"WNW"	"23.0"	"37.0"	"2.3"	"-16.5"	"12.7"	"20.4"	
"20130125"	"Clear"	"00"	"54"	"-11.9"	"-24.4"	"0"	"0"	"-9999"	"-9999"	"35"	"clear"	"METAR KBOS 250554Z 29020G25KT 10SM CLR M12/M24 A3023 RMK AO2 PK WND 31026/0524 SLP235 T11171244 11078 21117 51016"	"-9999.00"	"-9999.00"	"30.23"	"1023.5"	"0"	"0"	"10.9"	"-11.7"	"0"	"0"	"10.0"	"16.1"	"290"	"WNW"	"28.8"	"46.3"	"-8.8"	"-22.6"	"23.0"	"37.0"	
"20130125"	"Clear"	"01"	"54"	"-11.9"	"-24.4"	"0"	"0"	"-9999"	"-9999"	"35"	"clear"	"METAR KBOS 250654Z 30012G18KT 10SM CLR M12/M24 A3025 RMK AO2 PK WND 30026/0557 SLP242 T11171244"	"-9999.00"	"-9999.00"	"30.25"	"1024.2"	"0"	"0"	"10.9"	"-11.7"	"0"	"0"	"10.0"	"16.1"	"300"	"WNW"	"20.7"	"33.3"	"-4.7"	"-20.4"	"13.8"	"22.2"	
"20130125"	"Clear"	"02"	"54"	"-9.9"	"-23.3"	"0"	"0"	"-9999"	"-9999"	"39"	"clear"	"METAR KBOS 250754Z 30015G20KT 10SM CLR M12/M23 A3026 RMK AO2 SLP244 T11171233"	"-9999.00"	"-9999.00"	"30.25"	"1024.4"	"0"	"0"	"10.9"	"-11.7"	"0"	"0"	"10.0"	"16.1"	"300"	"WNW"	"23.0"	"37.0"	"-6.5"	"-21.4"	"17.3"	"27.8"	
"20130125"	"Clear"	"03"	"54"	"-9.9"	"-23.3"	"0"	"0"	"-9999"	"-9999"	"40"	"clear"	"METAR KBOS 250854Z 28008KT 10SM CLR M12/M23 A3026 RMK AO2 SLP246 T11221233 51011"	"-9999.00"	"-9999.00"	"30.26"	"1024.6"	"0"	"0"	"10.0"	"-12.2"	"0"	"0"	"10.0"	"16.1"	"280"	"West"	"-9999.0"	"-9999.0"	"-2.9"	"-19.4"	"9.2"	"14.8"	
"20130125"	"Clear"	"04"	"54"	"-9.9"	"-23.3"	"0"	"0"	"-9999"	"-9999"	"40"	"clear"	"METAR KBOS 250954Z 29011G15KT 10SM CLR M12/M23 A3027 RMK AO2 SLP248 T11221233"	"-9999.00"	"-9999.00"	"30.27"	"1024.8"	"0"	"0"	"10.0"	"-12.2"	"0"	"0"	"10.0"	"16.1"	"290"	"WNW"	"17.3"	"27.8"	"-5.2"	"-20.7"	"12.7"	"20.4"	
"20130125"	"Clear"	"05"	"54"	"-9.9"	"-23.3"	"0"	"0"	"-9999"	"-9999"	"40"	"clear"	"METAR KBOS 251054Z 29012KT 10SM CLR M12/M23 A3028 RMK AO2 SLP253 T11221233"	"-9999.00"	"-9999.00"	"30.28"	"1025.3"	"0"	"0"	"10.0"	"-12.2"	"0"	"0"	"10.0"	"16.1"	"290"	"WNW"	"-9999.0"	"-9999.0"	"-5.9"	"-21.0"	"13.8"	"22.2"	
"20130125"	"Scattered Clouds"	"06"	"54"	"-11.0"	"-23.9"	"0"	"0"	"-9999"	"-9999"	"38"	"partlycloudy"	"METAR KBOS 251154Z 29015KT 10SM FEW050 SCT250 M12/M24 A3028 RMK AO2 SLP251 T11221239 11117 21122 50006"	"-9999.00"	"-9999.00"	"30.27"	"1025.1"	"0"	"0"	"10.0"	"-12.2"	"0"	"0"	"10.0"	"16.1"	"290"	"WNW"	"-9999.0"	"-9999.0"	"-7.6"	"-22.0"	"17.3"	"27.8"	
"20130125"	"Mostly Cloudy"	"07"	"54"	"-9.9"	"-23.3"	"0"	"0"	"-9999"	"-9999"	"40"	"mostlycloudy"	"METAR KBOS 251254Z 29014KT 10SM FEW050 BKN250 M12/M23 A3028 RMK AO2 SLP252 T11221233"	"-9999.00"	"-9999.00"	"30.28"	"1025.2"	"0"	"0"	"10.0"	"-12.2"	"0"	"0"	"10.0"	"16.1"	"290"	"WNW"	"-9999.0"	"-9999.0"	"-7.1"	"-21.7"	"16.1"	"25.9"	
"20130125"	"Mostly Cloudy"	"08"	"54"	"-9.9"	"-23.3"	"0"	"0"	"-9999"	"-9999"	"34"	"mostlycloudy"	"METAR KBOS 251354Z 29015G24KT 10SM BKN250 M10/M23 A3029 RMK AO2 SLP256 FEW CU DSNT E T11001233"	"-9999.00"	"-9999.00"	"30.29"	"1025.6"	"0"	"0"	"14.0"	"-10.0"	"0"	"0"	"10.0"	"16.1"	"290"	"WNW"	"27.6"	"44.4"	"-2.5"	"-19.2"	"17.3"	"27.8"	
"20130125"	"Mostly Cloudy"	"09"	"54"	"-11.9"	"-24.4"	"0"	"0"	"-9999"	"-9999"	"28"	"mostlycloudy"	"METAR KBOS 251454Z 30015G20KT 10SM BKN250 M09/M24 A3030 RMK AO2 SLP260 T10891244 53009"	"-9999.00"	"-9999.00"	"30.30"	"1026.0"	"0"	"0"	"16.0"	"-8.9"	"0"	"0"	"10.0"	"16.1"	"300"	"WNW"	"23.0"	"37.0"	"0.1"	"-17.7"	"17.3"	"27.8"	
"20130125"	"Mostly Cloudy"	"10"	"54"	"-11.0"	"-23.9"	"0"	"0"	"-9999"	"-9999"	"26"	"mostlycloudy"	"METAR KBOS 251554Z 28015KT 10SM BKN250 M07/M24 A3029 RMK AO2 SLP255 T10721239"	"-9999.00"	"-9999.00"	"30.29"	"1025.5"	"0"	"0"	"19.0"	"-7.2"	"0"	"0"	"10.0"	"16.1"	"280"	"West"	"-9999.0"	"-9999.0"	"4.0"	"-15.5"	"17.3"	"27.8"	
"20130125"	"Mostly Cloudy"	"11"	"54"	"-11.9"	"-24.4"	"0"	"0"	"-9999"	"-9999"	"24"	"mostlycloudy"	"METAR KBOS 251654Z 29012KT 10SM BKN250 M07/M24 A3025 RMK AO2 SLP242 T10671244"	"-9999.00"	"-9999.00"	"30.25"	"1024.2"	"0"	"0"	"19.9"	"-6.7"	"0"	"0"	"10.0"	"16.1"	"290"	"WNW"	"-9999.0"	"-9999.0"	"6.7"	"-14.1"	"13.8"	"22.2"	
"20130125"	"Mostly Cloudy"	"12"	"54"	"-9.9"	"-23.3"	"0"	"0"	"-9999"	"-9999"	"24"	"mostlycloudy"	"METAR KBOS 251754Z 26014G20KT 10SM BKN250 M06/M23 A3022 RMK AO2 SLP232 T10561233 11056 21122 58028"	"-9999.00"	"-9999.00"	"30.22"	"1023.2"	"0"	"0"	"21.9"	"-5.6"	"0"	"0"	"10.0"	"16.1"	"260"	"West"	"23.0"	"37.0"	"8.2"	"-13.2"	"16.1"	"25.9"	
"20130125"	"Mostly Cloudy"	"13"	"54"	"-11.0"	"-23.9"	"0"	"0"	"-9999"	"-9999"	"22"	"mostlycloudy"	"METAR KBOS 251854Z 29010KT 10SM BKN250 M05/M24 A3019 RMK AO2 SLP221 T10501239"	"-9999.00"	"-9999.00"	"30.19"	"1022.1"	"0"	"0"	"23.0"	"-5.0"	"0"	"0"	"10.0"	"16.1"	"290"	"WNW"	"-9999.0"	"-9999.0"	"11.7"	"-11.3"	"11.5"	"18.5"	
"20130125"	"Mostly Cloudy"	"14"	"54"	"-11.0"	"-23.9"	"0"	"0"	"-9999"	"-9999"	"22"	"mostlycloudy"	"METAR KBOS 251954Z 28010KT 10SM SCT170 BKN280 M05/M24 A3016 RMK AO2 SLP213 T10501239"	"-9999.00"	"-9999.00"	"30.16"	"1021.3"	"0"	"0"	"23.0"	"-5.0"	"0"	"0"	"10.0"	"16.1"	"280"	"West"	"-9999.0"	"-9999.0"	"11.7"	"-11.3"	"11.5"	"18.5"	
"20130125"	"Mostly Cloudy"	"15"	"54"	"-9.9"	"-23.3"	"0"	"0"	"-9999"	"-9999"	"22"	"mostlycloudy"	"METAR KBOS 252054Z 28010KT 10SM SCT170 BKN280 M04/M23 A3016 RMK AO2 SLP212 T10441233 56021"	"-9999.00"	"-9999.00"	"30.16"	"1021.2"	"0"	"0"	"24.1"	"-4.4"	"0"	"0"	"10.0"	"16.1"	"280"	"West"	"-9999.0"	"-9999.0"	"13.1"	"-10.5"	"11.5"	"18.5"	
"20130125"	"Mostly Cloudy"	"16"	"54"	"-9.9"	"-23.3"	"0"	"0"	"-9999"	"-9999"	"23"	"mostlycloudy"	"METAR KBOS 252154Z 30009KT 10SM SCT170 BKN280 M05/M23 A3016 RMK AO2 SLP212 T10501233"	"-9999.00"	"-9999.00"	"30.16"	"1021.2"	"0"	"0"	"23.0"	"-5.0"	"0"	"0"	"10.0"	"16.1"	"300"	"WNW"	"-9999.0"	"-9999.0"	"12.4"	"-10.9"	"10.4"	"16.7"	
"20130125"	"Mostly Cloudy"	"17"	"54"	"-9.0"	"-22.8"	"0"	"0"	"-9999"	"-9999"	"24"	"mostlycloudy"	"METAR KBOS 252254Z 32007KT 10SM SCT130 BKN280 M05/M23 A3015 RMK AO2 SLP210 T10501228"	"-9999.00"	"-9999.00"	"30.15"	"1021.0"	"0"	"0"	"23.0"	"-5.0"	"0"	"0"	"10.0"	"16.1"	"320"	"NW"	"-9999.0"	"-9999.0"	"13.9"	"-10.1"	"8.1"	"13.0"	
"20130125"	"Overcast"	"18"	"54"	"-7.1"	"-21.7"	"0"	"0"	"-9999"	"-9999"	"27"	"cloudy"	"METAR KBOS 252354Z 31006KT 10SM OVC110 M05/M22 A3013 RMK AO2 SLP203 T10501217 11044 21056 58009"	"-9999.00"	"-9999.00"	"30.13"	"1020.3"	"0"	"0"	"23.0"	"-5.0"	"0"	"0"	"10.0"	"16.1"	"310"	"NW"	"-9999.0"	"-9999.0"	"14.7"	"-9.6"	"6.9"	"11.1"	
"20130125"	"Overcast"	"19"	"54"	"-8.0"	"-22.2"	"0"	"0"	"-9999"	"-9999"	"27"	"cloudy"	"METAR KBOS 260054Z 31008KT 10SM BKN070 OVC090 M06/M22 A3012 RMK AO2 SLP199 T10561222"	"-9999.00"	"-9999.00"	"30.12"	"1019.9"	"0"	"0"	"21.9"	"-5.6"	"0"	"0"	"10.0"	"16.1"	"310"	"NW"	"-9999.0"	"-9999.0"	"11.7"	"-11.3"	"9.2"	"14.8"	
"20130125"	"Overcast"	"20"	"54"	"-7.1"	"-21.7"	"0"	"0"	"-9999"	"-9999"	"28"	"cloudy"	"METAR KBOS 260154Z 30004KT 10SM OVC080 M06/M22 A3011 RMK AO2 SLP193 T10561217"	"-9999.00"	"-9999.00"	"30.10"	"1019.3"	"0"	"0"	"21.9"	"-5.6"	"0"	"0"	"10.0"	"16.1"	"300"	"WNW"	"-9999.0"	"-9999.0"	"15.7"	"-9.1"	"4.6"	"7.4"	
"20130125"	"Overcast"	"21"	"54"	"-5.1"	"-20.6"	"0"	"0"	"-9999"	"-9999"	"30"	"cloudy"	"METAR KBOS 260254Z 30009KT 10SM BKN055 OVC075 M06/M21 A3009 RMK AO2 SLP189 T10561206 58014"	"-9999.00"	"-9999.00"	"30.09"	"1018.9"	"0"	"0"	"21.9"	"-5.6"	"0"	"0"	"10.0"	"16.1"	"300"	"WNW"	"-9999.0"	"-9999.0"	"11.0"	"-11.6"	"10.4"	"16.7"	
"20130125"	"Light Snow"	"22"	"28"	"8.6"	"-13.0"	"0"	"0"	"-9999"	"-9999"	"63"	"snow"	"SPECI KBOS 260328Z 23007KT 2 1/2SM -SN OVC029 M07/M13 A3009 RMK AO2 UPB11E17SNB0257E06B17 P0000"	"0.00"	"0.0"	"30.09"	"1018.8"	"0"	"1"	"19.4"	"-7.0"	"0"	"0"	"2.5"	"4.0"	"230"	"SW"	"-9999.0"	"-9999.0"	"9.5"	"-12.5"	"8.1"	"13.0"	
"20130125"	"Light Snow"	"22"	"41"	"10.4"	"-12.0"	"0"	"0"	"-9999"	"-9999"	"73"	"snow"	"SPECI KBOS 260341Z VRB04KT 1 1/4SM -SN OVC021 M08/M12 A3009 RMK AO2 UPB11E17SNB0257E06B17 P0000"	"0.00"	"0.0"	"30.09"	"1018.8"	"0"	"1"	"17.6"	"-8.0"	"0"	"0"	"1.2"	"2.0"	"0"	"Variable"	"-9999.0"	"-9999.0"	"10.7"	"-11.9"	"4.6"	"7.4"	
"20130125"	"Light Snow"	"22"	"54"	"10.0"	"-12.2"	"0"	"0"	"-9999"	"-9999"	"71"	"snow"	"METAR KBOS 260354Z 27004KT 2SM -SN OVC021 M08/M12 A3008 RMK AO2 UPB11E17SNB0257E06B17 SLP186 P0000 T10781122"	"0.00"	"0.0"	"30.08"	"1018.6"	"0"	"1"	"18.0"	"-7.8"	"0"	"0"	"2.0"	"3.2"	"270"	"West"	"-9999.0"	"-9999.0"	"11.1"	"-11.6"	"4.6"	"7.4"	
"20130125"	"Light Snow"	"23"	"54"	"10.9"	"-11.7"	"0"	"0"	"-9999"	"-9999"	"77"	"snow"	"METAR KBOS 260454Z 33006KT 2SM -SN OVC017 M08/M12 A3007 RMK AO2 SLP182 P0001 T10831117 410441122"	"0.01"	"0.3"	"30.07"	"1018.2"	"0"	"1"	"17.1"	"-8.3"	"0"	"0"	"2.0"	"3.2"	"330"	"NNW"	"-9999.0"	"-9999.0"	"7.6"	"-13.6"	"6.9"	"11.1"	
"20130124"	"Scattered Clouds"	"00"	"54"	"-9.9"	"-23.3"	"0"	"0"	"-9999"	"-9999"	"46"	"partlycloudy"	"METAR KBOS 240554Z 29012G18KT 10SM FEW070 SCT180 M14/M23 A3012 RMK AO2 SLP198 T11391233 11100 21139 58006"	"-9999.00"	"-9999.00"	"30.12"	"1019.8"	"0"	"0"	"7.0"	"-13.9"	"0"	"0"	"10.0"	"16.1"	"290"	"WNW"	"20.7"	"33.3"	"-9.8"	"-23.2"	"13.8"	"22.2"	
"20130124"	"Clear"	"01"	"54"	"-9.9"	"-23.3"	"0"	"0"	"-9999"	"-9999"	"46"	"clear"	"METAR KBOS 240654Z 30010KT 10SM CLR M14/M23 A3013 RMK AO2 SLP202 T11391233"	"-9999.00"	"-9999.00"	"30.13"	"1020.2"	"0"	"0"	"7.0"	"-13.9"	"0"	"0"	"10.0"	"16.1"	"300"	"WNW"	"-9999.0"	"-9999.0"	"-8.3"	"-22.4"	"11.5"	"18.5"	
"20130124"	"Partly Cloudy"	"02"	"54"	"-11.9"	"-24.4"	"0"	"0"	"-9999"	"-9999"	"44"	"partlycloudy"	"METAR KBOS 240754Z 29011G20KT 10SM FEW180 M14/M24 A3012 RMK AO2 SLP199 T11441244"	"-9999.00"	"-9999.00"	"30.12"	"1019.9"	"0"	"0"	"6.1"	"-14.4"	"0"	"0"	"10.0"	"16.1"	"290"	"WNW"	"23.0"	"37.0"	"-10.2"	"-23.5"	"12.7"	"20.4"	
"20130124"	"Partly Cloudy"	"03"	"54"	"-11.9"	"-24.4"	"0"	"0"	"-9999"	"-9999"	"46"	"partlycloudy"	"METAR KBOS 240854Z 29015G22KT 10SM FEW180 M15/M24 A3011 RMK AO2 SLP195 T11501244 58003"	"-9999.00"	"-9999.00"	"30.11"	"1019.5"	"0"	"0"	"5.0"	"-15.0"	"0"	"0"	"10.0"	"16.1"	"290"	"WNW"	"25.3"	"40.7"	"-14.2"	"-25.6"	"17.3"	"27.8"	
"20130124"	"Partly Cloudy"	"04"	"54"	"-13.0"	"-25.0"	"0"	"0"	"-9999"	"-9999"	"43"	"partlycloudy"	"METAR KBOS 240954Z 29016G22KT 10SM FEW180 M15/M25 A3010 RMK AO2 SLP192 T11501250"	"-9999.00"	"-9999.00"	"30.10"	"1019.2"	"0"	"0"	"5.0"	"-15.0"	"0"	"0"	"10.0"	"16.1"	"290"	"WNW"	"25.3"	"40.7"	"-14.7"	"-25.9"	"18.4"	"29.6"	
"20130124"	"Partly Cloudy"	"05"	"54"	"-14.1"	"-25.6"	"0"	"0"	"-9999"	"-9999"	"43"	"partlycloudy"	"METAR KBOS 241054Z 30013KT 10SM FEW180 M16/M26 A3011 RMK AO2 SLP195 T11561256"	"-9999.00"	"-9999.00"	"30.11"	"1019.5"	"0"	"0"	"3.9"	"-15.6"	"0"	"0"	"10.0"	"16.1"	"300"	"WNW"	"-9999.0"	"-9999.0"	"-14.3"	"-25.7"	"15.0"	"24.1"	
"20130124"	"Scattered Clouds"	"06"	"54"	"-13.0"	"-25.0"	"0"	"0"	"-9999"	"-9999"	"46"	"partlycloudy"	"METAR KBOS 241154Z 29016G23KT 10SM FEW050 SCT250 M16/M25 A3012 RMK AO2 SLP199 T11561250 11139 21156 53004"	"-9999.00"	"-9999.00"	"30.12"	"1019.9"	"0"	"0"	"3.9"	"-15.6"	"0"	"0"	"10.0"	"16.1"	"290"	"WNW"	"26.5"	"42.6"	"-16.1"	"-26.7"	"18.4"	"29.6"	
"20130124"	"Scattered Clouds"	"07"	"54"	"-13.0"	"-25.0"	"0"	"0"	"-9999"	"-9999"	"43"	"partlycloudy"	"METAR KBOS 241254Z 29015G22KT 10SM FEW050 SCT250 M15/M25 A3013 RMK AO2 SLP202 T11501250"	"-9999.00"	"-9999.00"	"30.13"	"1020.2"	"0"	"0"	"5.0"	"-15.0"	"0"	"0"	"10.0"	"16.1"	"290"	"WNW"	"25.3"	"40.7"	"-14.2"	"-25.6"	"17.3"	"27.8"	
"20130124"	"Scattered Clouds"	"08"	"54"	"-13.0"	"-25.0"	"0"	"0"	"-9999"	"-9999"	"40"	"partlycloudy"	"METAR KBOS 241354Z 30014G21KT 10SM FEW050 SCT250 M14/M25 A3013 RMK AO2 SLP202 T11391250"	"-9999.00"	"-9999.00"	"30.13"	"1020.2"	"0"	"0"	"7.0"	"-13.9"	"0"	"0"	"10.0"	"16.1"	"300"	"WNW"	"24.2"	"38.9"	"-11.0"	"-23.9"	"16.1"	"25.9"	
"20130124"	"Scattered Clouds"	"09"	"54"	"-11.9"	"-24.4"	"0"	"0"	"-9999"	"-9999"	"38"	"partlycloudy"	"METAR KBOS 241454Z 29014KT 10SM FEW050 SCT250 M13/M24 A3012 RMK AO2 SLP199 T11281244 50000"	"-9999.00"	"-9999.00"	"30.12"	"1019.9"	"0"	"0"	"9.0"	"-12.8"	"0"	"0"	"10.0"	"16.1"	"290"	"WNW"	"-9999.0"	"-9999.0"	"-8.5"	"-22.5"	"16.1"	"25.9"	
"20130124"	"Scattered Clouds"	"10"	"54"	"-11.9"	"-24.4"	"0"	"0"	"-9999"	"-9999"	"34"	"partlycloudy"	"METAR KBOS 241554Z 30017G21KT 10SM FEW050 SCT250 M11/M24 A3011 RMK AO2 SLP196 T11111244"	"-9999.00"	"-9999.00"	"30.11"	"1019.6"	"0"	"0"	"12.0"	"-11.1"	"0"	"0"	"10.0"	"16.1"	"300"	"WNW"	"24.2"	"38.9"	"-6.0"	"-21.1"	"19.6"	"31.5"	
"20130124"	"Partly Cloudy"	"11"	"54"	"-11.0"	"-23.9"	"0"	"0"	"-9999"	"-9999"	"31"	"partlycloudy"	"METAR KBOS 241654Z 32019G24KT 10SM FEW050 M09/M24 A3010 RMK AO2 SLP191 T10941239"	"-9999.00"	"-9999.00"	"30.10"	"1019.1"	"0"	"0"	"15.1"	"-9.4"	"0"	"0"	"10.0"	"16.1"	"320"	"NW"	"27.6"	"44.4"	"-2.9"	"-19.4"	"21.9"	"35.2"	
"20130124"	"Partly Cloudy"	"12"	"54"	"-11.9"	"-24.4"	"0"	"0"	"-9999"	"-9999"	"26"	"partlycloudy"	"METAR KBOS 241754Z 31019G29KT 10SM FEW050 M08/M24 A3008 RMK AO2 PK WND 32029/1750 SLP184 T10781244 11078 21156 58015"	"-9999.00"	"-9999.00"	"30.08"	"1018.4"	"0"	"0"	"18.0"	"-7.8"	"0"	"0"	"10.0"	"16.1"	"310"	"NW"	"33.4"	"53.7"	"0.9"	"-17.3"	"21.9"	"35.2"	
"20130124"	"Scattered Clouds"	"13"	"54"	"-11.9"	"-24.4"	"0"	"0"	"-9999"	"-9999"	"24"	"partlycloudy"	"METAR KBOS 241854Z 31011G21KT 9SM FEW050 SCT250 M07/M24 A3006 RMK AO2 PK WND 33029/1812 SLP179 T10671244"	"-9999.00"	"-9999.00"	"30.06"	"1017.9"	"0"	"0"	"19.9"	"-6.7"	"0"	"0"	"9.0"	"14.5"	"310"	"NW"	"24.2"	"38.9"	"7.3"	"-13.7"	"12.7"	"20.4"	
"20130124"	"Scattered Clouds"	"14"	"54"	"-11.9"	"-24.4"	"0"	"0"	"-9999"	"-9999"	"24"	"partlycloudy"	"METAR KBOS 241954Z 29017G24KT 10SM FEW050 SCT250 M07/M24 A3006 RMK AO2 PK WND 30031/1925 SLP177 T10671244"	"-9999.00"	"-9999.00"	"30.06"	"1017.7"	"0"	"0"	"19.9"	"-6.7"	"0"	"0"	"10.0"	"16.1"	"290"	"WNW"	"27.6"	"44.4"	"4.3"	"-15.4"	"19.6"	"31.5"	
"20130124"	"Scattered Clouds"	"15"	"54"	"-13.0"	"-25.0"	"0"	"0"	"-9999"	"-9999"	"23"	"partlycloudy"	"METAR KBOS 242054Z 31015G31KT 10SM FEW050 SCT250 M07/M25 A3008 RMK AO2 PK WND 29032/2043 SLP185 T10671250 53001"	"-9999.00"	"-9999.00"	"30.08"	"1018.5"	"0"	"0"	"19.9"	"-6.7"	"0"	"0"	"10.0"	"16.1"	"310"	"NW"	"35.7"	"57.4"	"5.2"	"-14.9"	"17.3"	"27.8"	
"20130124"	"Scattered Clouds"	"16"	"54"	"-11.0"	"-23.9"	"0"	"0"	"-9999"	"-9999"	"26"	"partlycloudy"	"METAR KBOS 242154Z 29015G21KT 10SM FEW050 SCT140 SCT250 M07/M24 A3009 RMK AO2 PK WND 33031/2100 SLP190 T10721239"	"-9999.00"	"-9999.00"	"30.09"	"1019.0"	"0"	"0"	"19.0"	"-7.2"	"0"	"0"	"10.0"	"16.1"	"290"	"WNW"	"24.2"	"38.9"	"4.0"	"-15.5"	"17.3"	"27.8"	
"20130124"	"Scattered Clouds"	"17"	"54"	"-13.0"	"-25.0"	"0"	"0"	"-9999"	"-9999"	"25"	"partlycloudy"	"METAR KBOS 242254Z 29017G28KT 10SM FEW050 SCT140 SCT250 M08/M25 A3011 RMK AO2 PK WND 29028/2246 SLP195 T10781250"	"-9999.00"	"-9999.00"	"30.11"	"1019.5"	"0"	"0"	"18.0"	"-7.8"	"0"	"0"	"10.0"	"16.1"	"290"	"WNW"	"32.2"	"51.9"	"1.7"	"-16.8"	"19.6"	"31.5"	
"20130124"	"Scattered Clouds"	"18"	"54"	"-11.0"	"-23.9"	"0"	"0"	"-9999"	"-9999"	"27"	"partlycloudy"	"METAR KBOS 242354Z 29018G24KT 10SM FEW050 SCT140 SCT250 M08/M24 A3013 RMK AO2 PK WND 30026/2255 SLP203 T10781239 11061 21078 53018"	"-9999.00"	"-9999.00"	"30.13"	"1020.3"	"0"	"0"	"18.0"	"-7.8"	"0"	"0"	"10.0"	"16.1"	"290"	"WNW"	"27.6"	"44.4"	"1.3"	"-17.0"	"20.7"	"33.3"	
"20130124"	"Partly Cloudy"	"19"	"54"	"-7.1"	"-21.7"	"0"	"0"	"-9999"	"-9999"	"36"	"partlycloudy"	"METAR KBOS 250054Z 28014G22KT 10SM FEW130 M09/M22 A3015 RMK AO2 SLP208 T10891217"	"-9999.00"	"-9999.00"	"30.15"	"1020.8"	"0"	"0"	"16.0"	"-8.9"	"0"	"0"	"10.0"	"16.1"	"280"	"West"	"25.3"	"40.7"	"0.6"	"-17.5"	"16.1"	"25.9"	
"20130124"	"Clear"	"20"	"54"	"-9.9"	"-23.3"	"0"	"0"	"-9999"	"-9999"	"32"	"clear"	"METAR KBOS 250154Z 30011G22KT 10SM CLR M09/M23 A3016 RMK AO2 PK WND 29027/0143 SLP212 T10941233"	"-9999.00"	"-9999.00"	"30.16"	"1021.2"	"0"	"0"	"15.1"	"-9.4"	"0"	"0"	"10.0"	"16.1"	"300"	"WNW"	"25.3"	"40.7"	"1.1"	"-17.1"	"12.7"	"20.4"	
"20130124"	"Clear"	"21"	"54"	"-15.0"	"-26.1"	"0"	"0"	"-9999"	"-9999"	"25"	"clear"	"METAR KBOS 250254Z 29018G24KT 10SM CLR M09/M26 A3018 RMK AO2 PK WND 31029/0221 SLP219 T10941261 53016"	"-9999.00"	"-9999.00"	"30.18"	"1021.9"	"0"	"0"	"15.1"	"-9.4"	"0"	"0"	"10.0"	"16.1"	"290"	"WNW"	"27.6"	"44.4"	"-2.5"	"-19.1"	"20.7"	"33.3"	
"20130124"	"Clear"	"22"	"54"	"-15.0"	"-26.1"	"0"	"0"	"-9999"	"-9999"	"28"	"clear"	"METAR KBOS 250354Z 30017G26KT 10SM CLR M11/M26 A3020 RMK AO2 PK WND 29029/0329 SLP226 T11061261"	"-9999.00"	"-9999.00"	"30.20"	"1022.6"	"0"	"0"	"12.9"	"-10.6"	"0"	"0"	"10.0"	"16.1"	"300"	"WNW"	"29.9"	"48.2"	"-4.9"	"-20.5"	"19.6"	"31.5"	
"20130124"	"Clear"	"23"	"54"	"-14.1"	"-25.6"	"0"	"0"	"-9999"	"-9999"	"30"	"clear"	"METAR KBOS 250454Z 29019G27KT 10SM CLR M11/M26 A3022 RMK AO2 PK WND 29027/0453 SLP232 T11111256 410611156"	"-9999.00"	"-9999.00"	"30.22"	"1023.2"	"0"	"0"	"12.0"	"-11.1"	"0"	"0"	"10.0"	"16.1"	"290"	"WNW"	"31.1"	"50.0"	"-6.9"	"-21.6"	"21.9"	"35.2"	
"20130123"	"Clear"	"00"	"54"	"-4.0"	"-20.0"	"0"	"0"	"-9999"	"-9999"	"45"	"clear"	"METAR KBOS 230554Z 30012G19KT 10SM CLR M10/M20 A3007 RMK AO2 SLP183 60001 T11001200 11072 21100 50004"	"-9999.00"	"-9999.00"	"30.07"	"1018.3"	"0"	"0"	"14.0"	"-10.0"	"0"	"0"	"10.0"	"16.1"	"300"	"WNW"	"21.9"	"35.2"	"-0.8"	"-18.2"	"13.8"	"22.2"	
"20130123"	"Clear"	"01"	"54"	"-6.0"	"-21.1"	"0"	"0"	"-9999"	"-9999"	"43"	"clear"	"METAR KBOS 230654Z 29013G20KT 10SM CLR M11/M21 A3008 RMK AO2 SLP185 T11061211"	"-9999.00"	"-9999.00"	"30.08"	"1018.5"	"0"	"0"	"12.9"	"-10.6"	"0"	"0"	"10.0"	"16.1"	"290"	"WNW"	"23.0"	"37.0"	"-2.8"	"-19.3"	"15.0"	"24.1"	
"20130123"	"Clear"	"02"	"54"	"-5.1"	"-20.6"	"0"	"0"	"-9999"	"-9999"	"46"	"clear"	"METAR KBOS 230754Z 28014G20KT 10SM CLR M11/M21 A3009 RMK AO2 SLP189 T11111206"	"-9999.00"	"-9999.00"	"30.09"	"1018.9"	"0"	"0"	"12.0"	"-11.1"	"0"	"0"	"10.0"	"16.1"	"280"	"West"	"23.0"	"37.0"	"-4.5"	"-20.3"	"16.1"	"25.9"	
"20130123"	"Clear"	"03"	"54"	"-0.9"	"-18.3"	"0"	"0"	"-9999"	"-9999"	"56"	"clear"	"METAR KBOS 230854Z 26012G19KT 10SM CLR M11/M18 A3009 RMK AO2 SLP188 T11111183 50005"	"-9999.00"	"-9999.00"	"30.09"	"1018.8"	"0"	"0"	"12.0"	"-11.1"	"0"	"0"	"10.0"	"16.1"	"260"	"West"	"21.9"	"35.2"	"-3.4"	"-19.6"	"13.8"	"22.2"	
"20130123"	"Clear"	"04"	"54"	"-5.1"	"-20.6"	"0"	"0"	"-9999"	"-9999"	"49"	"clear"	"METAR KBOS 230954Z 28016G24KT 10SM CLR M12/M21 A3010 RMK AO2 SLP192 T11171206"	"-9999.00"	"-9999.00"	"30.10"	"1019.2"	"0"	"0"	"10.9"	"-11.7"	"0"	"0"	"10.0"	"16.1"	"280"	"West"	"27.6"	"44.4"	"-7.0"	"-21.6"	"18.4"	"29.6"	
"20130123"	"Partly Cloudy"	"05"	"54"	"-6.0"	"-21.1"	"0"	"0"	"-9999"	"-9999"	"47"	"partlycloudy"	"METAR KBOS 231054Z 28011KT 10SM FEW250 M12/M21 A3011 RMK AO2 SLP195 T11171211"	"-9999.00"	"-9999.00"	"30.11"	"1019.5"	"0"	"0"	"10.9"	"-11.7"	"0"	"0"	"10.0"	"16.1"	"280"	"West"	"-9999.0"	"-9999.0"	"-4.1"	"-20.0"	"12.7"	"20.4"	
"20130123"	"Scattered Clouds"	"06"	"54"	"-9.0"	"-22.8"	"0"	"0"	"-9999"	"-9999"	"42"	"partlycloudy"	"METAR KBOS 231154Z 28012G21KT 10SM FEW030 SCT200 M12/M23 A3012 RMK AO2 SLP198 70001 T11221228 11100 21122 51010"	"-9999.00"	"-9999.00"	"30.12"	"1019.8"	"0"	"0"	"10.0"	"-12.2"	"0"	"0"	"10.0"	"16.1"	"280"	"West"	"24.2"	"38.9"	"-5.9"	"-21.0"	"13.8"	"22.2"	
"20130123"	"Partly Cloudy"	"07"	"54"	"-7.1"	"-21.7"	"0"	"0"	"-9999"	"-9999"	"46"	"partlycloudy"	"METAR KBOS 231254Z 28012G20KT 10SM FEW030 M12/M22 A3013 RMK AO2 SLP203 T11221217"	"-9999.00"	"-9999.00"	"30.13"	"1020.3"	"0"	"0"	"10.0"	"-12.2"	"0"	"0"	"10.0"	"16.1"	"280"	"West"	"23.0"	"37.0"	"-5.9"	"-21.0"	"13.8"	"22.2"	
"20130123"	"Partly Cloudy"	"08"	"54"	"-9.9"	"-23.3"	"0"	"0"	"-9999"	"-9999"	"39"	"partlycloudy"	"METAR KBOS 231354Z 29016G23KT 10SM FEW033 M12/M23 A3014 RMK AO2 SLP207 T11171233"	"-9999.00"	"-9999.00"	"30.14"	"1020.7"	"0"	"0"	"10.9"	"-11.7"	"0"	"0"	"10.0"	"16.1"	"290"	"WNW"	"26.5"	"42.6"	"-7.0"	"-21.6"	"18.4"	"29.6"	
"20130123"	"Partly Cloudy"	"09"	"54"	"-11.9"	"-24.4"	"0"	"0"	"-9999"	"-9999"	"34"	"partlycloudy"	"METAR KBOS 231454Z 29016G22KT 10SM FEW033 M11/M24 A3015 RMK AO2 PK WND 30027/1442 SLP207 T11111244 51009"	"-9999.00"	"-9999.00"	"30.14"	"1020.7"	"0"	"0"	"12.0"	"-11.1"	"0"	"0"	"10.0"	"16.1"	"290"	"WNW"	"25.3"	"40.7"	"-5.6"	"-20.9"	"18.4"	"29.6"	
"20130123"	"Partly Cloudy"	"10"	"54"	"-11.9"	"-24.4"	"0"	"0"	"-9999"	"-9999"	"32"	"partlycloudy"	"METAR KBOS 231554Z 28013G20KT 10SM FEW036 M11/M24 A3013 RMK AO2 PK WND 29026/1458 SLP202 T11061244"	"-9999.00"	"-9999.00"	"30.13"	"1020.2"	"0"	"0"	"12.9"	"-10.6"	"0"	"0"	"10.0"	"16.1"	"280"	"West"	"23.0"	"37.0"	"-2.8"	"-19.3"	"15.0"	"24.1"	
"20130123"	"Partly Cloudy"	"11"	"54"	"-11.9"	"-24.4"	"0"	"0"	"-9999"	"-9999"	"29"	"partlycloudy"	"METAR KBOS 231654Z 27019G28KT 10SM FEW038 M09/M24 A3011 RMK AO2 PK WND 26028/1652 SLP194 T10941244"	"-9999.00"	"-9999.00"	"30.11"	"1019.4"	"0"	"0"	"15.1"	"-9.4"	"0"	"0"	"10.0"	"16.1"	"270"	"West"	"32.2"	"51.9"	"-2.9"	"-19.4"	"21.9"	"35.2"	
"20130123"	"Partly Cloudy"	"12"	"54"	"-11.9"	"-24.4"	"0"	"0"	"-9999"	"-9999"	"29"	"partlycloudy"	"METAR KBOS 231754Z 28014G22KT 10SM FEW040 M09/M24 A3008 RMK AO2 PK WND 28028/1702 SLP184 T10941244 11089 21122 58023"	"-9999.00"	"-9999.00"	"30.08"	"1018.4"	"0"	"0"	"15.1"	"-9.4"	"0"	"0"	"10.0"	"16.1"	"280"	"West"	"25.3"	"40.7"	"-0.6"	"-18.1"	"16.1"	"25.9"	
"20130123"	"Partly Cloudy"	"13"	"54"	"-11.9"	"-24.4"	"0"	"0"	"-9999"	"-9999"	"28"	"partlycloudy"	"METAR KBOS 231854Z 30015G26KT 10SM FEW040 M09/M24 A3007 RMK AO2 PK WND 27026/1848 SLP181 T10891244"	"-9999.00"	"-9999.00"	"30.07"	"1018.1"	"0"	"0"	"16.0"	"-8.9"	"0"	"0"	"10.0"	"16.1"	"300"	"WNW"	"29.9"	"48.2"	"0.1"	"-17.7"	"17.3"	"27.8"	
"20130123"	"Partly Cloudy"	"14"	"54"	"-11.9"	"-24.4"	"0"	"0"	"-9999"	"-9999"	"28"	"partlycloudy"	"METAR KBOS 231954Z 27013KT 10SM FEW040 M09/M24 A3007 RMK AO2 SLP182 T10891244"	"-9999.00"	"-9999.00"	"30.07"	"1018.2"	"0"	"0"	"16.0"	"-8.9"	"0"	"0"	"10.0"	"16.1"	"270"	"West"	"-9999.0"	"-9999.0"	"1.1"	"-17.2"	"15.0"	"24.1"	
"20130123"	"Partly Cloudy"	"15"	"54"	"-11.9"	"-24.4"	"0"	"0"	"-9999"	"-9999"	"29"	"partlycloudy"	"METAR KBOS 232054Z 26014G22KT 10SM FEW065 M09/M24 A3008 RMK AO2 SLP184 T10941244 53001"	"-9999.00"	"-9999.00"	"30.08"	"1018.4"	"0"	"0"	"15.1"	"-9.4"	"0"	"0"	"10.0"	"16.1"	"260"	"West"	"25.3"	"40.7"	"-0.6"	"-18.1"	"16.1"	"25.9"	
"20130123"	"Partly Cloudy"	"16"	"54"	"-11.9"	"-24.4"	"0"	"0"	"-9999"	"-9999"	"31"	"partlycloudy"	"METAR KBOS 232154Z 31014KT 10SM FEW065 M10/M24 A3010 RMK AO2 SLP192 T11001244"	"-9999.00"	"-9999.00"	"30.10"	"1019.2"	"0"	"0"	"14.0"	"-10.0"	"0"	"0"	"10.0"	"16.1"	"310"	"NW"	"-9999.0"	"-9999.0"	"-2.0"	"-18.9"	"16.1"	"25.9"	
"20130123"	"Scattered Clouds"	"17"	"54"	"-11.9"	"-24.4"	"0"	"0"	"-9999"	"-9999"	"32"	"partlycloudy"	"METAR KBOS 232254Z 28013KT 10SM FEW065 SCT140 M11/M24 A3011 RMK AO2 SLP196 T11061244"	"-9999.00"	"-9999.00"	"30.11"	"1019.6"	"0"	"0"	"12.9"	"-10.6"	"0"	"0"	"10.0"	"16.1"	"280"	"West"	"-9999.0"	"-9999.0"	"-2.8"	"-19.3"	"15.0"	"24.1"	
"20130123"	"Partly Cloudy"	"18"	"54"	"-11.9"	"-24.4"	"0"	"0"	"-9999"	"-9999"	"32"	"partlycloudy"	"METAR KBOS 232354Z 30011KT 10SM FEW070 M11/M24 A3013 RMK AO2 SLP201 T11061244 11083 21111 51016"	"-9999.00"	"-9999.00"	"30.13"	"1020.1"	"0"	"0"	"12.9"	"-10.6"	"0"	"0"	"10.0"	"16.1"	"300"	"WNW"	"-9999.0"	"-9999.0"	"-1.6"	"-18.7"	"12.7"	"20.4"	
"20130123"	"Partly Cloudy"	"19"	"54"	"-11.0"	"-23.9"	"0"	"0"	"-9999"	"-9999"	"37"	"partlycloudy"	"METAR KBOS 240054Z 32009G18KT 10SM FEW070 M12/M24 A3014 RMK AO2 SLP204 T11171239"	"-9999.00"	"-9999.00"	"30.14"	"1020.4"	"0"	"0"	"10.9"	"-11.7"	"0"	"0"	"10.0"	"16.1"	"320"	"NW"	"20.7"	"33.3"	"-2.6"	"-19.2"	"10.4"	"16.7"	
"20130123"	"Partly Cloudy"	"20"	"54"	"-9.9"	"-23.3"	"0"	"0"	"-9999"	"-9999"	"39"	"partlycloudy"	"METAR KBOS 240154Z 30009G18KT 10SM FEW070 M12/M23 A3014 RMK AO2 SLP205 T11171233"	"-9999.00"	"-9999.00"	"30.14"	"1020.5"	"0"	"0"	"10.9"	"-11.7"	"0"	"0"	"10.0"	"16.1"	"300"	"WNW"	"20.7"	"33.3"	"-2.6"	"-19.2"	"10.4"	"16.7"	
"20130123"	"Scattered Clouds"	"21"	"54"	"-9.9"	"-23.3"	"0"	"0"	"-9999"	"-9999"	"40"	"partlycloudy"	"METAR KBOS 240254Z 30011KT 10SM FEW070 SCT180 M12/M23 A3014 RMK AO2 SLP204 T11221233 50003"	"-9999.00"	"-9999.00"	"30.14"	"1020.4"	"0"	"0"	"10.0"	"-12.2"	"0"	"0"	"10.0"	"16.1"	"300"	"WNW"	"-9999.0"	"-9999.0"	"-5.2"	"-20.7"	"12.7"	"20.4"	
"20130123"	"Scattered Clouds"	"22"	"54"	"-9.9"	"-23.3"	"0"	"0"	"-9999"	"-9999"	"42"	"partlycloudy"	"METAR KBOS 240354Z 30013KT 10SM FEW070 SCT180 M13/M23 A3013 RMK AO2 SLP203 T11281233"	"-9999.00"	"-9999.00"	"30.13"	"1020.3"	"0"	"0"	"9.0"	"-12.8"	"0"	"0"	"10.0"	"16.1"	"300"	"WNW"	"-9999.0"	"-9999.0"	"-7.9"	"-22.2"	"15.0"	"24.1"	
"20130123"	"Scattered Clouds"	"23"	"54"	"-9.9"	"-23.3"	"0"	"0"	"-9999"	"-9999"	"44"	"partlycloudy"	"METAR KBOS 240454Z 28014G21KT 10SM FEW070 SCT180 M13/M23 A3013 RMK AO2 SLP201 T11331233 410831133"	"-9999.00"	"-9999.00"	"30.13"	"1020.1"	"0"	"0"	"8.1"	"-13.3"	"0"	"0"	"10.0"	"16.1"	"280"	"West"	"24.2"	"38.9"	"-9.6"	"-23.1"	"16.1"	"25.9"	
"20130122"	"Overcast"	"00"	"17"	"19.4"	"-7.0"	"0"	"0"	"-9999"	"-9999"	"80"	"cloudy"	"SPECI KBOS 220517Z 34006KT 10SM SCT013 OVC070 M04/M07 A2979 RMK AO2"	"-9999.00"	"-9999.00"	"29.79"	"1008.7"	"0"	"0"	"24.8"	"-4.0"	"0"	"0"	"10.0"	"16.1"	"340"	"NNW"	"-9999.0"	"-9999.0"	"16.9"	"-8.4"	"6.9"	"11.1"	
"20130122"	"Overcast"	"00"	"54"	"19.0"	"-7.2"	"0"	"0"	"-9999"	"-9999"	"81"	"cloudy"	"METAR KBOS 220554Z 34005KT 10SM SCT013 OVC070 M04/M07 A2977 RMK AO2 SLP079 60001 T10441072 11039 21050 56040"	"-9999.00"	"-9999.00"	"29.77"	"1007.9"	"0"	"0"	"24.1"	"-4.4"	"0"	"0"	"10.0"	"16.1"	"340"	"NNW"	"-9999.0"	"-9999.0"	"17.0"	"-8.3"	"5.8"	"9.3"	
"20130122"	"Overcast"	"01"	"10"	"17.6"	"-8.0"	"0"	"0"	"-9999"	"-9999"	"74"	"cloudy"	"SPECI KBOS 220610Z 34005KT 10SM BKN018 OVC080 M04/M08 A2976 RMK AO2"	"-9999.00"	"-9999.00"	"29.76"	"1007.7"	"0"	"0"	"24.8"	"-4.0"	"0"	"0"	"10.0"	"16.1"	"340"	"NNW"	"-9999.0"	"-9999.0"	"17.9"	"-7.8"	"5.8"	"9.3"	
"20130122"	"Overcast"	"01"	"54"	"18.0"	"-7.8"	"0"	"0"	"-9999"	"-9999"	"77"	"cloudy"	"METAR KBOS 220654Z 32006KT 10SM BKN018 OVC028 M04/M08 A2977 RMK AO2 SLP081 T10441078"	"-9999.00"	"-9999.00"	"29.77"	"1008.1"	"0"	"0"	"24.1"	"-4.4"	"0"	"0"	"10.0"	"16.1"	"320"	"NW"	"-9999.0"	"-9999.0"	"16.0"	"-8.9"	"6.9"	"11.1"	
"20130122"	"Light Snow"	"02"	"54"	"18.0"	"-7.8"	"0"	"0"	"-9999"	"-9999"	"77"	"snow"	"METAR KBOS 220754Z 32008KT 8SM -SN SCT020 BKN025 OVC038 M04/M08 A2977 RMK AO2 SNB54 SLP081 P0000 T10441078"	"0.00"	"0.0"	"29.77"	"1008.1"	"0"	"1"	"24.1"	"-4.4"	"0"	"0"	"8.0"	"12.9"	"320"	"NW"	"-9999.0"	"-9999.0"	"14.4"	"-9.8"	"9.2"	"14.8"	
"20130122"	"Overcast"	"03"	"30"	"17.6"	"-8.0"	"0"	"0"	"-9999"	"-9999"	"80"	"cloudy"	"SPECI KBOS 220830Z 31004KT 10SM SCT027 OVC100 M05/M08 A2976 RMK AO2 SNE23 P0000"	"0.00"	"0.0"	"29.76"	"1007.7"	"0"	"0"	"23.0"	"-5.0"	"0"	"0"	"10.0"	"16.1"	"310"	"NW"	"-9999.0"	"-9999.0"	"17.0"	"-8.4"	"4.6"	"7.4"	
"20130122"	"Overcast"	"03"	"54"	"17.1"	"-8.3"	"0"	"0"	"-9999"	"-9999"	"78"	"cloudy"	"METAR KBOS 220854Z 29006KT 10SM SCT027 OVC100 M05/M08 A2976 RMK AO2 SNE23 SLP076 P0000 60000 T10501083 58003"	"0.00"	"0.0"	"29.76"	"1007.6"	"0"	"0"	"23.0"	"-5.0"	"0"	"0"	"10.0"	"16.1"	"290"	"WNW"	"-9999.0"	"-9999.0"	"14.7"	"-9.6"	"6.9"	"11.1"	
"20130122"	"Scattered Clouds"	"04"	"54"	"17.1"	"-8.3"	"0"	"0"	"-9999"	"-9999"	"82"	"partlycloudy"	"METAR KBOS 220954Z 29012KT 10SM FEW027 SCT080 M06/M08 A2977 RMK AO2 SLP079 T10561083"	"-9999.00"	"-9999.00"	"29.77"	"1007.9"	"0"	"0"	"21.9"	"-5.6"	"0"	"0"	"10.0"	"16.1"	"290"	"WNW"	"-9999.0"	"-9999.0"	"9.2"	"-12.7"	"13.8"	"22.2"	
"20130122"	"Partly Cloudy"	"05"	"01"	"17.6"	"-8.0"	"0"	"0"	"-9999"	"-9999"	"86"	"partlycloudy"	"SPECI KBOS 221001Z 29008KT 10SM FEW009 M06/M08 A2977 RMK AO2"	"-9999.00"	"-9999.00"	"29.77"	"1008.0"	"0"	"0"	"21.2"	"-6.0"	"0"	"0"	"10.0"	"16.1"	"290"	"WNW"	"-9999.0"	"-9999.0"	"10.9"	"-11.7"	"9.2"	"14.8"	
"20130122"	"Light Snow"	"05"	"38"	"17.6"	"-8.0"	"0"	"0"	"-9999"	"-9999"	"86"	"snow"	"SPECI KBOS 221038Z 29009KT 5SM -SN BR BKN025 OVC080 M06/M08 A2977 RMK AO2 SNB27 P0000"	"0.00"	"0.0"	"29.77"	"1008.0"	"0"	"1"	"21.2"	"-6.0"	"0"	"0"	"5.0"	"8.0"	"290"	"WNW"	"-9999.0"	"-9999.0"	"10.1"	"-12.1"	"10.4"	"16.7"	
"20130122"	"Light Snow"	"05"	"54"	"18.0"	"-7.8"	"0"	"0"	"-9999"	"-9999"	"85"	"snow"	"METAR KBOS 221054Z 30010KT 5SM -SN BR FEW016 BKN025 OVC034 M06/M08 A2978 RMK AO2 SNB27 SLP083 P0000 T10561078"	"0.00"	"0.0"	"29.78"	"1008.3"	"0"	"1"	"21.9"	"-5.6"	"0"	"0"	"5.0"	"8.0"	"300"	"WNW"	"-9999.0"	"-9999.0"	"10.4"	"-12.0"	"11.5"	"18.5"	
"20130122"	"Mostly Cloudy"	"06"	"21"	"17.6"	"-8.0"	"0"	"0"	"-9999"	"-9999"	"86"	"mostlycloudy"	"SPECI KBOS 221121Z 29011KT 10SM FEW016 SCT025 BKN035 M06/M08 A2979 RMK AO2 SNE07 P0000"	"0.00"	"0.0"	"29.79"	"1008.7"	"0"	"0"	"21.2"	"-6.0"	"0"	"0"	"10.0"	"16.1"	"290"	"WNW"	"-9999.0"	"-9999.0"	"8.9"	"-12.8"	"12.7"	"20.4"	
"20130122"	"Scattered Clouds"	"06"	"54"	"16.0"	"-8.9"	"0"	"0"	"-9999"	"-9999"	"81"	"partlycloudy"	"METAR KBOS 221154Z 29013KT 10SM FEW016 SCT080 M06/M09 A2980 RMK AO2 SNE07 SLP090 P0000 60000 70001 T10611089 11044 21061 53014"	"0.00"	"0.0"	"29.80"	"1009.0"	"0"	"0"	"21.0"	"-6.1"	"0"	"0"	"10.0"	"16.1"	"290"	"WNW"	"-9999.0"	"-9999.0"	"7.6"	"-13.6"	"15.0"	"24.1"	
"20130122"	"Partly Cloudy"	"07"	"54"	"12.0"	"-11.1"	"0"	"0"	"-9999"	"-9999"	"68"	"partlycloudy"	"METAR KBOS 221254Z 29015G22KT 10SM FEW018 M06/M11 A2982 RMK AO2 SLP096 T10611111"	"-9999.00"	"-9999.00"	"29.82"	"1009.6"	"0"	"0"	"21.0"	"-6.1"	"0"	"0"	"10.0"	"16.1"	"290"	"WNW"	"25.3"	"40.7"	"6.6"	"-14.1"	"17.3"	"27.8"	
"20130122"	"Partly Cloudy"	"08"	"54"	"10.9"	"-11.7"	"0"	"0"	"-9999"	"-9999"	"63"	"partlycloudy"	"METAR KBOS 221354Z 29015G23KT 10SM FEW024 M06/M12 A2984 RMK AO2 SLP105 T10561117"	"-9999.00"	"-9999.00"	"29.84"	"1010.5"	"0"	"0"	"21.9"	"-5.6"	"0"	"0"	"10.0"	"16.1"	"290"	"WNW"	"26.5"	"42.6"	"7.8"	"-13.5"	"17.3"	"27.8"	
"20130122"	"Partly Cloudy"	"09"	"54"	"10.0"	"-12.2"	"0"	"0"	"-9999"	"-9999"	"58"	"partlycloudy"	"METAR KBOS 221454Z 29013G24KT 10SM FEW030 M05/M12 A2986 RMK AO2 PK WND 29027/1407 SLP111 T10501122 51020"	"-9999.00"	"-9999.00"	"29.86"	"1011.1"	"0"	"0"	"23.0"	"-5.0"	"0"	"0"	"10.0"	"16.1"	"290"	"WNW"	"27.6"	"44.4"	"10.1"	"-12.2"	"15.0"	"24.1"	
"20130122"	"Partly Cloudy"	"10"	"54"	"9.0"	"-12.8"	"0"	"0"	"-9999"	"-9999"	"53"	"partlycloudy"	"METAR KBOS 221554Z 29017G20KT 10SM FEW038 M04/M13 A2986 RMK AO2 SLP110 T10441128"	"-9999.00"	"-9999.00"	"29.86"	"1011.0"	"0"	"0"	"24.1"	"-4.4"	"0"	"0"	"10.0"	"16.1"	"290"	"WNW"	"23.0"	"37.0"	"9.8"	"-12.4"	"19.6"	"31.5"	
"20130122"	"Scattered Clouds"	"11"	"54"	"8.1"	"-13.3"	"0"	"0"	"-9999"	"-9999"	"49"	"partlycloudy"	"METAR KBOS 221654Z 30016G20KT 10SM SCT044 M04/M13 A2986 RMK AO2 SLP110 T10391133 $"	"-9999.00"	"-9999.00"	"29.86"	"1011.0"	"0"	"0"	"25.0"	"-3.9"	"0"	"0"	"10.0"	"16.1"	"300"	"WNW"	"23.0"	"37.0"	"11.3"	"-11.5"	"18.4"	"29.6"	
"20130122"	"Scattered Clouds"	"12"	"54"	"3.9"	"-15.6"	"0"	"0"	"-9999"	"-9999"	"42"	"partlycloudy"	"METAR KBOS 221754Z 27013G21KT 10SM SCT047 M04/M16 A2985 RMK AO2 SLP108 T10441156 11039 21061 58002 $"	"-9999.00"	"-9999.00"	"29.85"	"1010.8"	"0"	"0"	"24.1"	"-4.4"	"0"	"0"	"10.0"	"16.1"	"270"	"West"	"24.2"	"38.9"	"11.5"	"-11.4"	"15.0"	"24.1"	
"20130122"	"Scattered Clouds"	"13"	"54"	"1.0"	"-17.2"	"0"	"0"	"-9999"	"-9999"	"39"	"partlycloudy"	"METAR KBOS 221854Z 27016G22KT 10SM SCT060 M05/M17 A2987 RMK AO2 SLP114 T10501172"	"-9999.00"	"-9999.00"	"29.87"	"1011.4"	"0"	"0"	"23.0"	"-5.0"	"0"	"0"	"10.0"	"16.1"	"270"	"West"	"25.3"	"40.7"	"8.7"	"-12.9"	"18.4"	"29.6"	
"20130122"	"Mostly Cloudy"	"14"	"54"	"-0.0"	"-17.8"	"0"	"0"	"-9999"	"-9999"	"35"	"mostlycloudy"	"METAR KBOS 221954Z 29015G20KT 10SM FEW035 BKN060 M04/M18 A2989 RMK AO2 SLP122 SHSN E T10441178"	"-9999.00"	"-9999.00"	"29.89"	"1012.2"	"0"	"0"	"24.1"	"-4.4"	"0"	"0"	"10.0"	"16.1"	"290"	"WNW"	"23.0"	"37.0"	"10.6"	"-11.9"	"17.3"	"27.8"	
"20130122"	"Mostly Cloudy"	"15"	"54"	"-0.9"	"-18.3"	"0"	"0"	"-9999"	"-9999"	"35"	"mostlycloudy"	"METAR KBOS 222054Z 29015KT 10SM FEW020 SCT035 BKN060 M05/M18 A2991 RMK AO2 SLP128 SHSN E T10501183 53020"	"-9999.00"	"-9999.00"	"29.91"	"1012.8"	"0"	"0"	"23.0"	"-5.0"	"0"	"0"	"10.0"	"16.1"	"290"	"WNW"	"-9999.0"	"-9999.0"	"9.2"	"-12.7"	"17.3"	"27.8"	
"20130122"	"Scattered Clouds"	"16"	"54"	"-2.9"	"-19.4"	"0"	"0"	"-9999"	"-9999"	"35"	"partlycloudy"	"METAR KBOS 222154Z 29015G22KT 10SM FEW035 SCT055 M06/M19 A2995 RMK AO2 SLP139 T10611194"	"-9999.00"	"-9999.00"	"29.94"	"1013.9"	"0"	"0"	"21.0"	"-6.1"	"0"	"0"	"10.0"	"16.1"	"290"	"WNW"	"25.3"	"40.7"	"6.6"	"-14.1"	"17.3"	"27.8"	
"20130122"	"Partly Cloudy"	"17"	"54"	"-4.0"	"-20.0"	"0"	"0"	"-9999"	"-9999"	"35"	"partlycloudy"	"METAR KBOS 222254Z 29017KT 10SM FEW055 M07/M20 A2998 RMK AO2 SLP152 T10671200"	"-9999.00"	"-9999.00"	"29.98"	"1015.2"	"0"	"0"	"19.9"	"-6.7"	"0"	"0"	"10.0"	"16.1"	"290"	"WNW"	"-9999.0"	"-9999.0"	"4.3"	"-15.4"	"19.6"	"31.5"	
"20130122"	"Clear"	"18"	"54"	"-2.9"	"-19.4"	"0"	"0"	"-9999"	"-9999"	"38"	"clear"	"METAR KBOS 222354Z 29017G20KT 10SM CLR M07/M19 A3002 RMK AO2 SLP163 T10721194 11039 21072 53035"	"-9999.00"	"-9999.00"	"30.01"	"1016.3"	"0"	"0"	"19.0"	"-7.2"	"0"	"0"	"10.0"	"16.1"	"290"	"WNW"	"23.0"	"37.0"	"3.2"	"-16.0"	"19.6"	"31.5"	
"20130122"	"Clear"	"19"	"54"	"-2.9"	"-19.4"	"0"	"0"	"-9999"	"-9999"	"40"	"clear"	"METAR KBOS 230054Z 29014G19KT 10SM CLR M08/M19 A3003 RMK AO2 SLP169 T10781194"	"-9999.00"	"-9999.00"	"30.03"	"1016.9"	"0"	"0"	"18.0"	"-7.8"	"0"	"0"	"10.0"	"16.1"	"290"	"WNW"	"21.9"	"35.2"	"3.1"	"-16.0"	"16.1"	"25.9"	
"20130122"	"Clear"	"20"	"54"	"-2.9"	"-19.4"	"0"	"0"	"-9999"	"-9999"	"41"	"clear"	"METAR KBOS 230154Z 29013KT 10SM CLR M08/M19 A3005 RMK AO2 SLP174 P0001 T10831194"	"0.01"	"0.3"	"30.05"	"1017.4"	"0"	"0"	"17.1"	"-8.3"	"0"	"0"	"10.0"	"16.1"	"290"	"WNW"	"-9999.0"	"-9999.0"	"2.5"	"-16.4"	"15.0"	"24.1"	
"20130122"	"Clear"	"21"	"54"	"-0.9"	"-18.3"	"0"	"0"	"-9999"	"-9999"	"47"	"clear"	"METAR KBOS 230254Z 30010G17KT 10SM CLR M09/M18 A3006 RMK AO2 SLP179 60001 T10891183 51016"	"-9999.00"	"-9999.00"	"30.06"	"1017.9"	"0"	"0"	"16.0"	"-8.9"	"0"	"0"	"10.0"	"16.1"	"300"	"WNW"	"19.6"	"31.5"	"2.9"	"-16.1"	"11.5"	"18.5"	
"20130122"	"Clear"	"22"	"54"	"-0.0"	"-17.8"	"0"	"0"	"-9999"	"-9999"	"51"	"clear"	"METAR KBOS 230354Z 28011G19KT 10SM CLR M09/M18 A3008 RMK AO2 SLP185 T10941178"	"-9999.00"	"-9999.00"	"30.08"	"1018.5"	"0"	"0"	"15.1"	"-9.4"	"0"	"0"	"10.0"	"16.1"	"280"	"West"	"21.9"	"35.2"	"1.1"	"-17.1"	"12.7"	"20.4"	
"20130122"	"Clear"	"23"	"54"	"-0.9"	"-18.3"	"0"	"0"	"-9999"	"-9999"	"49"	"clear"	"METAR KBOS 230454Z 29012G18KT 10SM CLR M09/M18 A3008 RMK AO2 SLP184 T10941183 410391094"	"-9999.00"	"-9999.00"	"30.08"	"1018.4"	"0"	"0"	"15.1"	"-9.4"	"0"	"0"	"10.0"	"16.1"	"290"	"WNW"	"20.7"	"33.3"	"0.5"	"-17.5"	"13.8"	"22.2"	
"20130121"	"Partly Cloudy"	"00"	"54"	"9.0"	"-12.8"	"0"	"0"	"-9999"	"-9999"	"43"	"partlycloudy"	"METAR KBOS 210554Z 29017G26KT 10SM FEW050 M02/M13 A2994 RMK AO2 PK WND 30026/0547 SLP137 T10171128 10028 21017 51013"	"-9999.00"	"-9999.00"	"29.94"	"1013.7"	"0"	"0"	"28.9"	"-1.7"	"0"	"0"	"10.0"	"16.1"	"290"	"WNW"	"29.9"	"48.2"	"16.1"	"-8.8"	"19.6"	"31.5"	
"20130121"	"Partly Cloudy"	"01"	"54"	"6.1"	"-14.4"	"0"	"0"	"-9999"	"-9999"	"41"	"partlycloudy"	"METAR KBOS 210654Z 29016G22KT 10SM FEW050 M03/M14 A2997 RMK AO2 PK WND 28030/0614 SLP149 T10281144"	"-9999.00"	"-9999.00"	"29.97"	"1014.9"	"0"	"0"	"27.0"	"-2.8"	"0"	"0"	"10.0"	"16.1"	"290"	"WNW"	"25.3"	"40.7"	"13.9"	"-10.1"	"18.4"	"29.6"	
"20130121"	"Clear"	"02"	"54"	"7.0"	"-13.9"	"0"	"0"	"-9999"	"-9999"	"44"	"clear"	"METAR KBOS 210754Z 29014G22KT 10SM CLR M03/M14 A3001 RMK AO2 SLP162 T10331139"	"-9999.00"	"-9999.00"	"30.01"	"1016.2"	"0"	"0"	"26.1"	"-3.3"	"0"	"0"	"10.0"	"16.1"	"290"	"WNW"	"25.3"	"40.7"	"13.6"	"-10.2"	"16.1"	"25.9"	
"20130121"	"Clear"	"03"	"54"	"3.9"	"-15.6"	"0"	"0"	"-9999"	"-9999"	"41"	"clear"	"METAR KBOS 210854Z 29012G26KT 10SM CLR M04/M16 A3002 RMK AO2 PK WND 30026/0848 SLP166 T10391156 51029"	"-9999.00"	"-9999.00"	"30.02"	"1016.6"	"0"	"0"	"25.0"	"-3.9"	"0"	"0"	"10.0"	"16.1"	"290"	"WNW"	"29.9"	"48.2"	"13.1"	"-10.5"	"13.8"	"22.2"	
"20130121"	"Clear"	"04"	"54"	"1.9"	"-16.7"	"0"	"0"	"-9999"	"-9999"	"38"	"clear"	"METAR KBOS 210954Z 27015G21KT 10SM CLR M04/M17 A3004 RMK AO2 SLP171 T10441167"	"-9999.00"	"-9999.00"	"30.04"	"1017.1"	"0"	"0"	"24.1"	"-4.4"	"0"	"0"	"10.0"	"16.1"	"270"	"West"	"24.2"	"38.9"	"10.6"	"-11.9"	"17.3"	"27.8"	
"20130121"	"Clear"	"05"	"54"	"5.0"	"-15.0"	"0"	"0"	"-9999"	"-9999"	"44"	"clear"	"METAR KBOS 211054Z 28009KT 10SM CLR M04/M15 A3005 RMK AO2 SLP176 T10441150"	"-9999.00"	"-9999.00"	"30.05"	"1017.6"	"0"	"0"	"24.1"	"-4.4"	"0"	"0"	"10.0"	"16.1"	"280"	"West"	"-9999.0"	"-9999.0"	"13.7"	"-10.2"	"10.4"	"16.7"	
"20130121"	"Clear"	"06"	"54"	"3.9"	"-15.6"	"0"	"0"	"-9999"	"-9999"	"44"	"clear"	"METAR KBOS 211154Z 28012KT 10SM CLR M05/M16 A3007 RMK AO2 SLP182 T10501156 11017 21050 53017"	"-9999.00"	"-9999.00"	"30.07"	"1018.2"	"0"	"0"	"23.0"	"-5.0"	"0"	"0"	"10.0"	"16.1"	"280"	"West"	"-9999.0"	"-9999.0"	"10.6"	"-11.9"	"13.8"	"22.2"	
"20130121"	"Clear"	"07"	"54"	"3.0"	"-16.1"	"0"	"0"	"-9999"	"-9999"	"42"	"clear"	"METAR KBOS 211254Z 27009KT 10SM CLR M05/M16 A3008 RMK AO2 SLP185 T10501161"	"-9999.00"	"-9999.00"	"30.08"	"1018.5"	"0"	"0"	"23.0"	"-5.0"	"0"	"0"	"10.0"	"16.1"	"270"	"West"	"-9999.0"	"-9999.0"	"12.4"	"-10.9"	"10.4"	"16.7"	
"20130121"	"Mostly Cloudy"	"08"	"54"	"3.0"	"-16.1"	"0"	"0"	"-9999"	"-9999"	"40"	"mostlycloudy"	"METAR KBOS 211354Z 26008KT 10SM BKN110 BKN280 M04/M16 A3009 RMK AO2 SLP190 T10441161"	"-9999.00"	"-9999.00"	"30.09"	"1019.0"	"0"	"0"	"24.1"	"-4.4"	"0"	"0"	"10.0"	"16.1"	"260"	"West"	"-9999.0"	"-9999.0"	"14.4"	"-9.8"	"9.2"	"14.8"	
"20130121"	"Mostly Cloudy"	"09"	"54"	"1.9"	"-16.7"	"0"	"0"	"-9999"	"-9999"	"38"	"mostlycloudy"	"METAR KBOS 211454Z 24010G15KT 10SM FEW060 BKN120 BKN280 M04/M17 A3011 RMK AO2 SLP194 T10441167 53012"	"-9999.00"	"-9999.00"	"30.11"	"1019.4"	"0"	"0"	"24.1"	"-4.4"	"0"	"0"	"10.0"	"16.1"	"240"	"WSW"	"17.3"	"27.8"	"13.1"	"-10.5"	"11.5"	"18.5"	
"20130121"	"Mostly Cloudy"	"10"	"54"	"3.9"	"-15.6"	"0"	"0"	"-9999"	"-9999"	"39"	"mostlycloudy"	"METAR KBOS 211554Z 25008KT 10SM FEW060 BKN110 BKN280 M03/M16 A3009 RMK AO2 SLP187 T10331156"	"-9999.00"	"-9999.00"	"30.09"	"1018.7"	"0"	"0"	"26.1"	"-3.3"	"0"	"0"	"10.0"	"16.1"	"250"	"WSW"	"-9999.0"	"-9999.0"	"16.8"	"-8.4"	"9.2"	"14.8"	
"20130121"	"Overcast"	"11"	"54"	"3.9"	"-15.6"	"0"	"0"	"-9999"	"-9999"	"37"	"cloudy"	"METAR KBOS 211654Z VRB06KT 10SM FEW060 BKN110 OVC280 M03/M16 A3004 RMK AO2 SLP172 T10281156"	"-9999.00"	"-9999.00"	"30.04"	"1017.2"	"0"	"0"	"27.0"	"-2.8"	"0"	"0"	"10.0"	"16.1"	"0"	"Variable"	"-9999.0"	"-9999.0"	"19.5"	"-6.9"	"6.9"	"11.1"	
"20130121"	"Overcast"	"12"	"54"	"3.9"	"-15.6"	"0"	"0"	"-9999"	"-9999"	"36"	"cloudy"	"METAR KBOS 211754Z 23009G15KT 10SM FEW060 BKN100 OVC280 M02/M16 A3001 RMK AO2 SLP161 T10221156 11022 21050 58034"	"-9999.00"	"-9999.00"	"30.01"	"1016.1"	"0"	"0"	"28.0"	"-2.2"	"0"	"0"	"10.0"	"16.1"	"230"	"SW"	"17.3"	"27.8"	"18.6"	"-7.4"	"10.4"	"16.7"	
"20130121"	"Overcast"	"13"	"54"	"3.9"	"-15.6"	"0"	"0"	"-9999"	"-9999"	"36"	"cloudy"	"METAR KBOS 211854Z 21012KT 10SM FEW060 BKN100 OVC280 M02/M16 A2999 RMK AO2 SLP154 T10221156"	"-9999.00"	"-9999.00"	"29.99"	"1015.4"	"0"	"0"	"28.0"	"-2.2"	"0"	"0"	"10.0"	"16.1"	"210"	"SSW"	"-9999.0"	"-9999.0"	"17.0"	"-8.3"	"13.8"	"22.2"	
"20130121"	"Overcast"	"14"	"54"	"5.0"	"-15.0"	"0"	"0"	"-9999"	"-9999"	"38"	"cloudy"	"METAR KBOS 211954Z 22007KT 10SM FEW045 BKN080 OVC280 M02/M15 A2998 RMK AO2 SLP152 T10221150"	"-9999.00"	"-9999.00"	"29.98"	"1015.2"	"0"	"0"	"28.0"	"-2.2"	"0"	"0"	"10.0"	"16.1"	"220"	"SW"	"-9999.0"	"-9999.0"	"20.0"	"-6.7"	"8.1"	"13.0"	
"20130121"	"Overcast"	"15"	"54"	"6.1"	"-14.4"	"0"	"0"	"-9999"	"-9999"	"39"	"cloudy"	"METAR KBOS 212054Z 23006KT 10SM FEW045 BKN075 OVC280 M02/M14 A2996 RMK AO2 SLP145 T10221144 58015"	"-9999.00"	"-9999.00"	"29.96"	"1014.5"	"0"	"0"	"28.0"	"-2.2"	"0"	"0"	"10.0"	"16.1"	"230"	"SW"	"-9999.0"	"-9999.0"	"20.8"	"-6.2"	"6.9"	"11.1"	
"20130121"	"Overcast"	"16"	"54"	"8.1"	"-13.3"	"0"	"0"	"-9999"	"-9999"	"45"	"cloudy"	"METAR KBOS 212154Z 20006KT 10SM FEW050 BKN075 OVC280 M03/M13 A2995 RMK AO2 SLP139 T10281133"	"-9999.00"	"-9999.00"	"29.94"	"1013.9"	"0"	"0"	"27.0"	"-2.8"	"0"	"0"	"10.0"	"16.1"	"200"	"SSW"	"-9999.0"	"-9999.0"	"19.5"	"-6.9"	"6.9"	"11.1"	
"20130121"	"Overcast"	"17"	"54"	"12.0"	"-11.1"	"0"	"0"	"-9999"	"-9999"	"55"	"cloudy"	"METAR KBOS 212254Z 25006KT 10SM BKN048 OVC090 M03/M11 A2995 RMK AO2 SLP140 T10331111"	"-9999.00"	"-9999.00"	"29.95"	"1014.0"	"0"	"0"	"26.1"	"-3.3"	"0"	"0"	"10.0"	"16.1"	"250"	"WSW"	"-9999.0"	"-9999.0"	"18.4"	"-7.5"	"6.9"	"11.1"	
"20130121"	"Light Snow"	"18"	"54"	"15.1"	"-9.4"	"0"	"0"	"-9999"	"-9999"	"66"	"snow"	"METAR KBOS 212354Z 31005KT 4SM -SN OVC034 M04/M09 A2994 RMK AO2 SNB06 SLP139 P0000 60000 T10391094 11022 21039 56006"	"0.00"	"0.0"	"29.94"	"1013.9"	"0"	"1"	"25.0"	"-3.9"	"0"	"0"	"4.0"	"6.4"	"310"	"NW"	"-9999.0"	"-9999.0"	"18.1"	"-7.7"	"5.8"	"9.3"	
"20130121"	"Light Snow"	"19"	"05"	"15.8"	"-9.0"	"0"	"0"	"-9999"	"-9999"	"69"	"snow"	"SPECI KBOS 220005Z 33003KT 2 1/2SM -SN OVC030 M04/M09 A2994 RMK AO2 P0000"	"0.00"	"0.0"	"29.94"	"1013.8"	"0"	"1"	"24.8"	"-4.0"	"0"	"0"	"2.5"	"4.0"	"330"	"NNW"	"-9999.0"	"-9999.0"	"20.5"	"-6.4"	"3.5"	"5.6"	
"20130121"	"Light Snow"	"19"	"13"	"15.8"	"-9.0"	"0"	"0"	"-9999"	"-9999"	"69"	"snow"	"SPECI KBOS 220013Z 33005KT 2 1/2SM -SN OVC028 M04/M09 A2994 RMK AO2 P0000"	"0.00"	"0.0"	"29.94"	"1013.8"	"0"	"1"	"24.8"	"-4.0"	"0"	"0"	"2.5"	"4.0"	"330"	"NNW"	"-9999.0"	"-9999.0"	"17.9"	"-7.8"	"5.8"	"9.3"	
"20130121"	"Light Snow"	"19"	"27"	"17.6"	"-8.0"	"0"	"0"	"-9999"	"-9999"	"74"	"snow"	"SPECI KBOS 220027Z 34004KT 1 3/4SM R04R/6000VP6000FT -SN OVC024 M04/M08 A2994 RMK AO2 P0000"	"0.00"	"0.0"	"29.94"	"1013.8"	"0"	"1"	"24.8"	"-4.0"	"0"	"0"	"1.8"	"2.8"	"340"	"NNW"	"-9999.0"	"-9999.0"	"19.1"	"-7.2"	"4.6"	"7.4"	
"20130121"	"Light Snow"	"19"	"51"	"17.6"	"-8.0"	"0"	"0"	"-9999"	"-9999"	"74"	"snow"	"SPECI KBOS 220051Z 01003KT 2SM -SN OVC024 M04/M08 A2993 RMK AO2 P0001"	"0.01"	"0.3"	"29.93"	"1013.4"	"0"	"1"	"24.8"	"-4.0"	"0"	"0"	"2.0"	"3.2"	"10"	"North"	"-9999.0"	"-9999.0"	"20.5"	"-6.4"	"3.5"	"5.6"	
"20130121"	"Light Snow"	"19"	"54"	"18.0"	"-7.8"	"0"	"0"	"-9999"	"-9999"	"77"	"snow"	"METAR KBOS 220054Z 02004KT 2SM -SN OVC024 M04/M08 A2993 RMK AO2 SLP135 P0001 T10441078"	"0.01"	"0.3"	"29.93"	"1013.5"	"0"	"1"	"24.1"	"-4.4"	"0"	"0"	"2.0"	"3.2"	"20"	"NNE"	"-9999.0"	"-9999.0"	"18.2"	"-7.7"	"4.6"	"7.4"	
"20130121"	"Light Snow"	"20"	"16"	"19.4"	"-7.0"	"0"	"0"	"-9999"	"-9999"	"80"	"snow"	"SPECI KBOS 220116Z 03004KT 2SM -SN OVC030 M04/M07 A2992 RMK AO2 P0000"	"0.00"	"0.0"	"29.92"	"1013.1"	"0"	"1"	"24.8"	"-4.0"	"0"	"0"	"2.0"	"3.2"	"30"	"NNE"	"-9999.0"	"-9999.0"	"19.1"	"-7.2"	"4.6"	"7.4"	
"20130121"	"Light Snow"	"20"	"40"	"19.4"	"-7.0"	"0"	"0"	"-9999"	"-9999"	"80"	"snow"	"SPECI KBOS 220140Z 02004KT 4SM -SN OVC047 M04/M07 A2992 RMK AO2 P0000"	"0.00"	"0.0"	"29.92"	"1013.1"	"0"	"1"	"24.8"	"-4.0"	"0"	"0"	"4.0"	"6.4"	"20"	"NNE"	"-9999.0"	"-9999.0"	"19.1"	"-7.2"	"4.6"	"7.4"	
"20130121"	"Light Snow"	"20"	"54"	"19.0"	"-7.2"	"0"	"0"	"-9999"	"-9999"	"81"	"snow"	"METAR KBOS 220154Z 02004KT 5SM -SN OVC045 M04/M07 A2992 RMK AO2 SLP130 P0000 T10441072"	"0.00"	"0.0"	"29.92"	"1013.0"	"0"	"1"	"24.1"	"-4.4"	"0"	"0"	"5.0"	"8.0"	"20"	"NNE"	"-9999.0"	"-9999.0"	"18.2"	"-7.7"	"4.6"	"7.4"	
"20130121"	"Light Snow"	"21"	"12"	"19.4"	"-7.0"	"0"	"0"	"-9999"	"-9999"	"80"	"snow"	"SPECI KBOS 220212Z 01005KT 2 1/2SM -SN OVC031 M04/M07 A2991 RMK AO2 P0000"	"0.00"	"0.0"	"29.91"	"1012.8"	"0"	"1"	"24.8"	"-4.0"	"0"	"0"	"2.5"	"4.0"	"10"	"North"	"-9999.0"	"-9999.0"	"17.9"	"-7.8"	"5.8"	"9.3"	
"20130121"	"Light Snow"	"21"	"23"	"19.4"	"-7.0"	"0"	"0"	"-9999"	"-9999"	"80"	"snow"	"SPECI KBOS 220223Z 01005KT 2SM -SN OVC025 M04/M07 A2989 RMK AO2 P0000"	"0.00"	"0.0"	"29.89"	"1012.1"	"0"	"1"	"24.8"	"-4.0"	"0"	"0"	"2.0"	"3.2"	"10"	"North"	"-9999.0"	"-9999.0"	"17.9"	"-7.8"	"5.8"	"9.3"	
"20130121"	"Light Snow"	"21"	"49"	"19.4"	"-7.0"	"0"	"0"	"-9999"	"-9999"	"86"	"snow"	"SPECI KBOS 220249Z 02005KT 4SM -SN BR OVC024 M05/M07 A2989 RMK AO2 P0000"	"0.00"	"0.0"	"29.89"	"1012.1"	"0"	"1"	"23.0"	"-5.0"	"0"	"0"	"4.0"	"6.4"	"20"	"NNE"	"-9999.0"	"-9999.0"	"15.8"	"-9.0"	"5.8"	"9.3"	
"20130121"	"Light Snow"	"21"	"54"	"19.0"	"-7.2"	"0"	"0"	"-9999"	"-9999"	"85"	"snow"	"METAR KBOS 220254Z 04004KT 5SM -SN BR BKN024 OVC100 M05/M07 A2988 RMK AO2 SLP119 P0000 60001 T10501072 56016"	"0.00"	"0.0"	"29.88"	"1011.9"	"0"	"1"	"23.0"	"-5.0"	"0"	"0"	"5.0"	"8.0"	"40"	"NE"	"-9999.0"	"-9999.0"	"17.0"	"-8.4"	"4.6"	"7.4"	
"20130121"	"Overcast"	"22"	"54"	"19.9"	"-6.7"	"0"	"0"	"-9999"	"-9999"	"84"	"cloudy"	"METAR KBOS 220354Z 36008KT 10SM BKN011 OVC100 M04/M07 A2984 RMK AO2 SNE02 SLP105 P0000 T10441067"	"0.00"	"0.0"	"29.84"	"1010.5"	"0"	"0"	"24.1"	"-4.4"	"0"	"0"	"10.0"	"16.1"	"360"	"North"	"-9999.0"	"-9999.0"	"14.4"	"-9.8"	"9.2"	"14.8"	
"20130121"	"Overcast"	"23"	"54"	"19.0"	"-7.2"	"0"	"0"	"-9999"	"-9999"	"81"	"cloudy"	"METAR KBOS 220454Z 36006KT 10SM BKN011 OVC075 M04/M07 A2980 RMK AO2 SNB01E09 SLP090 P0000 T10441072 410111050"	"0.00"	"0.0"	"29.80"	"1009.0"	"0"	"0"	"24.1"	"-4.4"	"0"	"0"	"10.0"	"16.1"	"360"	"North"	"-9999.0"	"-9999.0"	"16.0"	"-8.9"	"6.9"	"11.1"	
"20130120"	"Mostly Cloudy"	"00"	"54"	"30.9"	"-0.6"	"0"	"0"	"-9999"	"-9999"	"65"	"mostlycloudy"	"METAR KBOS 200554Z 20012G19KT 10SM BKN140 06/M01 A2986 RMK AO2 SLP110 T00561006 10056 20033 58036"	"-9999.00"	"-9999.00"	"29.86"	"1011.0"	"0"	"0"	"42.1"	"5.6"	"0"	"0"	"10.0"	"16.1"	"200"	"SSW"	"21.9"	"35.2"	"34.9"	"1.6"	"13.8"	"22.2"	
"20130120"	"Mostly Cloudy"	"01"	"54"	"30.9"	"-0.6"	"0"	"0"	"-9999"	"-9999"	"65"	"mostlycloudy"	"METAR KBOS 200654Z 21010KT 10SM BKN140 06/M01 A2984 RMK AO2 SLP105 T00561006"	"-9999.00"	"-9999.00"	"29.84"	"1010.5"	"0"	"0"	"42.1"	"5.6"	"0"	"0"	"10.0"	"16.1"	"210"	"SSW"	"-9999.0"	"-9999.0"	"35.7"	"2.0"	"11.5"	"18.5"	
"20130120"	"Scattered Clouds"	"02"	"54"	"30.0"	"-1.1"	"0"	"0"	"-9999"	"-9999"	"62"	"partlycloudy"	"METAR KBOS 200754Z 22009KT 10SM FEW140 SCT250 06/M01 A2981 RMK AO2 SLP094 T00561011"	"-9999.00"	"-9999.00"	"29.81"	"1009.4"	"0"	"0"	"42.1"	"5.6"	"0"	"0"	"10.0"	"16.1"	"220"	"SW"	"-9999.0"	"-9999.0"	"36.1"	"2.3"	"10.4"	"16.7"	
"20130120"	"Scattered Clouds"	"03"	"54"	"32.0"	"0.0"	"0"	"0"	"-9999"	"-9999"	"67"	"partlycloudy"	"METAR KBOS 200854Z 22012KT 10SM FEW110 SCT230 06/00 A2977 RMK AO2 SLP081 T00560000 58029"	"-9999.00"	"-9999.00"	"29.77"	"1008.1"	"0"	"0"	"42.1"	"5.6"	"0"	"0"	"10.0"	"16.1"	"220"	"SW"	"-9999.0"	"-9999.0"	"34.9"	"1.6"	"13.8"	"22.2"	
"20130120"	"Partly Cloudy"	"04"	"54"	"32.0"	"0.0"	"0"	"0"	"-9999"	"-9999"	"67"	"partlycloudy"	"METAR KBOS 200954Z 21015G22KT 10SM FEW230 06/00 A2973 RMK AO2 SLP067 T00560000"	"-9999.00"	"-9999.00"	"29.73"	"1006.7"	"0"	"0"	"42.1"	"5.6"	"0"	"0"	"10.0"	"16.1"	"210"	"SSW"	"25.3"	"40.7"	"33.9"	"1.1"	"17.3"	"27.8"	
"20130120"	"Partly Cloudy"	"05"	"54"	"30.9"	"-0.6"	"0"	"0"	"-9999"	"-9999"	"67"	"partlycloudy"	"METAR KBOS 201054Z 21013G19KT 10SM FEW230 05/M01 A2970 RMK AO2 SLP056 T00501006"	"-9999.00"	"-9999.00"	"29.70"	"1005.6"	"0"	"0"	"41.0"	"5.0"	"0"	"0"	"10.0"	"16.1"	"210"	"SSW"	"21.9"	"35.2"	"33.1"	"0.6"	"15.0"	"24.1"	
"20130120"	"Clear"	"06"	"54"	"30.9"	"-0.6"	"0"	"0"	"-9999"	"-9999"	"67"	"clear"	"METAR KBOS 201154Z 21016G22KT 10SM CLR 05/M01 A2967 RMK AO2 SLP045 T00501006 10061 20050 56036"	"-9999.00"	"-9999.00"	"29.67"	"1004.5"	"0"	"0"	"41.0"	"5.0"	"0"	"0"	"10.0"	"16.1"	"210"	"SSW"	"25.3"	"40.7"	"32.2"	"0.1"	"18.4"	"29.6"	
"20130120"	"Clear"	"07"	"54"	"30.9"	"-0.6"	"0"	"0"	"-9999"	"-9999"	"65"	"clear"	"METAR KBOS 201254Z 22015G21KT 10SM CLR 06/M01 A2965 RMK AO2 SLP040 T00561006"	"-9999.00"	"-9999.00"	"29.65"	"1004.0"	"0"	"0"	"42.1"	"5.6"	"0"	"0"	"10.0"	"16.1"	"220"	"SW"	"24.2"	"38.9"	"33.9"	"1.1"	"17.3"	"27.8"	
"20130120"	"Partly Cloudy"	"08"	"54"	"30.0"	"-1.1"	"0"	"0"	"-9999"	"-9999"	"58"	"partlycloudy"	"METAR KBOS 201354Z 22020G28KT 10SM FEW250 07/M01 A2964 RMK AO2 PK WND 22028/1345 SLP036 T00671011"	"-9999.00"	"-9999.00"	"29.64"	"1003.6"	"0"	"0"	"44.1"	"6.7"	"0"	"0"	"10.0"	"16.1"	"220"	"SW"	"32.2"	"51.9"	"35.2"	"1.8"	"23.0"	"37.0"	
"20130120"	"Scattered Clouds"	"09"	"54"	"28.9"	"-1.7"	"0"	"0"	"-9999"	"-9999"	"48"	"partlycloudy"	"METAR KBOS 201454Z 23022G27KT 10SM SCT250 09/M02 A2963 RMK AO2 PK WND 23027/1453 SLP033 T00891017 56012"	"-9999.00"	"-9999.00"	"29.63"	"1003.3"	"0"	"0"	"48.0"	"8.9"	"0"	"0"	"10.0"	"16.1"	"230"	"SW"	"31.1"	"50.0"	"-999"	"-999"	"25.3"	"40.7"	
"20130120"	"Scattered Clouds"	"10"	"54"	"28.0"	"-2.2"	"0"	"0"	"-9999"	"-9999"	"41"	"partlycloudy"	"METAR KBOS 201554Z 24021G36KT 10SM SCT250 11/M02 A2960 RMK AO2 PK WND 22039/1543 SLP022 T01061022"	"-9999.00"	"-9999.00"	"29.60"	"1002.2"	"0"	"0"	"51.1"	"10.6"	"0"	"0"	"10.0"	"16.1"	"240"	"WSW"	"41.4"	"66.7"	"-999"	"-999"	"24.2"	"38.9"	
"20130120"	"Scattered Clouds"	"11"	"54"	"27.0"	"-2.8"	"0"	"0"	"-9999"	"-9999"	"35"	"partlycloudy"	"METAR KBOS 201654Z 25022G39KT 10SM SCT250 12/M03 A2954 RMK AO2 PK WND 23039/1649 SLP002 T01221028"	"-9999.00"	"-9999.00"	"29.54"	"1000.2"	"0"	"0"	"54.0"	"12.2"	"0"	"0"	"10.0"	"16.1"	"250"	"WSW"	"44.9"	"72.2"	"-999"	"-999"	"25.3"	"40.7"	
"20130120"	"Mostly Cloudy"	"12"	"54"	"26.1"	"-3.3"	"0"	"0"	"-9999"	"-9999"	"34"	"mostlycloudy"	"METAR KBOS 201754Z 25021G35KT 10SM SCT065 BKN250 12/M03 A2955 RMK AO2 PK WND 25040/1656 SLP004 T01221033 10122 20050 55028"	"-9999.00"	"-9999.00"	"29.55"	"1000.4"	"0"	"0"	"54.0"	"12.2"	"0"	"0"	"10.0"	"16.1"	"250"	"WSW"	"40.3"	"64.8"	"-999"	"-999"	"24.2"	"38.9"	
"20130120"	"Overcast"	"13"	"54"	"26.1"	"-3.3"	"0"	"0"	"-9999"	"-9999"	"37"	"cloudy"	"METAR KBOS 201854Z 27020G29KT 10SM BKN070 OVC250 11/M03 A2957 RMK AO2 PK WND 27034/1835 SLP013 T01111033"	"-9999.00"	"-9999.00"	"29.57"	"1001.3"	"0"	"0"	"52.0"	"11.1"	"0"	"0"	"10.0"	"16.1"	"270"	"West"	"33.4"	"53.7"	"-999"	"-999"	"23.0"	"37.0"	
"20130120"	"Overcast"	"14"	"54"	"28.0"	"-2.2"	"0"	"0"	"-9999"	"-9999"	"48"	"cloudy"	"METAR KBOS 201954Z 30017G26KT 10SM BKN070 OVC220 08/M02 A2963 RMK AO2 PK WND 28030/1902 SLP031 T00831022"	"-9999.00"	"-9999.00"	"29.62"	"1003.1"	"0"	"0"	"46.9"	"8.3"	"0"	"0"	"10.0"	"16.1"	"300"	"WNW"	"29.9"	"48.2"	"-999"	"-999"	"19.6"	"31.5"	
"20130120"	"Mostly Cloudy"	"15"	"54"	"21.9"	"-5.6"	"0"	"0"	"-9999"	"-9999"	"37"	"mostlycloudy"	"METAR KBOS 202054Z 27017G24KT 10SM SCT070 BKN250 08/M06 A2965 RMK AO2 PK WND 27028/2040 SLP040 T00831056 51035"	"-9999.00"	"-9999.00"	"29.65"	"1004.0"	"0"	"0"	"46.9"	"8.3"	"0"	"0"	"10.0"	"16.1"	"270"	"West"	"27.6"	"44.4"	"-999"	"-999"	"19.6"	"31.5"	
"20130120"	"Scattered Clouds"	"16"	"54"	"19.9"	"-6.7"	"0"	"0"	"-9999"	"-9999"	"37"	"partlycloudy"	"METAR KBOS 202154Z 30012G18KT 10SM FEW070 SCT250 07/M07 A2969 RMK AO2 SLP054 T00721067"	"-9999.00"	"-9999.00"	"29.69"	"1005.4"	"0"	"0"	"45.0"	"7.2"	"0"	"0"	"10.0"	"16.1"	"300"	"WNW"	"20.7"	"33.3"	"38.5"	"3.6"	"13.8"	"22.2"	
"20130120"	"Mostly Cloudy"	"17"	"54"	"14.0"	"-10.0"	"0"	"0"	"-9999"	"-9999"	"33"	"mostlycloudy"	"METAR KBOS 202254Z 30015G26KT 10SM BKN250 05/M10 A2975 RMK AO2 PK WND 30029/2238 SLP073 T00501100"	"-9999.00"	"-9999.00"	"29.75"	"1007.3"	"0"	"0"	"41.0"	"5.0"	"0"	"0"	"10.0"	"16.1"	"300"	"WNW"	"29.9"	"48.2"	"32.5"	"0.3"	"17.3"	"27.8"	
"20130120"	"Partly Cloudy"	"18"	"54"	"14.0"	"-10.0"	"0"	"0"	"-9999"	"-9999"	"39"	"partlycloudy"	"METAR KBOS 202354Z 29017G28KT 10SM FEW250 03/M10 A2980 RMK AO2 PK WND 29032/2328 SLP089 T00281100 10122 20028 53049"	"-9999.00"	"-9999.00"	"29.80"	"1008.9"	"0"	"0"	"37.0"	"2.8"	"0"	"0"	"10.0"	"16.1"	"290"	"WNW"	"32.2"	"51.9"	"26.7"	"-2.9"	"19.6"	"31.5"	
"20130120"	"Clear"	"19"	"54"	"12.0"	"-11.1"	"0"	"0"	"-9999"	"-9999"	"40"	"clear"	"METAR KBOS 210054Z 29018G24KT 10SM CLR 01/M11 A2983 RMK AO2 PK WND 29031/0009 SLP100 T00111111"	"-9999.00"	"-9999.00"	"29.83"	"1010.0"	"0"	"0"	"34.0"	"1.1"	"0"	"0"	"10.0"	"16.1"	"290"	"WNW"	"27.6"	"44.4"	"22.4"	"-5.3"	"20.7"	"33.3"	
"20130120"	"Clear"	"20"	"54"	"10.0"	"-12.2"	"0"	"0"	"-9999"	"-9999"	"40"	"clear"	"METAR KBOS 210154Z 29017G28KT 10SM CLR 00/M12 A2987 RMK AO2 PK WND 29030/0139 SLP115 T00001122"	"-9999.00"	"-9999.00"	"29.87"	"1011.5"	"0"	"0"	"32.0"	"0.0"	"0"	"0"	"10.0"	"16.1"	"290"	"WNW"	"32.2"	"51.9"	"20.1"	"-6.6"	"19.6"	"31.5"	
"20130120"	"Clear"	"21"	"54"	"8.1"	"-13.3"	"0"	"0"	"-9999"	"-9999"	"38"	"clear"	"METAR KBOS 210254Z 29016G25KT 10SM CLR M01/M13 A2990 RMK AO2 PK WND 29032/0241 SLP124 T10061133 51035"	"-9999.00"	"-9999.00"	"29.90"	"1012.4"	"0"	"0"	"30.9"	"-0.6"	"0"	"0"	"10.0"	"16.1"	"290"	"WNW"	"28.8"	"46.3"	"19.1"	"-7.2"	"18.4"	"29.6"	
"20130120"	"Clear"	"22"	"54"	"8.1"	"-13.3"	"0"	"0"	"-9999"	"-9999"	"40"	"clear"	"METAR KBOS 210354Z 27018G23KT 10SM CLR M01/M13 A2992 RMK AO2 PK WND 28027/0307 SLP130 T10111133"	"-9999.00"	"-9999.00"	"29.92"	"1013.0"	"0"	"0"	"30.0"	"-1.1"	"0"	"0"	"10.0"	"16.1"	"270"	"West"	"26.5"	"42.6"	"17.2"	"-8.2"	"20.7"	"33.3"	
"20130120"	"Clear"	"23"	"54"	"8.1"	"-13.3"	"0"	"0"	"-9999"	"-9999"	"40"	"clear"	"METAR KBOS 210454Z 29013G22KT 10SM CLR M01/M13 A2992 RMK AO2 PK WND 28026/0437 SLP132 T10111133 401221011"	"-9999.00"	"-9999.00"	"29.92"	"1013.2"	"0"	"0"	"30.0"	"-1.1"	"0"	"0"	"10.0"	"16.1"	"290"	"WNW"	"25.3"	"40.7"	"19.1"	"-7.2"	"15.0"	"24.1"	
"20130119"	"Overcast"	"00"	"54"	"6.1"	"-14.4"	"0"	"0"	"-9999"	"-9999"	"45"	"cloudy"	"METAR KBOS 190554Z 20010KT 10SM OVC085 M04/M14 A3038 RMK AO2 SLP288 T10391144 11039 21056 58021"	"-9999.00"	"-9999.00"	"30.38"	"1028.8"	"0"	"0"	"25.0"	"-3.9"	"0"	"0"	"10.0"	"16.1"	"200"	"SSW"	"-9999.0"	"-9999.0"	"14.2"	"-9.9"	"11.5"	"18.5"	
"20130119"	"Overcast"	"01"	"54"	"10.0"	"-12.2"	"0"	"0"	"-9999"	"-9999"	"51"	"cloudy"	"METAR KBOS 190654Z 20014G19KT 10SM BKN070 OVC080 M03/M12 A3036 RMK AO2 SLP278 T10331122"	"-9999.00"	"-9999.00"	"30.35"	"1027.8"	"0"	"0"	"26.1"	"-3.3"	"0"	"0"	"10.0"	"16.1"	"200"	"SSW"	"21.9"	"35.2"	"13.6"	"-10.2"	"16.1"	"25.9"	
"20130119"	"Mostly Cloudy"	"02"	"54"	"12.0"	"-11.1"	"0"	"0"	"-9999"	"-9999"	"53"	"mostlycloudy"	"METAR KBOS 190754Z 20013KT 10SM SCT080 SCT100 BKN120 M03/M11 A3031 RMK AO2 CIG 100 E SLP264 T10281111"	"-9999.00"	"-9999.00"	"30.31"	"1026.4"	"0"	"0"	"27.0"	"-2.8"	"0"	"0"	"10.0"	"16.1"	"200"	"SSW"	"-9999.0"	"-9999.0"	"15.2"	"-9.4"	"15.0"	"24.1"	
"20130119"	"Clear"	"03"	"54"	"14.0"	"-10.0"	"0"	"0"	"-9999"	"-9999"	"56"	"clear"	"METAR KBOS 190854Z 21014KT 10SM CLR M02/M10 A3029 RMK AO2 SLP257 T10221100 56031"	"-9999.00"	"-9999.00"	"30.29"	"1025.7"	"0"	"0"	"28.0"	"-2.2"	"0"	"0"	"10.0"	"16.1"	"210"	"SSW"	"-9999.0"	"-9999.0"	"16.1"	"-8.8"	"16.1"	"25.9"	
"20130119"	"Scattered Clouds"	"04"	"54"	"16.0"	"-8.9"	"0"	"0"	"-9999"	"-9999"	"56"	"partlycloudy"	"METAR KBOS 190954Z 21015G26KT 10SM SCT085 M01/M09 A3026 RMK AO2 PK WND 21026/0949 SLP244 T10111089"	"-9999.00"	"-9999.00"	"30.25"	"1024.4"	"0"	"0"	"30.0"	"-1.1"	"0"	"0"	"10.0"	"16.1"	"210"	"SSW"	"29.9"	"48.2"	"18.3"	"-7.6"	"17.3"	"27.8"	
"20130119"	"Mostly Cloudy"	"05"	"54"	"19.0"	"-7.2"	"0"	"0"	"-9999"	"-9999"	"59"	"mostlycloudy"	"METAR KBOS 191054Z 22016G20KT 10SM BKN100 00/M07 A3023 RMK AO2 SLP235 T00001072"	"-9999.00"	"-9999.00"	"30.23"	"1023.5"	"0"	"0"	"32.0"	"0.0"	"0"	"0"	"10.0"	"16.1"	"220"	"SW"	"23.0"	"37.0"	"20.5"	"-6.4"	"18.4"	"29.6"	
"20130119"	"Scattered Clouds"	"06"	"54"	"19.9"	"-6.7"	"0"	"0"	"-9999"	"-9999"	"59"	"partlycloudy"	"METAR KBOS 191154Z 22018G23KT 10SM SCT100 01/M07 A3021 RMK AO2 SLP228 T00061067 10006 21039 56029"	"-9999.00"	"-9999.00"	"30.21"	"1022.8"	"0"	"0"	"33.1"	"0.6"	"0"	"0"	"10.0"	"16.1"	"220"	"SW"	"26.5"	"42.6"	"21.2"	"-6.0"	"20.7"	"33.3"	
"20130119"	"Scattered Clouds"	"07"	"54"	"21.0"	"-6.1"	"0"	"0"	"-9999"	"-9999"	"59"	"partlycloudy"	"METAR KBOS 191254Z 22018G24KT 10SM SCT100 01/M06 A3019 RMK AO2 SLP224 T00111061"	"-9999.00"	"-9999.00"	"30.19"	"1022.4"	"0"	"0"	"34.0"	"1.1"	"0"	"0"	"10.0"	"16.1"	"220"	"SW"	"27.6"	"44.4"	"22.4"	"-5.3"	"20.7"	"33.3"	
"20130119"	"Scattered Clouds"	"08"	"54"	"23.0"	"-5.0"	"0"	"0"	"-9999"	"-9999"	"57"	"partlycloudy"	"METAR KBOS 191354Z 22018G29KT 10SM SCT100 03/M05 A3018 RMK AO2 PK WND 22029/1346 SLP220 T00281050"	"-9999.00"	"-9999.00"	"30.18"	"1022.0"	"0"	"0"	"37.0"	"2.8"	"0"	"0"	"10.0"	"16.1"	"220"	"SW"	"33.4"	"53.7"	"26.4"	"-3.1"	"20.7"	"33.3"	
"20130119"	"Scattered Clouds"	"09"	"54"	"25.0"	"-3.9"	"0"	"0"	"-9999"	"-9999"	"53"	"partlycloudy"	"METAR KBOS 191454Z 22021G32KT 10SM SCT110 05/M04 A3016 RMK AO2 PK WND 23032/1448 SLP212 T00501039 58017"	"-9999.00"	"-9999.00"	"30.16"	"1021.2"	"0"	"0"	"41.0"	"5.0"	"0"	"0"	"10.0"	"16.1"	"220"	"SW"	"36.8"	"59.3"	"30.9"	"-0.6"	"24.2"	"38.9"	
"20130119"	"Scattered Clouds"	"10"	"54"	"24.1"	"-4.4"	"0"	"0"	"-9999"	"-9999"	"47"	"partlycloudy"	"METAR KBOS 191554Z 23021G31KT 10SM SCT110 06/M04 A3012 RMK AO2 PK WND 24033/1533 SLP199 T00611044"	"-9999.00"	"-9999.00"	"30.12"	"1019.9"	"0"	"0"	"43.0"	"6.1"	"0"	"0"	"10.0"	"16.1"	"230"	"SW"	"35.7"	"57.4"	"33.5"	"0.9"	"24.2"	"38.9"	
"20130119"	"Mostly Cloudy"	"11"	"54"	"24.1"	"-4.4"	"0"	"0"	"-9999"	"-9999"	"44"	"mostlycloudy"	"METAR KBOS 191654Z COR 22018G28KT 10SM SCT110 BKN180 07/M04 A3006 RMK AO2 PK WND 22034/1639 SLP179 T00721044"	"-9999.00"	"-9999.00"	"30.06"	"1017.9"	"0"	"0"	"45.0"	"7.2"	"0"	"0"	"10.0"	"16.1"	"220"	"SW"	"32.2"	"51.9"	"36.9"	"2.7"	"20.7"	"33.3"	
"20130119"	"Mostly Cloudy"	"12"	"54"	"24.1"	"-4.4"	"0"	"0"	"-9999"	"-9999"	"39"	"mostlycloudy"	"METAR KBOS 191754Z 22018G33KT 10SM BKN120 BKN160 BKN260 09/M04 A3003 RMK AO2 PK WND 23033/1747 SLP169 T00891044 10089 20006 56043"	"-9999.00"	"-9999.00"	"30.03"	"1016.9"	"0"	"0"	"48.0"	"8.9"	"0"	"0"	"10.0"	"16.1"	"220"	"SW"	"38.0"	"61.1"	"-999"	"-999"	"20.7"	"33.3"	
"20130119"	"Mostly Cloudy"	"13"	"54"	"23.0"	"-5.0"	"0"	"0"	"-9999"	"-9999"	"37"	"mostlycloudy"	"METAR KBOS 191854Z 23022G29KT 10SM SCT120 SCT160 BKN260 09/M05 A3001 RMK AO2 PK WND 23030/1800 SLP161 T00891050"	"-9999.00"	"-9999.00"	"30.01"	"1016.1"	"0"	"0"	"48.0"	"8.9"	"0"	"0"	"10.0"	"16.1"	"230"	"SW"	"33.4"	"53.7"	"-999"	"-999"	"25.3"	"40.7"	
"20130119"	"Scattered Clouds"	"14"	"54"	"21.9"	"-5.6"	"0"	"0"	"-9999"	"-9999"	"35"	"partlycloudy"	"METAR KBOS 191954Z 23022G30KT 10SM FEW120 SCT260 09/M06 A3000 RMK AO2 PK WND 22033/1912 SLP158 T00941056"	"-9999.00"	"-9999.00"	"30.00"	"1015.8"	"0"	"0"	"48.9"	"9.4"	"0"	"0"	"10.0"	"16.1"	"230"	"SW"	"34.5"	"55.6"	"-999"	"-999"	"25.3"	"40.7"	
"20130119"	"Mostly Cloudy"	"15"	"54"	"23.0"	"-5.0"	"0"	"0"	"-9999"	"-9999"	"39"	"mostlycloudy"	"METAR KBOS 192054Z 23021G26KT 10SM FEW120 SCT180 BKN280 08/M05 A2999 RMK AO2 PK WND 23030/2025 SLP155 T00831050 56014"	"-9999.00"	"-9999.00"	"29.99"	"1015.5"	"0"	"0"	"46.9"	"8.3"	"0"	"0"	"10.0"	"16.1"	"230"	"SW"	"29.9"	"48.2"	"-999"	"-999"	"24.2"	"38.9"	
"20130119"	"Mostly Cloudy"	"16"	"54"	"23.0"	"-5.0"	"0"	"0"	"-9999"	"-9999"	"42"	"mostlycloudy"	"METAR KBOS 192154Z 23016G22KT 10SM FEW130 BKN280 07/M05 A3000 RMK AO2 PK WND 22028/2114 SLP159 T00721050"	"-9999.00"	"-9999.00"	"30.00"	"1015.9"	"0"	"0"	"45.0"	"7.2"	"0"	"0"	"10.0"	"16.1"	"230"	"SW"	"25.3"	"40.7"	"37.4"	"3.0"	"18.4"	"29.6"	
"20130119"	"Scattered Clouds"	"17"	"54"	"24.1"	"-4.4"	"0"	"0"	"-9999"	"-9999"	"47"	"partlycloudy"	"METAR KBOS 192254Z 23011KT 10SM FEW130 SCT280 06/M04 A3001 RMK AO2 SLP162 T00611044"	"-9999.00"	"-9999.00"	"30.01"	"1016.2"	"0"	"0"	"43.0"	"6.1"	"0"	"0"	"10.0"	"16.1"	"230"	"SW"	"-9999.0"	"-9999.0"	"36.4"	"2.4"	"12.7"	"20.4"	
"20130119"	"Scattered Clouds"	"18"	"54"	"26.1"	"-3.3"	"0"	"0"	"-9999"	"-9999"	"55"	"partlycloudy"	"METAR KBOS 192354Z 21011KT 10SM FEW130 SCT280 05/M03 A3001 RMK AO2 SLP161 T00501033 10094 20050 51006"	"-9999.00"	"-9999.00"	"30.01"	"1016.1"	"0"	"0"	"41.0"	"5.0"	"0"	"0"	"10.0"	"16.1"	"210"	"SSW"	"-9999.0"	"-9999.0"	"33.9"	"1.0"	"12.7"	"20.4"	
"20130119"	"Partly Cloudy"	"19"	"54"	"27.0"	"-2.8"	"0"	"0"	"-9999"	"-9999"	"57"	"partlycloudy"	"METAR KBOS 200054Z 22010KT 10SM FEW140 05/M03 A3000 RMK AO2 SLP158 T00501028"	"-9999.00"	"-9999.00"	"30.00"	"1015.8"	"0"	"0"	"41.0"	"5.0"	"0"	"0"	"10.0"	"16.1"	"220"	"SW"	"-9999.0"	"-9999.0"	"34.3"	"1.3"	"11.5"	"18.5"	
"20130119"	"Partly Cloudy"	"20"	"54"	"28.0"	"-2.2"	"0"	"0"	"-9999"	"-9999"	"65"	"partlycloudy"	"METAR KBOS 200154Z 21009KT 10SM FEW140 04/M02 A2999 RMK AO2 SLP155 T00391022"	"-9999.00"	"-9999.00"	"29.99"	"1015.5"	"0"	"0"	"39.0"	"3.9"	"0"	"0"	"10.0"	"16.1"	"210"	"SSW"	"-9999.0"	"-9999.0"	"32.3"	"0.2"	"10.4"	"16.7"	
"20130119"	"Mostly Cloudy"	"21"	"54"	"28.9"	"-1.7"	"0"	"0"	"-9999"	"-9999"	"70"	"mostlycloudy"	"METAR KBOS 200254Z 19008KT 10SM BKN110 03/M02 A2997 RMK AO2 SLP147 T00331017 58015"	"-9999.00"	"-9999.00"	"29.97"	"1014.7"	"0"	"0"	"37.9"	"3.3"	"0"	"0"	"10.0"	"16.1"	"190"	"South"	"-9999.0"	"-9999.0"	"31.5"	"-0.3"	"9.2"	"14.8"	
"20130119"	"Mostly Cloudy"	"22"	"54"	"30.9"	"-0.6"	"0"	"0"	"-9999"	"-9999"	"70"	"mostlycloudy"	"METAR KBOS 200354Z 20010KT 10SM FEW110 BKN140 04/M01 A2993 RMK AO2 SLP135 T00441006"	"-9999.00"	"-9999.00"	"29.93"	"1013.5"	"0"	"0"	"39.9"	"4.4"	"0"	"0"	"10.0"	"16.1"	"200"	"SSW"	"-9999.0"	"-9999.0"	"32.9"	"0.5"	"11.5"	"18.5"	
"20130119"	"Mostly Cloudy"	"23"	"54"	"30.9"	"-0.6"	"0"	"0"	"-9999"	"-9999"	"67"	"mostlycloudy"	"METAR KBOS 200454Z 21012KT 10SM FEW100 BKN130 05/M01 A2990 RMK AO2 SLP123 T00501006 400941044"	"-9999.00"	"-9999.00"	"29.90"	"1012.3"	"0"	"0"	"41.0"	"5.0"	"0"	"0"	"10.0"	"16.1"	"210"	"SSW"	"-9999.0"	"-9999.0"	"33.5"	"0.8"	"13.8"	"22.2"	
"20130118"	"Mostly Cloudy"	"00"	"54"	"7.0"	"-13.9"	"0"	"0"	"-9999"	"-9999"	"40"	"mostlycloudy"	"METAR KBOS 180554Z 33010KT 10SM BKN120 M02/M14 A3009 RMK AO2 SLP188 T10171139 10028 21017 53001"	"-9999.00"	"-9999.00"	"30.09"	"1018.8"	"0"	"0"	"28.9"	"-1.7"	"0"	"0"	"10.0"	"16.1"	"330"	"NNW"	"-9999.0"	"-9999.0"	"19.2"	"-7.1"	"11.5"	"18.5"	
"20130118"	"Mostly Cloudy"	"01"	"54"	"3.9"	"-15.6"	"0"	"0"	"-9999"	"-9999"	"35"	"mostlycloudy"	"METAR KBOS 180654Z 35009KT 10SM SCT070 BKN120 M02/M16 A3007 RMK AO2 SLP183 T10171156"	"-9999.00"	"-9999.00"	"30.07"	"1018.3"	"0"	"0"	"28.9"	"-1.7"	"0"	"0"	"10.0"	"16.1"	"350"	"North"	"-9999.0"	"-9999.0"	"19.8"	"-6.8"	"10.4"	"16.7"	
"20130118"	"Overcast"	"02"	"54"	"3.0"	"-16.1"	"0"	"0"	"-9999"	"-9999"	"34"	"cloudy"	"METAR KBOS 180754Z 34009G18KT 10SM OVC060 M02/M16 A3011 RMK AO2 SLP195 T10221161"	"-9999.00"	"-9999.00"	"30.11"	"1019.5"	"0"	"0"	"28.0"	"-2.2"	"0"	"0"	"10.0"	"16.1"	"340"	"NNW"	"20.7"	"33.3"	"18.6"	"-7.4"	"10.4"	"16.7"	
"20130118"	"Overcast"	"03"	"54"	"1.0"	"-17.2"	"0"	"0"	"-9999"	"-9999"	"34"	"cloudy"	"METAR KBOS 180854Z 36013KT 10SM OVC065 M03/M17 A3012 RMK AO2 PRESRR SLP199 T10331172 53012"	"-9999.00"	"-9999.00"	"30.12"	"1019.9"	"0"	"0"	"26.1"	"-3.3"	"0"	"0"	"10.0"	"16.1"	"360"	"North"	"-9999.0"	"-9999.0"	"14.0"	"-10.0"	"15.0"	"24.1"	
"20130118"	"Overcast"	"04"	"54"	"-7.1"	"-21.7"	"0"	"0"	"-9999"	"-9999"	"27"	"cloudy"	"METAR KBOS 180954Z 34013G20KT 10SM OVC080 M05/M22 A3014 RMK AO2 SLP204 T10501217"	"-9999.00"	"-9999.00"	"30.14"	"1020.4"	"0"	"0"	"23.0"	"-5.0"	"0"	"0"	"10.0"	"16.1"	"340"	"NNW"	"23.0"	"37.0"	"10.1"	"-12.2"	"15.0"	"24.1"	
"20130118"	"Overcast"	"05"	"54"	"-4.0"	"-20.0"	"0"	"0"	"-9999"	"-9999"	"33"	"cloudy"	"METAR KBOS 181054Z 34015G22KT 9SM OVC080 M06/M20 A3019 RMK AO2 SLP220 T10611200"	"-9999.00"	"-9999.00"	"30.18"	"1022.0"	"0"	"0"	"21.0"	"-6.1"	"0"	"0"	"9.0"	"14.5"	"340"	"NNW"	"25.3"	"40.7"	"6.6"	"-14.1"	"17.3"	"27.8"	
"20130118"	"Scattered Clouds"	"06"	"54"	"-5.1"	"-20.6"	"0"	"0"	"-9999"	"-9999"	"34"	"partlycloudy"	"METAR KBOS 181154Z 35012G18KT 10SM FEW050 SCT080 M07/M21 A3023 RMK AO2 SLP237 T10721206 11017 21072 53038"	"-9999.00"	"-9999.00"	"30.23"	"1023.7"	"0"	"0"	"19.0"	"-7.2"	"0"	"0"	"10.0"	"16.1"	"350"	"North"	"20.7"	"33.3"	"5.6"	"-14.7"	"13.8"	"22.2"	
"20130118"	"Scattered Clouds"	"07"	"54"	"-2.9"	"-19.4"	"0"	"0"	"-9999"	"-9999"	"38"	"partlycloudy"	"METAR KBOS 181254Z 31013G21KT 10SM FEW050 SCT080 M07/M19 A3028 RMK AO2 SLP254 T10721194"	"-9999.00"	"-9999.00"	"30.28"	"1025.4"	"0"	"0"	"19.0"	"-7.2"	"0"	"0"	"10.0"	"16.1"	"310"	"NW"	"24.2"	"38.9"	"5.0"	"-15.0"	"15.0"	"24.1"	
"20130118"	"Partly Cloudy"	"08"	"54"	"-2.9"	"-19.4"	"0"	"0"	"-9999"	"-9999"	"38"	"partlycloudy"	"METAR KBOS 181354Z 33011KT 10SM FEW050 M07/M19 A3033 RMK AO2 SLP269 T10721194"	"-9999.00"	"-9999.00"	"30.33"	"1026.9"	"0"	"0"	"19.0"	"-7.2"	"0"	"0"	"10.0"	"16.1"	"330"	"NNW"	"-9999.0"	"-9999.0"	"6.1"	"-14.4"	"12.7"	"20.4"	
"20130118"	"Partly Cloudy"	"09"	"54"	"-8.0"	"-22.2"	"0"	"0"	"-9999"	"-9999"	"29"	"partlycloudy"	"METAR KBOS 181454Z COR 34012G20KT 10SM FEW050 M07/M22 A3035 RMK AO2 SLP278 T10671222 51041"	"-9999.00"	"-9999.00"	"30.35"	"1027.8"	"0"	"0"	"19.9"	"-6.7"	"0"	"0"	"10.0"	"16.1"	"340"	"NNW"	"23.0"	"37.0"	"6.7"	"-14.1"	"13.8"	"22.2"	
"20130118"	"Partly Cloudy"	"10"	"54"	"-7.1"	"-21.7"	"0"	"0"	"-9999"	"-9999"	"29"	"partlycloudy"	"METAR KBOS 181554Z 31016G25KT 10SM FEW050 M06/M22 A3036 RMK AO2 PK WND 32028/1524 SLP280 T10611217"	"-9999.00"	"-9999.00"	"30.36"	"1028.0"	"0"	"0"	"21.0"	"-6.1"	"0"	"0"	"10.0"	"16.1"	"310"	"NW"	"28.8"	"46.3"	"6.2"	"-14.4"	"18.4"	"29.6"	
"20130118"	"Partly Cloudy"	"11"	"54"	"-5.1"	"-20.6"	"0"	"0"	"-9999"	"-9999"	"29"	"partlycloudy"	"METAR KBOS 181654Z 32014G20KT 10SM FEW050 M05/M21 A3035 RMK AO2 SLP277 T10501206"	"-9999.00"	"-9999.00"	"30.35"	"1027.7"	"0"	"0"	"23.0"	"-5.0"	"0"	"0"	"10.0"	"16.1"	"320"	"NW"	"23.0"	"37.0"	"9.6"	"-12.4"	"16.1"	"25.9"	
"20130118"	"Partly Cloudy"	"12"	"54"	"-5.1"	"-20.6"	"0"	"0"	"-9999"	"-9999"	"28"	"partlycloudy"	"METAR KBOS 181754Z 30012KT 10SM FEW050 M04/M21 A3035 RMK AO2 SLP276 T10441206 11044 21072 58002"	"-9999.00"	"-9999.00"	"30.35"	"1027.6"	"0"	"0"	"24.1"	"-4.4"	"0"	"0"	"10.0"	"16.1"	"300"	"WNW"	"-9999.0"	"-9999.0"	"12.0"	"-11.1"	"13.8"	"22.2"	
"20130118"	"Partly Cloudy"	"13"	"54"	"-5.1"	"-20.6"	"0"	"0"	"-9999"	"-9999"	"27"	"partlycloudy"	"METAR KBOS 181854Z 29013G18KT 10SM FEW050 M04/M21 A3037 RMK AO2 SLP282 T10391206"	"-9999.00"	"-9999.00"	"30.37"	"1028.2"	"0"	"0"	"25.0"	"-3.9"	"0"	"0"	"10.0"	"16.1"	"290"	"WNW"	"20.7"	"33.3"	"12.6"	"-10.8"	"15.0"	"24.1"	
"20130118"	"Partly Cloudy"	"14"	"54"	"-6.0"	"-21.1"	"0"	"0"	"-9999"	"-9999"	"25"	"partlycloudy"	"METAR KBOS 181954Z 29017G23KT 10SM FEW050 M03/M21 A3038 RMK AO2 SLP286 T10331211"	"-9999.00"	"-9999.00"	"30.38"	"1028.6"	"0"	"0"	"26.1"	"-3.3"	"0"	"0"	"10.0"	"16.1"	"290"	"WNW"	"26.5"	"42.6"	"12.3"	"-10.9"	"19.6"	"31.5"	
"20130118"	"Partly Cloudy"	"15"	"54"	"-6.0"	"-21.1"	"0"	"0"	"-9999"	"-9999"	"26"	"partlycloudy"	"METAR KBOS 182054Z 29013G16KT 10SM FEW050 M04/M21 A3039 RMK AO2 SLP289 T10391211 51013"	"-9999.00"	"-9999.00"	"30.39"	"1028.9"	"0"	"0"	"25.0"	"-3.9"	"0"	"0"	"10.0"	"16.1"	"290"	"WNW"	"18.4"	"29.6"	"12.6"	"-10.8"	"15.0"	"24.1"	
"20130118"	"Partly Cloudy"	"16"	"54"	"-4.0"	"-20.0"	"0"	"0"	"-9999"	"-9999"	"29"	"partlycloudy"	"METAR KBOS 182154Z 29007KT 10SM FEW280 M04/M20 A3041 RMK AO2 SLP296 T10441200"	"-9999.00"	"-9999.00"	"30.41"	"1029.6"	"0"	"0"	"24.1"	"-4.4"	"0"	"0"	"10.0"	"16.1"	"290"	"WNW"	"-9999.0"	"-9999.0"	"15.2"	"-9.3"	"8.1"	"13.0"	
"20130118"	"Partly Cloudy"	"17"	"54"	"-4.0"	"-20.0"	"0"	"0"	"-9999"	"-9999"	"31"	"partlycloudy"	"METAR KBOS 182254Z 28008KT 10SM FEW280 M05/M20 A3043 RMK AO2 SLP304 T10501200"	"-9999.00"	"-9999.00"	"30.43"	"1030.4"	"0"	"0"	"23.0"	"-5.0"	"0"	"0"	"10.0"	"16.1"	"280"	"West"	"-9999.0"	"-9999.0"	"13.1"	"-10.5"	"9.2"	"14.8"	
"20130118"	"Clear"	"18"	"54"	"-2.0"	"-18.9"	"0"	"0"	"-9999"	"-9999"	"34"	"clear"	"METAR KBOS 182354Z 26009KT 10SM CLR M05/M19 A3045 RMK AO2 SLP311 T10501189 11033 21050 51022"	"-9999.00"	"-9999.00"	"30.45"	"1031.1"	"0"	"0"	"23.0"	"-5.0"	"0"	"0"	"10.0"	"16.1"	"260"	"West"	"-9999.0"	"-9999.0"	"12.4"	"-10.9"	"10.4"	"16.7"	
"20130118"	"Partly Cloudy"	"19"	"54"	"1.9"	"-16.7"	"0"	"0"	"-9999"	"-9999"	"40"	"partlycloudy"	"METAR KBOS 190054Z 24010KT 10SM FEW300 M05/M17 A3046 RMK AO2 SLP312 T10501167"	"-9999.00"	"-9999.00"	"30.45"	"1031.2"	"0"	"0"	"23.0"	"-5.0"	"0"	"0"	"10.0"	"16.1"	"240"	"WSW"	"-9999.0"	"-9999.0"	"11.7"	"-11.3"	"11.5"	"18.5"	
"20130118"	"Partly Cloudy"	"20"	"54"	"1.0"	"-17.2"	"0"	"0"	"-9999"	"-9999"	"39"	"partlycloudy"	"METAR KBOS 190154Z 24010KT 10SM FEW300 M05/M17 A3046 RMK AO2 SLP313 T10501172"	"-9999.00"	"-9999.00"	"30.46"	"1031.3"	"0"	"0"	"23.0"	"-5.0"	"0"	"0"	"10.0"	"16.1"	"240"	"WSW"	"-9999.0"	"-9999.0"	"11.7"	"-11.3"	"11.5"	"18.5"	
"20130118"	"Clear"	"21"	"54"	"3.0"	"-16.1"	"0"	"0"	"-9999"	"-9999"	"44"	"clear"	"METAR KBOS 190254Z 22008KT 10SM CLR M06/M16 A3045 RMK AO2 SLP309 T10561161 58001"	"-9999.00"	"-9999.00"	"30.45"	"1030.9"	"0"	"0"	"21.9"	"-5.6"	"0"	"0"	"10.0"	"16.1"	"220"	"SW"	"-9999.0"	"-9999.0"	"11.7"	"-11.3"	"9.2"	"14.8"	
"20130118"	"Clear"	"22"	"54"	"3.9"	"-15.6"	"0"	"0"	"-9999"	"-9999"	"46"	"clear"	"METAR KBOS 190354Z 21008KT 10SM CLR M06/M16 A3043 RMK AO2 SLP304 T10561156"	"-9999.00"	"-9999.00"	"30.43"	"1030.4"	"0"	"0"	"21.9"	"-5.6"	"0"	"0"	"10.0"	"16.1"	"210"	"SSW"	"-9999.0"	"-9999.0"	"11.7"	"-11.3"	"9.2"	"14.8"	
"20130118"	"Mostly Cloudy"	"23"	"54"	"5.0"	"-15.0"	"0"	"0"	"-9999"	"-9999"	"44"	"mostlycloudy"	"METAR KBOS 190454Z 21007KT 10SM BKN095 M04/M15 A3042 RMK AO2 SLP298 T10441150 410111072"	"-9999.00"	"-9999.00"	"30.41"	"1029.8"	"0"	"0"	"24.1"	"-4.4"	"0"	"0"	"10.0"	"16.1"	"210"	"SSW"	"-9999.0"	"-9999.0"	"15.2"	"-9.3"	"8.1"	"13.0"	
"20130117"	"Mostly Cloudy"	"00"	"54"	"30.9"	"-0.6"	"0"	"0"	"-9999"	"-9999"	"92"	"mostlycloudy"	"METAR KBOS 170554Z 24008KT 10SM BKN010 01/M01 A2985 RMK AO2 SLP107 T00061006 10011 20006 53002"	"-9999.00"	"-9999.00"	"29.85"	"1010.7"	"0"	"0"	"33.1"	"0.6"	"0"	"0"	"10.0"	"16.1"	"240"	"WSW"	"-9999.0"	"-9999.0"	"25.5"	"-3.6"	"9.2"	"14.8"	
"20130117"	"Mostly Cloudy"	"01"	"54"	"30.9"	"-0.6"	"0"	"0"	"-9999"	"-9999"	"92"	"mostlycloudy"	"METAR KBOS 170654Z 24009KT 10SM BKN010 01/M01 A2986 RMK AO2 SLP111 T00061006"	"-9999.00"	"-9999.00"	"29.86"	"1011.1"	"0"	"0"	"33.1"	"0.6"	"0"	"0"	"10.0"	"16.1"	"240"	"WSW"	"-9999.0"	"-9999.0"	"24.9"	"-3.9"	"10.4"	"16.7"	
"20130117"	"Partly Cloudy"	"02"	"54"	"30.9"	"-0.6"	"0"	"0"	"-9999"	"-9999"	"92"	"partlycloudy"	"METAR KBOS 170754Z 23010KT 10SM FEW050 01/M01 A2986 RMK AO2 SLP111 T00061006"	"-9999.00"	"-9999.00"	"29.86"	"1011.1"	"0"	"0"	"33.1"	"0.6"	"0"	"0"	"10.0"	"16.1"	"230"	"SW"	"-9999.0"	"-9999.0"	"24.4"	"-4.2"	"11.5"	"18.5"	
"20130117"	"Partly Cloudy"	"03"	"54"	"30.0"	"-1.1"	"0"	"0"	"-9999"	"-9999"	"92"	"partlycloudy"	"METAR KBOS 170854Z 24008KT 10SM FEW080 00/M01 A2986 RMK AO2 SLP109 T00001011 50002"	"-9999.00"	"-9999.00"	"29.86"	"1010.9"	"0"	"0"	"32.0"	"0.0"	"0"	"0"	"10.0"	"16.1"	"240"	"WSW"	"-9999.0"	"-9999.0"	"24.2"	"-4.4"	"9.2"	"14.8"	
"20130117"	"Partly Cloudy"	"04"	"54"	"30.0"	"-1.1"	"0"	"0"	"-9999"	"-9999"	"92"	"partlycloudy"	"METAR KBOS 170954Z 23010KT 10SM FEW080 00/M01 A2985 RMK AO2 SLP107 T00001011"	"-9999.00"	"-9999.00"	"29.85"	"1010.7"	"0"	"0"	"32.0"	"0.0"	"0"	"0"	"10.0"	"16.1"	"230"	"SW"	"-9999.0"	"-9999.0"	"23.0"	"-5.0"	"11.5"	"18.5"	
"20130117"	"Scattered Clouds"	"05"	"54"	"30.0"	"-1.1"	"0"	"0"	"-9999"	"-9999"	"92"	"partlycloudy"	"METAR KBOS 171054Z 23011KT 10SM FEW080 SCT220 00/M01 A2987 RMK AO2 SLP114 T00001011"	"-9999.00"	"-9999.00"	"29.87"	"1011.4"	"0"	"0"	"32.0"	"0.0"	"0"	"0"	"10.0"	"16.1"	"230"	"SW"	"-9999.0"	"-9999.0"	"22.5"	"-5.3"	"12.7"	"20.4"	
"20130117"	"Scattered Clouds"	"06"	"54"	"28.9"	"-1.7"	"0"	"0"	"-9999"	"-9999"	"88"	"partlycloudy"	"METAR KBOS 171154Z 22010KT 10SM FEW080 SCT220 00/M02 A2990 RMK AO2 SLP122 70023 T00001017 10006 20000 53014"	"-9999.00"	"-9999.00"	"29.89"	"1012.2"	"0"	"0"	"32.0"	"0.0"	"0"	"0"	"10.0"	"16.1"	"220"	"SW"	"-9999.0"	"-9999.0"	"23.0"	"-5.0"	"11.5"	"18.5"	
"20130117"	"Scattered Clouds"	"07"	"54"	"28.9"	"-1.7"	"0"	"0"	"-9999"	"-9999"	"82"	"partlycloudy"	"METAR KBOS 171254Z 27010KT 10SM FEW100 SCT220 01/M02 A2993 RMK AO2 SLP133 T00111017"	"-9999.00"	"-9999.00"	"29.93"	"1013.3"	"0"	"0"	"34.0"	"1.1"	"0"	"0"	"10.0"	"16.1"	"270"	"West"	"-9999.0"	"-9999.0"	"25.5"	"-3.6"	"11.5"	"18.5"	
"20130117"	"Scattered Clouds"	"08"	"54"	"26.1"	"-3.3"	"0"	"0"	"-9999"	"-9999"	"67"	"partlycloudy"	"METAR KBOS 171354Z 27011G17KT 10SM FEW100 SCT220 02/M03 A2995 RMK AO2 SLP142 T00221033"	"-9999.00"	"-9999.00"	"29.95"	"1014.2"	"0"	"0"	"36.0"	"2.2"	"0"	"0"	"10.0"	"16.1"	"270"	"West"	"19.6"	"31.5"	"27.5"	"-2.5"	"12.7"	"20.4"	
"20130117"	"Mostly Cloudy"	"09"	"54"	"27.0"	"-2.8"	"0"	"0"	"-9999"	"-9999"	"70"	"mostlycloudy"	"METAR KBOS 171454Z 26012KT 10SM FEW100 BKN220 02/M03 A2997 RMK AO2 SLP147 T00221028 51024"	"-9999.00"	"-9999.00"	"29.97"	"1014.7"	"0"	"0"	"36.0"	"2.2"	"0"	"0"	"10.0"	"16.1"	"260"	"West"	"-9999.0"	"-9999.0"	"27.1"	"-2.7"	"13.8"	"22.2"	
"20130117"	"Mostly Cloudy"	"10"	"54"	"28.0"	"-2.2"	"0"	"0"	"-9999"	"-9999"	"68"	"mostlycloudy"	"METAR KBOS 171554Z 24011KT 10SM FEW070 SCT150 BKN220 03/M02 A2996 RMK AO2 SLP146 T00331022"	"-9999.00"	"-9999.00"	"29.96"	"1014.6"	"0"	"0"	"37.9"	"3.3"	"0"	"0"	"10.0"	"16.1"	"240"	"WSW"	"-9999.0"	"-9999.0"	"30.0"	"-1.1"	"12.7"	"20.4"	
"20130117"	"Mostly Cloudy"	"11"	"54"	"28.9"	"-1.7"	"0"	"0"	"-9999"	"-9999"	"65"	"mostlycloudy"	"METAR KBOS 171654Z 28013G20KT 10SM FEW030 SCT150 BKN220 04/M02 A2996 RMK AO2 SLP145 T00441017"	"-9999.00"	"-9999.00"	"29.96"	"1014.5"	"0"	"0"	"39.9"	"4.4"	"0"	"0"	"10.0"	"16.1"	"280"	"West"	"23.0"	"37.0"	"31.8"	"-0.1"	"15.0"	"24.1"	
"20130117"	"Mostly Cloudy"	"12"	"54"	"30.0"	"-1.1"	"0"	"0"	"-9999"	"-9999"	"62"	"mostlycloudy"	"METAR KBOS 171754Z 28013G18KT 10SM FEW030 SCT150 BKN220 06/M01 A2997 RMK AO2 SLP147 T00561011 10056 21006 53000"	"-9999.00"	"-9999.00"	"29.97"	"1014.7"	"0"	"0"	"42.1"	"5.6"	"0"	"0"	"10.0"	"16.1"	"280"	"West"	"20.7"	"33.3"	"34.5"	"1.4"	"15.0"	"24.1"	
"20130117"	"Mostly Cloudy"	"13"	"54"	"28.0"	"-2.2"	"0"	"0"	"-9999"	"-9999"	"60"	"mostlycloudy"	"METAR KBOS 171854Z 29012G20KT 10SM FEW035 SCT150 BKN220 05/M02 A2998 RMK AO2 SLP150 T00501022"	"-9999.00"	"-9999.00"	"29.98"	"1015.0"	"0"	"0"	"41.0"	"5.0"	"0"	"0"	"10.0"	"16.1"	"290"	"WNW"	"23.0"	"37.0"	"33.5"	"0.8"	"13.8"	"22.2"	
"20130117"	"Mostly Cloudy"	"14"	"54"	"25.0"	"-3.9"	"0"	"0"	"-9999"	"-9999"	"51"	"mostlycloudy"	"METAR KBOS 171954Z 28014G18KT 10SM SCT045 SCT150 BKN220 06/M04 A2999 RMK AO2 SLP156 T00561039"	"-9999.00"	"-9999.00"	"29.99"	"1015.6"	"0"	"0"	"42.1"	"5.6"	"0"	"0"	"10.0"	"16.1"	"280"	"West"	"20.7"	"33.3"	"34.2"	"1.2"	"16.1"	"25.9"	
"20130117"	"Mostly Cloudy"	"15"	"54"	"24.1"	"-4.4"	"0"	"0"	"-9999"	"-9999"	"51"	"mostlycloudy"	"METAR KBOS 172054Z 30008G16KT 10SM FEW045 SCT150 BKN220 05/M04 A3001 RMK AO2 SLP162 T00501044 53015"	"-9999.00"	"-9999.00"	"30.01"	"1016.2"	"0"	"0"	"41.0"	"5.0"	"0"	"0"	"10.0"	"16.1"	"300"	"WNW"	"18.4"	"29.6"	"35.2"	"1.8"	"9.2"	"14.8"	
"20130117"	"Mostly Cloudy"	"16"	"54"	"24.1"	"-4.4"	"0"	"0"	"-9999"	"-9999"	"55"	"mostlycloudy"	"METAR KBOS 172154Z 35010KT 10SM FEW045 SCT150 BKN220 04/M04 A3004 RMK AO2 PRESRR SLP172 T00391044"	"-9999.00"	"-9999.00"	"30.04"	"1017.2"	"0"	"0"	"39.0"	"3.9"	"0"	"0"	"10.0"	"16.1"	"350"	"North"	"-9999.0"	"-9999.0"	"31.8"	"-0.1"	"11.5"	"18.5"	
"20130117"	"Mostly Cloudy"	"17"	"54"	"24.1"	"-4.4"	"0"	"0"	"-9999"	"-9999"	"59"	"mostlycloudy"	"METAR KBOS 172254Z 34007KT 10SM SCT045 SCT150 BKN220 03/M04 A3005 RMK AO2 SLP175 T00281044"	"-9999.00"	"-9999.00"	"30.05"	"1017.5"	"0"	"0"	"37.0"	"2.8"	"0"	"0"	"10.0"	"16.1"	"340"	"NNW"	"-9999.0"	"-9999.0"	"31.0"	"-0.6"	"8.1"	"13.0"	
"20130117"	"Mostly Cloudy"	"18"	"54"	"21.9"	"-5.6"	"0"	"0"	"-9999"	"-9999"	"54"	"mostlycloudy"	"METAR KBOS 172354Z 32010KT 10SM BKN039 BKN150 BKN220 03/M06 A3009 RMK AO2 SLP189 T00281056 10056 20022 53027"	"-9999.00"	"-9999.00"	"30.09"	"1018.9"	"0"	"0"	"37.0"	"2.8"	"0"	"0"	"10.0"	"16.1"	"320"	"NW"	"-9999.0"	"-9999.0"	"29.3"	"-1.5"	"11.5"	"18.5"	
"20130117"	"Mostly Cloudy"	"19"	"54"	"19.0"	"-7.2"	"0"	"0"	"-9999"	"-9999"	"54"	"mostlycloudy"	"METAR KBOS 180054Z 34008KT 10SM SCT040 BKN150 BKN220 01/M07 A3009 RMK AO2 SLP188 T00111072"	"-9999.00"	"-9999.00"	"30.09"	"1018.8"	"0"	"0"	"34.0"	"1.1"	"0"	"0"	"10.0"	"16.1"	"340"	"NNW"	"-9999.0"	"-9999.0"	"26.6"	"-3.0"	"9.2"	"14.8"	
"20130117"	"Overcast"	"20"	"54"	"17.1"	"-8.3"	"0"	"0"	"-9999"	"-9999"	"52"	"cloudy"	"METAR KBOS 180154Z 34009KT 10SM FEW040 BKN140 OVC220 01/M08 A3008 RMK AO2 SLP185 T00061083"	"-9999.00"	"-9999.00"	"30.08"	"1018.5"	"0"	"0"	"33.1"	"0.6"	"0"	"0"	"10.0"	"16.1"	"340"	"NNW"	"-9999.0"	"-9999.0"	"24.9"	"-3.9"	"10.4"	"16.7"	
"20130117"	"Overcast"	"21"	"54"	"15.1"	"-9.4"	"0"	"0"	"-9999"	"-9999"	"50"	"cloudy"	"METAR KBOS 180254Z 33010KT 10SM FEW040 BKN140 OVC220 00/M09 A3008 RMK AO2 SLP186 T00001094 55003"	"-9999.00"	"-9999.00"	"30.08"	"1018.6"	"0"	"0"	"32.0"	"0.0"	"0"	"0"	"10.0"	"16.1"	"330"	"NNW"	"-9999.0"	"-9999.0"	"23.0"	"-5.0"	"11.5"	"18.5"	
"20130117"	"Overcast"	"22"	"54"	"12.9"	"-10.6"	"0"	"0"	"-9999"	"-9999"	"47"	"cloudy"	"METAR KBOS 180354Z 33007KT 10SM OVC055 M01/M11 A3010 RMK AO2 SLP190 T10061106"	"-9999.00"	"-9999.00"	"30.09"	"1019.0"	"0"	"0"	"30.9"	"-0.6"	"0"	"0"	"10.0"	"16.1"	"330"	"NNW"	"-9999.0"	"-9999.0"	"23.5"	"-4.7"	"8.1"	"13.0"	
"20130117"	"Mostly Cloudy"	"23"	"54"	"10.0"	"-12.2"	"0"	"0"	"-9999"	"-9999"	"43"	"mostlycloudy"	"METAR KBOS 180454Z 35009KT 10SM BKN100 M01/M12 A3007 RMK AO2 SLP183 T10111122 400561011"	"-9999.00"	"-9999.00"	"30.07"	"1018.3"	"0"	"0"	"30.0"	"-1.1"	"0"	"0"	"10.0"	"16.1"	"350"	"North"	"-9999.0"	"-9999.0"	"21.1"	"-6.1"	"10.4"	"16.7"	
"20130116"	"Overcast"	"00"	"54"	"21.9"	"-5.6"	"0"	"0"	"-9999"	"-9999"	"57"	"cloudy"	"METAR KBOS 160554Z 35005KT 10SM OVC080 02/M06 A3025 RMK AO2 SLP242 T00221056 10039 20017 56007"	"-9999.00"	"-9999.00"	"30.25"	"1024.2"	"0"	"0"	"36.0"	"2.2"	"0"	"0"	"10.0"	"16.1"	"350"	"North"	"-9999.0"	"-9999.0"	"31.1"	"-0.5"	"5.8"	"9.3"	
"20130116"	"Overcast"	"01"	"54"	"23.0"	"-5.0"	"0"	"0"	"-9999"	"-9999"	"61"	"cloudy"	"METAR KBOS 160654Z 02004KT 10SM OVC100 02/M05 A3023 RMK AO2 SLP236 T00171050"	"-9999.00"	"-9999.00"	"30.23"	"1023.6"	"0"	"0"	"35.1"	"1.7"	"0"	"0"	"10.0"	"16.1"	"20"	"NNE"	"-9999.0"	"-9999.0"	"31.0"	"-0.5"	"4.6"	"7.4"	
"20130116"	"Overcast"	"02"	"54"	"23.0"	"-5.0"	"0"	"0"	"-9999"	"-9999"	"59"	"cloudy"	"METAR KBOS 160754Z 01004KT 10SM OVC033 02/M05 A3022 RMK AO2 SLP233 T00221050"	"-9999.00"	"-9999.00"	"30.22"	"1023.3"	"0"	"0"	"36.0"	"2.2"	"0"	"0"	"10.0"	"16.1"	"10"	"North"	"-9999.0"	"-9999.0"	"32.1"	"0.0"	"4.6"	"7.4"	
"20130116"	"Overcast"	"03"	"54"	"21.9"	"-5.6"	"0"	"0"	"-9999"	"-9999"	"59"	"cloudy"	"METAR KBOS 160854Z 02007KT 10SM OVC031 02/M06 A3018 RMK AO2 PRESFR SLP219 T00171056 58023"	"-9999.00"	"-9999.00"	"30.18"	"1021.9"	"0"	"0"	"35.1"	"1.7"	"0"	"0"	"10.0"	"16.1"	"20"	"NNE"	"-9999.0"	"-9999.0"	"28.6"	"-1.9"	"8.1"	"13.0"	
"20130116"	"Light Snow"	"04"	"15"	"23.0"	"-5.0"	"0"	"0"	"-9999"	"-9999"	"60"	"snow"	"SPECI KBOS 160915Z 04005KT 6SM -SN BKN027 OVC033 02/M05 A3017 RMK AO2 SNB07 P0000"	"0.00"	"0.0"	"30.17"	"1021.6"	"0"	"1"	"35.6"	"2.0"	"0"	"0"	"6.0"	"9.7"	"40"	"NE"	"-9999.0"	"-9999.0"	"30.7"	"-0.7"	"5.8"	"9.3"	
"20130116"	"Light Snow"	"04"	"39"	"24.8"	"-4.0"	"0"	"0"	"-9999"	"-9999"	"70"	"snow"	"SPECI KBOS 160939Z 04005KT 2SM -SN OVC021 01/M04 A3017 RMK AO2 SNB07 P0000"	"0.00"	"0.0"	"30.17"	"1021.6"	"0"	"1"	"33.8"	"1.0"	"0"	"0"	"2.0"	"3.2"	"40"	"NE"	"-9999.0"	"-9999.0"	"28.6"	"-1.9"	"5.8"	"9.3"	
"20130116"	"Light Snow"	"04"	"47"	"24.8"	"-4.0"	"0"	"0"	"-9999"	"-9999"	"70"	"snow"	"SPECI KBOS 160947Z 03004KT 1 3/4SM -SN OVC019 01/M04 A3017 RMK AO2 TWR VIS 2 SNB07 P0000"	"0.00"	"0.0"	"30.17"	"1021.6"	"0"	"1"	"33.8"	"1.0"	"0"	"0"	"1.8"	"2.8"	"30"	"NNE"	"-9999.0"	"-9999.0"	"29.6"	"-1.4"	"4.6"	"7.4"	
"20130116"	"Light Snow"	"04"	"54"	"25.0"	"-3.9"	"0"	"0"	"-9999"	"-9999"	"72"	"snow"	"METAR KBOS 160954Z 03004KT 1 3/4SM -SN OVC019 01/M04 A3017 RMK AO2 TWR VIS 2 SNB07 SLP216 P0000 T00061039"	"0.00"	"0.0"	"30.17"	"1021.6"	"0"	"1"	"33.1"	"0.6"	"0"	"0"	"1.8"	"2.8"	"30"	"NNE"	"-9999.0"	"-9999.0"	"28.7"	"-1.8"	"4.6"	"7.4"	
"20130116"	"Light Snow"	"05"	"19"	"26.6"	"-3.0"	"0"	"0"	"-9999"	"-9999"	"80"	"snow"	"SPECI KBOS 161019Z 36003KT 1SM R04R/P6000FT -SN FEW007 OVC015 00/M03 A3016 RMK AO2 P0001"	"0.01"	"0.3"	"30.16"	"1021.2"	"0"	"1"	"32.0"	"0.0"	"0"	"0"	"1.0"	"1.6"	"360"	"North"	"-9999.0"	"-9999.0"	"28.7"	"-1.8"	"3.5"	"5.6"	
"20130116"	"Light Snow"	"05"	"28"	"26.6"	"-3.0"	"0"	"0"	"-9999"	"-9999"	"80"	"snow"	"SPECI KBOS 161028Z 36004KT 1SM R04R/6000VP6000FT -SN FEW007 OVC013 00/M03 A3015 RMK AO2 P0002"	"0.02"	"0.5"	"30.15"	"1020.9"	"0"	"1"	"32.0"	"0.0"	"0"	"0"	"1.0"	"1.6"	"360"	"North"	"-9999.0"	"-9999.0"	"27.5"	"-2.5"	"4.6"	"7.4"	
"20130116"	"Light Snow"	"05"	"36"	"28.4"	"-2.0"	"0"	"0"	"-9999"	"-9999"	"87"	"snow"	"SPECI KBOS 161036Z 36004KT 3/4SM R04R/6000VP6000FT -SN BR FEW005 OVC011 00/M02 A3015 RMK AO2 TWR VIS 1 P0003"	"0.03"	"0.8"	"30.15"	"1020.9"	"0"	"1"	"32.0"	"0.0"	"0"	"0"	"0.8"	"1.2"	"360"	"North"	"-9999.0"	"-9999.0"	"27.5"	"-2.5"	"4.6"	"7.4"	
"20130116"	"Light Snow"	"05"	"45"	"28.4"	"-2.0"	"0"	"0"	"-9999"	"-9999"	"87"	"snow"	"SPECI KBOS 161045Z 34004KT 1SM R04R/P6000FT -SN BR SCT005 OVC009 00/M02 A3015 RMK AO2 P0004"	"0.04"	"1.0"	"30.15"	"1020.9"	"0"	"1"	"32.0"	"0.0"	"0"	"0"	"1.0"	"1.6"	"340"	"NNW"	"-9999.0"	"-9999.0"	"27.5"	"-2.5"	"4.6"	"7.4"	
"20130116"	"Light Snow"	"05"	"54"	"28.0"	"-2.2"	"0"	"0"	"-9999"	"-9999"	"89"	"snow"	"METAR KBOS 161054Z 35005KT 1SM R04R/5500VP6000FT -SN BR SCT005 OVC009 M01/M02 A3015 RMK AO2 SLP207 P0006 T10061022"	"0.06"	"1.5"	"30.14"	"1020.7"	"0"	"1"	"30.9"	"-0.6"	"0"	"0"	"1.0"	"1.6"	"350"	"North"	"-9999.0"	"-9999.0"	"25.2"	"-3.8"	"5.8"	"9.3"	
"20130116"	"Light Snow"	"06"	"23"	"28.4"	"-2.0"	"0"	"0"	"-9999"	"-9999"	"93"	"snow"	"SPECI KBOS 161123Z 35007KT 1SM R04R/4000VP6000FT -SN BR FEW004 OVC010 M01/M02 A3013 RMK AO2 P0003"	"0.03"	"0.8"	"30.13"	"1020.2"	"0"	"1"	"30.2"	"-1.0"	"0"	"0"	"1.0"	"1.6"	"350"	"North"	"-9999.0"	"-9999.0"	"22.6"	"-5.2"	"8.1"	"13.0"	
"20130116"	"Light Snow"	"06"	"47"	"28.4"	"-2.0"	"0"	"0"	"-9999"	"-9999"	"93"	"snow"	"SPECI KBOS 161147Z 35007KT 1SM R04R/3500V6000FT -SN BR VV009 M01/M02 A3012 RMK AO2 P0007"	"0.07"	"1.8"	"30.12"	"1019.9"	"0"	"1"	"30.2"	"-1.0"	"0"	"0"	"1.0"	"1.6"	"350"	"North"	"-9999.0"	"-9999.0"	"22.6"	"-5.2"	"8.1"	"13.0"	
"20130116"	"Light Snow"	"06"	"54"	"28.0"	"-2.2"	"0"	"0"	"-9999"	"-9999"	"89"	"snow"	"METAR KBOS 161154Z 35007KT 1SM R04R/4500VP6000FT -SN BR FEW004 OVC009 M01/M02 A3012 RMK AO2 SLP197 P0008 60014 70014 T10061022 10022 21006 58022"	"0.08"	"2.0"	"30.12"	"1019.7"	"0"	"1"	"30.9"	"-0.6"	"0"	"0"	"1.0"	"1.6"	"350"	"North"	"-9999.0"	"-9999.0"	"23.5"	"-4.7"	"8.1"	"13.0"	
"20130116"	"Light Snow"	"07"	"08"	"28.4"	"-2.0"	"0"	"0"	"-9999"	"-9999"	"93"	"snow"	"SPECI KBOS 161208Z 34006KT 1SM R04R/5000V6000FT -SN BR VV011 M01/M02 A3013 RMK AO2 P0001"	"0.01"	"0.3"	"30.13"	"1020.2"	"0"	"1"	"30.2"	"-1.0"	"0"	"0"	"1.0"	"1.6"	"340"	"NNW"	"-9999.0"	"-9999.0"	"23.4"	"-4.8"	"6.9"	"11.1"	
"20130116"	"Light Snow"	"07"	"15"	"28.4"	"-2.0"	"0"	"0"	"-9999"	"-9999"	"93"	"snow"	"SPECI KBOS 161215Z 35007KT 1SM R04R/4000V5500FT -SN BR FEW005 OVC011 M01/M02 A3013 RMK AO2 P0002"	"0.02"	"0.5"	"30.13"	"1020.2"	"0"	"1"	"30.2"	"-1.0"	"0"	"0"	"1.0"	"1.6"	"350"	"North"	"-9999.0"	"-9999.0"	"22.6"	"-5.2"	"8.1"	"13.0"	
"20130116"	"Snow"	"07"	"40"	"28.4"	"-2.0"	"1"	"0"	"-9999"	"-9999"	"93"	"snow"	"SPECI KBOS 161240Z 35008KT 1/2SM R04R/3500V4000FT SN FZFG VV010 M01/M02 A3011 RMK AO2 TWR VIS 1 P0005"	"0.05"	"1.3"	"30.11"	"1019.5"	"0"	"1"	"30.2"	"-1.0"	"0"	"0"	"0.5"	"0.8"	"350"	"North"	"-9999.0"	"-9999.0"	"21.9"	"-5.6"	"9.2"	"14.8"	
"20130116"	"Light Snow"	"07"	"54"	"28.0"	"-2.2"	"0"	"0"	"-9999"	"-9999"	"92"	"snow"	"METAR KBOS 161254Z 35007KT 3/4SM R04R/3500V5000FT -SN BR VV013 M01/M02 A3011 RMK AO2 TWR VIS 1 SLP196 P0006 T10111022"	"0.06"	"1.5"	"30.11"	"1019.6"	"0"	"1"	"30.0"	"-1.1"	"0"	"0"	"0.8"	"1.2"	"350"	"North"	"-9999.0"	"-9999.0"	"22.4"	"-5.3"	"8.1"	"13.0"	
"20130116"	"Light Snow"	"07"	"59"	"28.4"	"-2.0"	"0"	"0"	"-9999"	"-9999"	"93"	"snow"	"SPECI KBOS 161259Z 35006KT 1SM R04R/4500V6000FT -SN BR VV015 M01/M02 A3011 RMK AO2 P0001"	"0.01"	"0.3"	"30.11"	"1019.5"	"0"	"1"	"30.2"	"-1.0"	"0"	"0"	"1.0"	"1.6"	"350"	"North"	"-9999.0"	"-9999.0"	"23.4"	"-4.8"	"6.9"	"11.1"	
"20130116"	"Light Snow"	"08"	"10"	"28.4"	"-2.0"	"0"	"0"	"-9999"	"-9999"	"93"	"snow"	"SPECI KBOS 161310Z 36004KT 3/4SM R04R/5000VP6000FT -SN BR FEW004 OVC018 M01/M02 A3010 RMK AO2 TWR VIS 1 P0001"	"0.01"	"0.3"	"30.10"	"1019.2"	"0"	"1"	"30.2"	"-1.0"	"0"	"0"	"0.8"	"1.2"	"360"	"North"	"-9999.0"	"-9999.0"	"25.4"	"-3.7"	"4.6"	"7.4"	
"20130116"	"Light Snow"	"08"	"54"	"28.9"	"-1.7"	"0"	"0"	"-9999"	"-9999"	"92"	"snow"	"METAR KBOS 161354Z 01003KT 1SM R04R/5000VP6000FT -SN BR FEW009 OVC030 M01/M02 A3010 RMK AO2 SFC VIS 1 1/4 CIG 006 E SLP192 P0004 T10061017"	"0.04"	"1.0"	"30.10"	"1019.2"	"0"	"1"	"30.9"	"-0.6"	"0"	"0"	"1.0"	"1.6"	"10"	"North"	"-9999.0"	"-9999.0"	"27.5"	"-2.5"	"3.5"	"5.6"	
"20130116"	"Light Snow"	"09"	"04"	"30.2"	"-1.0"	"0"	"0"	"-9999"	"-9999"	"100"	"snow"	"SPECI KBOS 161404Z 00000KT 3/4SM R04R/3000V6000FT -SN BR SCT007 OVC026 M01/M01 A3010 RMK AO2 TWR VIS 1 CIG 006 E P0000"	"0.00"	"0.0"	"30.10"	"1019.2"	"0"	"1"	"30.2"	"-1.0"	"0"	"0"	"0.8"	"1.2"	"0"	"North"	"-9999.0"	"-9999.0"	"-999"	"-999"	"0.0"	"0.0"	
"20130116"	"Light Snow"	"09"	"14"	"30.2"	"-1.0"	"0"	"0"	"-9999"	"-9999"	"100"	"snow"	"SPECI KBOS 161414Z 36003KT 3/4SM R04R/3000V6000FT -SN BR BKN007 OVC022 M01/M01 A3009 RMK AO2 TWR VIS 1 P0002"	"0.02"	"0.5"	"30.09"	"1018.8"	"0"	"1"	"30.2"	"-1.0"	"0"	"0"	"0.8"	"1.2"	"360"	"North"	"-9999.0"	"-9999.0"	"26.7"	"-3.0"	"3.5"	"5.6"	
"20130116"	"Light Snow"	"09"	"44"	"30.2"	"-1.0"	"0"	"0"	"-9999"	"-9999"	"100"	"snow"	"SPECI KBOS 161444Z 01004KT 1SM R04R/4000VP6000FT -SN BR SCT007 BKN022 OVC044 M01/M01 A3005 RMK AO2 SFC VIS 2 CIG 006 E PRESFR P0003"	"0.03"	"0.8"	"30.05"	"1017.5"	"0"	"1"	"30.2"	"-1.0"	"0"	"0"	"1.0"	"1.6"	"10"	"North"	"-9999.0"	"-9999.0"	"25.4"	"-3.7"	"4.6"	"7.4"	
"20130116"	"Light Snow"	"09"	"54"	"30.0"	"-1.1"	"0"	"0"	"-9999"	"-9999"	"96"	"snow"	"METAR KBOS 161454Z 01004KT 1SM -SN BR FEW005 BKN009 OVC042 M01/M01 A3004 RMK AO2 SFC VIS 3 SLP171 P0003 60013 T10061011 58026"	"0.03"	"0.8"	"30.04"	"1017.1"	"0"	"1"	"30.9"	"-0.6"	"0"	"0"	"1.0"	"1.6"	"10"	"North"	"-9999.0"	"-9999.0"	"26.2"	"-3.2"	"4.6"	"7.4"	
"20130116"	"Light Rain"	"10"	"54"	"30.9"	"-0.6"	"0"	"0"	"-9999"	"-9999"	"96"	"snow"	"METAR KBOS 161554Z 36007KT 1 1/2SM R04R/5500VP6000FT -RASN BR OVC005 00/M01 A2997 RMK AO2 SFC VIS 2 SLP149 SNE15B40RAB40 P0001 T00001006"	"0.01"	"0.3"	"29.97"	"1014.9"	"1"	"1"	"32.0"	"0.0"	"0"	"0"	"1.5"	"2.4"	"360"	"North"	"-9999.0"	"-9999.0"	"24.8"	"-4.0"	"8.1"	"13.0"	
"20130116"	"Light Rain"	"11"	"54"	"30.9"	"-0.6"	"0"	"0"	"-9999"	"-9999"	"92"	"rain"	"METAR KBOS 161654Z 35008KT 1 1/2SM R04R/5000VP6000FT -RA BR OVC005 01/M01 A2994 RMK AO2 SFC VIS 1 3/4 SNE48 SLP138 P0002 T00061006"	"0.02"	"0.5"	"29.94"	"1013.8"	"1"	"0"	"33.1"	"0.6"	"0"	"0"	"1.5"	"2.4"	"350"	"North"	"-9999.0"	"-9999.0"	"25.5"	"-3.6"	"9.2"	"14.8"	
"20130116"	"Light Rain"	"12"	"54"	"32.0"	"0.0"	"0"	"0"	"-9999"	"-9999"	"96"	"rain"	"METAR KBOS 161754Z 36005KT 1 1/2SM R04R/5000VP6000FT -RA BR BKN005 OVC012 01/00 A2991 RMK AO2 SFC VIS 2 1/2 SLP127 P0002 60018 T00060000 10006 21011 56043"	"0.02"	"0.5"	"29.91"	"1012.7"	"1"	"0"	"33.1"	"0.6"	"0"	"0"	"1.5"	"2.4"	"360"	"North"	"-9999.0"	"-9999.0"	"27.7"	"-2.4"	"5.8"	"9.3"	
"20130116"	"Light Ice Pellets"	"13"	"54"	"30.9"	"-0.6"	"0"	"0"	"-9999"	"-9999"	"92"	"sleet"	"METAR KBOS 161854Z 34006KT 1 1/2SM -PLRA BR OVC005 01/M01 A2988 RMK AO2 SFC VIS 3 SLP119 PLB42 P0004 T00061006"	"0.04"	"1.0"	"29.88"	"1011.9"	"1"	"0"	"33.1"	"0.6"	"0"	"0"	"1.5"	"2.4"	"340"	"NNW"	"-9999.0"	"-9999.0"	"26.9"	"-2.8"	"6.9"	"11.1"	
"20130116"	"Light Rain"	"14"	"54"	"30.9"	"-0.6"	"0"	"0"	"-9999"	"-9999"	"92"	"sleet"	"METAR KBOS 161954Z 34008KT 1 1/2SM -RAPL BR OVC005 01/M01 A2985 RMK AO2 SFC VIS 2 SLP106 RAE16 PCPN VRY LGT P0000 T00061006"	"0.00"	"0.0"	"29.85"	"1010.6"	"1"	"0"	"33.1"	"0.6"	"0"	"0"	"1.5"	"2.4"	"340"	"NNW"	"-9999.0"	"-9999.0"	"25.5"	"-3.6"	"9.2"	"14.8"	
"20130116"	"Light Drizzle"	"15"	"54"	"30.9"	"-0.6"	"0"	"0"	"-9999"	"-9999"	"92"	"rain"	"METAR KBOS 162054Z 34008KT 1 1/2SM -DZ BR OVC005 01/M01 A2985 RMK AO2 SFC VIS 1 3/4 RAE30DZB30PLE30 SLP107 P0001 60005 T00061006 55020"	"0.01"	"0.3"	"29.85"	"1010.7"	"0"	"0"	"33.1"	"0.6"	"0"	"0"	"1.5"	"2.4"	"340"	"NNW"	"-9999.0"	"-9999.0"	"25.5"	"-3.6"	"9.2"	"14.8"	
"20130116"	"Overcast"	"16"	"54"	"30.9"	"-0.6"	"0"	"0"	"-9999"	"-9999"	"92"	"cloudy"	"METAR KBOS 162154Z 33005KT 1 1/2SM BKN005 OVC010 01/M01 A2984 RMK AO2 SFC VIS 7 DZE53 PRESFR SLP103 P0000 T00061006"	"0.00"	"0.0"	"29.84"	"1010.3"	"0"	"0"	"33.1"	"0.6"	"0"	"0"	"1.5"	"2.4"	"330"	"NNW"	"-9999.0"	"-9999.0"	"27.7"	"-2.4"	"5.8"	"9.3"	
"20130116"	"Overcast"	"17"	"31"	"30.2"	"-1.0"	"0"	"0"	"-9999"	"-9999"	"87"	"cloudy"	"SPECI KBOS 162231Z 31006KT 9SM OVC007 01/M01 A2986 RMK AO2"	"-9999.00"	"-9999.00"	"29.86"	"1011.1"	"0"	"0"	"33.8"	"1.0"	"0"	"0"	"9.0"	"14.5"	"310"	"NW"	"-9999.0"	"-9999.0"	"27.7"	"-2.4"	"6.9"	"11.1"	
"20130116"	"Overcast"	"17"	"54"	"30.9"	"-0.6"	"0"	"0"	"-9999"	"-9999"	"92"	"cloudy"	"METAR KBOS 162254Z 30007KT 9SM OVC007 01/M01 A2986 RMK AO2 SLP111 T00061006"	"-9999.00"	"-9999.00"	"29.86"	"1011.1"	"0"	"0"	"33.1"	"0.6"	"0"	"0"	"9.0"	"14.5"	"300"	"WNW"	"-9999.0"	"-9999.0"	"26.1"	"-3.3"	"8.1"	"13.0"	
"20130116"	"Overcast"	"18"	"54"	"30.9"	"-0.6"	"0"	"0"	"-9999"	"-9999"	"92"	"cloudy"	"METAR KBOS 162354Z 30007KT 10SM BKN007 OVC019 01/M01 A2986 RMK AO2 SLP109 60005 T00061006 10006 20006 53002"	"-9999.00"	"-9999.00"	"29.86"	"1010.9"	"0"	"0"	"33.1"	"0.6"	"0"	"0"	"10.0"	"16.1"	"300"	"WNW"	"-9999.0"	"-9999.0"	"26.1"	"-3.3"	"8.1"	"13.0"	
"20130116"	"Overcast"	"19"	"10"	"30.2"	"-1.0"	"0"	"0"	"-9999"	"-9999"	"87"	"cloudy"	"SPECI KBOS 170010Z 30005KT 10SM SCT007 OVC017 01/M01 A2985 RMK AO2 CIG 007 E"	"-9999.00"	"-9999.00"	"29.85"	"1010.7"	"0"	"0"	"33.8"	"1.0"	"0"	"0"	"10.0"	"16.1"	"300"	"WNW"	"-9999.0"	"-9999.0"	"28.6"	"-1.9"	"5.8"	"9.3"	
"20130116"	"Overcast"	"19"	"54"	"30.9"	"-0.6"	"0"	"0"	"-9999"	"-9999"	"92"	"cloudy"	"METAR KBOS 170054Z 30004KT 10SM BKN009 OVC015 01/M01 A2984 RMK AO2 SLP103 T00061006"	"-9999.00"	"-9999.00"	"29.84"	"1010.3"	"0"	"0"	"33.1"	"0.6"	"0"	"0"	"10.0"	"16.1"	"300"	"WNW"	"-9999.0"	"-9999.0"	"28.7"	"-1.8"	"4.6"	"7.4"	
"20130116"	"Overcast"	"20"	"54"	"32.0"	"0.0"	"0"	"0"	"-9999"	"-9999"	"92"	"cloudy"	"METAR KBOS 170154Z 29003KT 9SM BKN009 OVC018 01/00 A2985 RMK AO2 SLP107 T00110000"	"-9999.00"	"-9999.00"	"29.85"	"1010.7"	"0"	"0"	"34.0"	"1.1"	"0"	"0"	"9.0"	"14.5"	"290"	"WNW"	"-9999.0"	"-9999.0"	"31.0"	"-0.6"	"3.5"	"5.6"	
"20130116"	"Overcast"	"21"	"03"	"32.0"	"0.0"	"0"	"0"	"-9999"	"-9999"	"93"	"cloudy"	"SPECI KBOS 170203Z 23003KT 9SM SCT009 OVC018 01/00 A2985 RMK AO2"	"-9999.00"	"-9999.00"	"29.85"	"1010.7"	"0"	"0"	"33.8"	"1.0"	"0"	"0"	"9.0"	"14.5"	"230"	"SW"	"-9999.0"	"-9999.0"	"30.8"	"-0.7"	"3.5"	"5.6"	
"20130116"	"Overcast"	"21"	"10"	"32.0"	"0.0"	"0"	"0"	"-9999"	"-9999"	"93"	"cloudy"	"SPECI KBOS 170210Z 21005KT 8SM BKN009 OVC018 01/00 A2984 RMK AO2"	"-9999.00"	"-9999.00"	"29.84"	"1010.4"	"0"	"0"	"33.8"	"1.0"	"0"	"0"	"8.0"	"12.9"	"210"	"SSW"	"-9999.0"	"-9999.0"	"28.6"	"-1.9"	"5.8"	"9.3"	
"20130116"	"Overcast"	"21"	"26"	"30.2"	"-1.0"	"0"	"0"	"-9999"	"-9999"	"87"	"cloudy"	"SPECI KBOS 170226Z 24006KT 8SM SCT009 OVC018 01/M01 A2985 RMK AO2"	"-9999.00"	"-9999.00"	"29.85"	"1010.7"	"0"	"0"	"33.8"	"1.0"	"0"	"0"	"8.0"	"12.9"	"240"	"WSW"	"-9999.0"	"-9999.0"	"27.7"	"-2.4"	"6.9"	"11.1"	
"20130116"	"Overcast"	"21"	"54"	"30.9"	"-0.6"	"0"	"0"	"-9999"	"-9999"	"92"	"cloudy"	"METAR KBOS 170254Z 22005KT 9SM OVC018 01/M01 A2984 RMK AO2 SLP105 T00061006 56004"	"-9999.00"	"-9999.00"	"29.84"	"1010.5"	"0"	"0"	"33.1"	"0.6"	"0"	"0"	"9.0"	"14.5"	"220"	"SW"	"-9999.0"	"-9999.0"	"27.7"	"-2.4"	"5.8"	"9.3"	
"20130116"	"Overcast"	"22"	"43"	"30.2"	"-1.0"	"0"	"0"	"-9999"	"-9999"	"87"	"cloudy"	"SPECI KBOS 170343Z 23007KT 10SM OVC014 01/M01 A2986 RMK AO2"	"-9999.00"	"-9999.00"	"29.86"	"1011.1"	"0"	"0"	"33.8"	"1.0"	"0"	"0"	"10.0"	"16.1"	"230"	"SW"	"-9999.0"	"-9999.0"	"27.0"	"-2.8"	"8.1"	"13.0"	
"20130116"	"Overcast"	"22"	"54"	"30.9"	"-0.6"	"0"	"0"	"-9999"	"-9999"	"92"	"cloudy"	"METAR KBOS 170354Z 22006KT 10SM OVC014 01/M01 A2984 RMK AO2 SLP105 T00061006"	"-9999.00"	"-9999.00"	"29.84"	"1010.5"	"0"	"0"	"33.1"	"0.6"	"0"	"0"	"10.0"	"16.1"	"220"	"SW"	"-9999.0"	"-9999.0"	"26.9"	"-2.8"	"6.9"	"11.1"	
"20130116"	"Overcast"	"23"	"54"	"30.9"	"-0.6"	"0"	"0"	"-9999"	"-9999"	"89"	"cloudy"	"METAR KBOS 170454Z 23007KT 10SM OVC012 01/M01 A2985 RMK AO2 SLP107 T00111006 400221011"	"-9999.00"	"-9999.00"	"29.85"	"1010.7"	"0"	"0"	"34.0"	"1.1"	"0"	"0"	"10.0"	"16.1"	"230"	"SW"	"-9999.0"	"-9999.0"	"27.2"	"-2.6"	"8.1"	"13.0"	
"20130115"	"Overcast"	"00"	"54"	"24.1"	"-4.4"	"0"	"0"	"-9999"	"-9999"	"49"	"cloudy"	"METAR KBOS 150554Z 32006KT 10SM OVC095 06/M04 A3027 RMK AO2 SLP250 T00561044 10094 20056 51028"	"-9999.00"	"-9999.00"	"30.27"	"1025.0"	"0"	"0"	"42.1"	"5.6"	"0"	"0"	"10.0"	"16.1"	"320"	"NW"	"-9999.0"	"-9999.0"	"37.7"	"3.2"	"6.9"	"11.1"	
"20130115"	"Overcast"	"01"	"54"	"23.0"	"-5.0"	"0"	"0"	"-9999"	"-9999"	"49"	"cloudy"	"METAR KBOS 150654Z 34008KT 10SM OVC090 05/M05 A3028 RMK AO2 SLP251 T00501050"	"-9999.00"	"-9999.00"	"30.27"	"1025.1"	"0"	"0"	"41.0"	"5.0"	"0"	"0"	"10.0"	"16.1"	"340"	"NNW"	"-9999.0"	"-9999.0"	"35.2"	"1.8"	"9.2"	"14.8"	
"20130115"	"Overcast"	"02"	"54"	"24.1"	"-4.4"	"0"	"0"	"-9999"	"-9999"	"53"	"cloudy"	"METAR KBOS 150754Z 33009KT 10SM FEW050 SCT090 OVC160 04/M04 A3028 RMK AO2 RAB16E30 SLP251 P0000 T00441044"	"0.00"	"0.0"	"30.27"	"1025.1"	"0"	"0"	"39.9"	"4.4"	"0"	"0"	"10.0"	"16.1"	"330"	"NNW"	"-9999.0"	"-9999.0"	"33.4"	"0.8"	"10.4"	"16.7"	
"20130115"	"Overcast"	"03"	"54"	"24.1"	"-4.4"	"0"	"0"	"-9999"	"-9999"	"55"	"cloudy"	"METAR KBOS 150854Z 34006KT 10SM BKN080 OVC160 04/M04 A3024 RMK AO2 SLP238 60000 T00391044 58012"	"-9999.00"	"-9999.00"	"30.24"	"1023.8"	"0"	"0"	"39.0"	"3.9"	"0"	"0"	"10.0"	"16.1"	"340"	"NNW"	"-9999.0"	"-9999.0"	"34.0"	"1.1"	"6.9"	"11.1"	
"20130115"	"Overcast"	"04"	"54"	"24.1"	"-4.4"	"0"	"0"	"-9999"	"-9999"	"55"	"cloudy"	"METAR KBOS 150954Z 34005KT 10SM BKN090 OVC110 04/M04 A3024 RMK AO2 SLP238 T00391044"	"-9999.00"	"-9999.00"	"30.24"	"1023.8"	"0"	"0"	"39.0"	"3.9"	"0"	"0"	"10.0"	"16.1"	"340"	"NNW"	"-9999.0"	"-9999.0"	"34.8"	"1.5"	"5.8"	"9.3"	
"20130115"	"Overcast"	"05"	"54"	"23.0"	"-5.0"	"0"	"0"	"-9999"	"-9999"	"55"	"cloudy"	"METAR KBOS 151054Z 35007KT 10SM SCT110 OVC180 03/M05 A3024 RMK AO2 SLP240 T00331050"	"-9999.00"	"-9999.00"	"30.24"	"1024.0"	"0"	"0"	"37.9"	"3.3"	"0"	"0"	"10.0"	"16.1"	"350"	"North"	"-9999.0"	"-9999.0"	"32.1"	"0.0"	"8.1"	"13.0"	
"20130115"	"Mostly Cloudy"	"06"	"54"	"23.0"	"-5.0"	"0"	"0"	"-9999"	"-9999"	"57"	"mostlycloudy"	"METAR KBOS 151154Z 33008KT 10SM SCT033 BKN140 BKN200 03/M05 A3027 RMK AO2 SLP251 60000 T00281050 10056 20028 53013"	"-9999.00"	"-9999.00"	"30.27"	"1025.1"	"0"	"0"	"37.0"	"2.8"	"0"	"0"	"10.0"	"16.1"	"330"	"NNW"	"-9999.0"	"-9999.0"	"30.4"	"-0.9"	"9.2"	"14.8"	
"20130115"	"Mostly Cloudy"	"07"	"54"	"23.0"	"-5.0"	"0"	"0"	"-9999"	"-9999"	"57"	"mostlycloudy"	"METAR KBOS 151254Z 34009KT 10SM BKN033 BKN140 BKN250 03/M05 A3030 RMK AO2 SLP258 T00281050"	"-9999.00"	"-9999.00"	"30.30"	"1025.8"	"0"	"0"	"37.0"	"2.8"	"0"	"0"	"10.0"	"16.1"	"340"	"NNW"	"-9999.0"	"-9999.0"	"29.8"	"-1.2"	"10.4"	"16.7"	
"20130115"	"Mostly Cloudy"	"08"	"54"	"23.0"	"-5.0"	"0"	"0"	"-9999"	"-9999"	"57"	"mostlycloudy"	"METAR KBOS 151354Z 34007KT 10SM BKN033 BKN250 03/M05 A3031 RMK AO2 SLP263 T00281050"	"-9999.00"	"-9999.00"	"30.31"	"1026.3"	"0"	"0"	"37.0"	"2.8"	"0"	"0"	"10.0"	"16.1"	"340"	"NNW"	"-9999.0"	"-9999.0"	"31.0"	"-0.6"	"8.1"	"13.0"	
"20130115"	"Mostly Cloudy"	"09"	"54"	"23.0"	"-5.0"	"0"	"0"	"-9999"	"-9999"	"55"	"mostlycloudy"	"METAR KBOS 151454Z 36007KT 10SM BKN037 BKN250 03/M05 A3032 RMK AO2 SLP265 T00331050 51014"	"-9999.00"	"-9999.00"	"30.32"	"1026.5"	"0"	"0"	"37.9"	"3.3"	"0"	"0"	"10.0"	"16.1"	"360"	"North"	"-9999.0"	"-9999.0"	"32.1"	"0.0"	"8.1"	"13.0"	
"20130115"	"Mostly Cloudy"	"10"	"54"	"24.1"	"-4.4"	"0"	"0"	"-9999"	"-9999"	"53"	"mostlycloudy"	"METAR KBOS 151554Z 35006KT 10SM BKN039 BKN250 04/M04 A3031 RMK AO2 SLP262 T00441044"	"-9999.00"	"-9999.00"	"30.31"	"1026.2"	"0"	"0"	"39.9"	"4.4"	"0"	"0"	"10.0"	"16.1"	"350"	"North"	"-9999.0"	"-9999.0"	"35.1"	"1.7"	"6.9"	"11.1"	
"20130115"	"Mostly Cloudy"	"11"	"54"	"24.1"	"-4.4"	"0"	"0"	"-9999"	"-9999"	"53"	"mostlycloudy"	"METAR KBOS 151654Z 34004KT 10SM SCT039 BKN200 BKN250 04/M04 A3027 RMK AO2 SLP251 T00441044"	"-9999.00"	"-9999.00"	"30.27"	"1025.1"	"0"	"0"	"39.9"	"4.4"	"0"	"0"	"10.0"	"16.1"	"340"	"NNW"	"-9999.0"	"-9999.0"	"36.7"	"2.6"	"4.6"	"7.4"	
"20130115"	"Overcast"	"12"	"54"	"23.0"	"-5.0"	"0"	"0"	"-9999"	"-9999"	"49"	"cloudy"	"METAR KBOS 151754Z 35004KT 10SM BKN036 OVC180 05/M05 A3027 RMK AO2 SLP249 T00501050 10050 20028 56016"	"-9999.00"	"-9999.00"	"30.27"	"1024.9"	"0"	"0"	"41.0"	"5.0"	"0"	"0"	"10.0"	"16.1"	"350"	"North"	"-9999.0"	"-9999.0"	"38.0"	"3.3"	"4.6"	"7.4"	
"20130115"	"Overcast"	"13"	"54"	"24.1"	"-4.4"	"0"	"0"	"-9999"	"-9999"	"51"	"cloudy"	"METAR KBOS 151854Z 30003KT 10SM BKN034 OVC180 05/M04 A3027 RMK AO2 SLP250 T00501044"	"-9999.00"	"-9999.00"	"30.27"	"1025.0"	"0"	"0"	"41.0"	"5.0"	"0"	"0"	"10.0"	"16.1"	"300"	"WNW"	"-9999.0"	"-9999.0"	"39.0"	"3.9"	"3.5"	"5.6"	
"20130115"	"Overcast"	"14"	"54"	"24.1"	"-4.4"	"0"	"0"	"-9999"	"-9999"	"51"	"cloudy"	"METAR KBOS 151954Z 00000KT 10SM SCT036 BKN180 OVC220 05/M04 A3026 RMK AO2 SLP246 T00501044"	"-9999.00"	"-9999.00"	"30.26"	"1024.6"	"0"	"0"	"41.0"	"5.0"	"0"	"0"	"10.0"	"16.1"	"0"	"North"	"-9999.0"	"-9999.0"	"-999"	"-999"	"0.0"	"0.0"	
"20130115"	"Mostly Cloudy"	"15"	"54"	"24.1"	"-4.4"	"0"	"0"	"-9999"	"-9999"	"51"	"mostlycloudy"	"METAR KBOS 152054Z 00000KT 10SM SCT036 BKN160 BKN220 05/M04 A3024 RMK AO2 PRESFR SLP238 T00501044 58011"	"-9999.00"	"-9999.00"	"30.24"	"1023.8"	"0"	"0"	"41.0"	"5.0"	"0"	"0"	"10.0"	"16.1"	"0"	"North"	"-9999.0"	"-9999.0"	"-999"	"-999"	"0.0"	"0.0"	
"20130115"	"Mostly Cloudy"	"16"	"54"	"24.1"	"-4.4"	"0"	"0"	"-9999"	"-9999"	"53"	"mostlycloudy"	"METAR KBOS 152154Z 32005KT 10SM SCT036 BKN160 BKN220 04/M04 A3026 RMK AO2 SLP247 T00441044"	"-9999.00"	"-9999.00"	"30.26"	"1024.7"	"0"	"0"	"39.9"	"4.4"	"0"	"0"	"10.0"	"16.1"	"320"	"NW"	"-9999.0"	"-9999.0"	"35.8"	"2.1"	"5.8"	"9.3"	
"20130115"	"Mostly Cloudy"	"17"	"54"	"21.9"	"-5.6"	"0"	"0"	"-9999"	"-9999"	"49"	"mostlycloudy"	"METAR KBOS 152254Z 32005KT 10SM SCT035 BKN160 BKN220 04/M06 A3027 RMK AO2 SLP250 T00441056"	"-9999.00"	"-9999.00"	"30.27"	"1025.0"	"0"	"0"	"39.9"	"4.4"	"0"	"0"	"10.0"	"16.1"	"320"	"NW"	"-9999.0"	"-9999.0"	"35.8"	"2.1"	"5.8"	"9.3"	
"20130115"	"Mostly Cloudy"	"18"	"54"	"21.9"	"-5.6"	"0"	"0"	"-9999"	"-9999"	"50"	"mostlycloudy"	"METAR KBOS 152354Z 35007KT 10SM FEW035 SCT160 BKN220 04/M06 A3028 RMK AO2 SLP254 T00391056 10050 20039 51015"	"-9999.00"	"-9999.00"	"30.28"	"1025.4"	"0"	"0"	"39.0"	"3.9"	"0"	"0"	"10.0"	"16.1"	"350"	"North"	"-9999.0"	"-9999.0"	"33.4"	"0.8"	"8.1"	"13.0"	
"20130115"	"Mostly Cloudy"	"19"	"54"	"21.9"	"-5.6"	"0"	"0"	"-9999"	"-9999"	"54"	"mostlycloudy"	"METAR KBOS 160054Z 36006KT 10SM FEW035 SCT140 BKN220 03/M06 A3028 RMK AO2 SLP253 T00281056"	"-9999.00"	"-9999.00"	"30.28"	"1025.3"	"0"	"0"	"37.0"	"2.8"	"0"	"0"	"10.0"	"16.1"	"360"	"North"	"-9999.0"	"-9999.0"	"31.6"	"-0.2"	"6.9"	"11.1"	
"20130115"	"Mostly Cloudy"	"20"	"54"	"21.9"	"-5.6"	"0"	"0"	"-9999"	"-9999"	"54"	"mostlycloudy"	"METAR KBOS 160154Z 01007KT 10SM FEW035 BKN180 03/M06 A3027 RMK AO2 SLP248 T00281056"	"-9999.00"	"-9999.00"	"30.27"	"1024.8"	"0"	"0"	"37.0"	"2.8"	"0"	"0"	"10.0"	"16.1"	"10"	"North"	"-9999.0"	"-9999.0"	"31.0"	"-0.6"	"8.1"	"13.0"	
"20130115"	"Mostly Cloudy"	"21"	"54"	"21.9"	"-5.6"	"0"	"0"	"-9999"	"-9999"	"57"	"mostlycloudy"	"METAR KBOS 160254Z 36006KT 10SM SCT050 BKN180 02/M06 A3027 RMK AO2 SLP249 T00221056 55005"	"-9999.00"	"-9999.00"	"30.27"	"1024.9"	"0"	"0"	"36.0"	"2.2"	"0"	"0"	"10.0"	"16.1"	"360"	"North"	"-9999.0"	"-9999.0"	"30.3"	"-0.9"	"6.9"	"11.1"	
"20130115"	"Mostly Cloudy"	"22"	"54"	"21.9"	"-5.6"	"0"	"0"	"-9999"	"-9999"	"59"	"mostlycloudy"	"METAR KBOS 160354Z 02004KT 10SM SCT095 BKN180 02/M06 A3025 RMK AO2 SLP242 T00171056"	"-9999.00"	"-9999.00"	"30.25"	"1024.2"	"0"	"0"	"35.1"	"1.7"	"0"	"0"	"10.0"	"16.1"	"20"	"NNE"	"-9999.0"	"-9999.0"	"31.0"	"-0.5"	"4.6"	"7.4"	
"20130115"	"Mostly Cloudy"	"23"	"54"	"23.0"	"-5.0"	"0"	"0"	"-9999"	"-9999"	"61"	"mostlycloudy"	"METAR KBOS 160454Z 02003KT 10SM BKN085 BKN180 02/M05 A3025 RMK AO2 SLP244 T00171050 400560017"	"-9999.00"	"-9999.00"	"30.25"	"1024.4"	"0"	"0"	"35.1"	"1.7"	"0"	"0"	"10.0"	"16.1"	"20"	"NNE"	"-9999.0"	"-9999.0"	"32.2"	"0.1"	"3.5"	"5.6"	
"20130114"	"Overcast"	"00"	"54"	"48.9"	"9.4"	"0"	"0"	"-9999"	"-9999"	"92"	"cloudy"	"METAR KBOS 140554Z 22014KT 10SM FEW007 OVC016 11/09 A2998 RMK AO2 SLP152 T01060094 10106 20089 56010 $"	"-9999.00"	"-9999.00"	"29.98"	"1015.2"	"0"	"0"	"51.1"	"10.6"	"0"	"0"	"10.0"	"16.1"	"220"	"SW"	"-9999.0"	"-9999.0"	"-999"	"-999"	"16.1"	"25.9"	
"20130114"	"Overcast"	"01"	"01"	"48.2"	"9.0"	"0"	"0"	"-9999"	"-9999"	"88"	"cloudy"	"SPECI KBOS 140601Z 22014KT 10SM OVC011 11/09 A2998 RMK AO2 $"	"-9999.00"	"-9999.00"	"29.98"	"1015.1"	"0"	"0"	"51.8"	"11.0"	"0"	"0"	"10.0"	"16.1"	"220"	"SW"	"-9999.0"	"-9999.0"	"-999"	"-999"	"16.1"	"25.9"	
"20130114"	"Overcast"	"01"	"52"	"48.2"	"9.0"	"0"	"0"	"-9999"	"-9999"	"94"	"cloudy"	"SPECI KBOS 140652Z 21011KT 10SM OVC009 10/09 A2999 RMK AO2 $"	"-9999.00"	"-9999.00"	"29.99"	"1015.5"	"0"	"0"	"50.0"	"10.0"	"0"	"0"	"10.0"	"16.1"	"210"	"SSW"	"-9999.0"	"-9999.0"	"-999"	"-999"	"12.7"	"20.4"	
"20130114"	"Overcast"	"01"	"54"	"48.9"	"9.4"	"0"	"0"	"-9999"	"-9999"	"96"	"cloudy"	"METAR KBOS 140654Z 22012KT 10SM OVC009 10/09 A2999 RMK AO2 SLP156 T01000094 $"	"-9999.00"	"-9999.00"	"29.99"	"1015.6"	"0"	"0"	"50.0"	"10.0"	"0"	"0"	"10.0"	"16.1"	"220"	"SW"	"-9999.0"	"-9999.0"	"-999"	"-999"	"13.8"	"22.2"	
"20130114"	"Overcast"	"02"	"54"	"48.9"	"9.4"	"0"	"0"	"-9999"	"-9999"	"96"	"cloudy"	"METAR KBOS 140754Z 22010KT 8SM OVC005 10/09 A2998 RMK AO2 SLP153 T01000094 $"	"-9999.00"	"-9999.00"	"29.99"	"1015.3"	"0"	"0"	"50.0"	"10.0"	"0"	"0"	"8.0"	"12.9"	"220"	"SW"	"-9999.0"	"-9999.0"	"-999"	"-999"	"11.5"	"18.5"	
"20130114"	"Overcast"	"03"	"54"	"50.0"	"10.0"	"0"	"0"	"-9999"	"-9999"	"100"	"cloudy"	"METAR KBOS 140854Z 22009KT 8SM OVC005 10/10 A2995 RMK AO2 SLP141 T01000100 58014 $"	"-9999.00"	"-9999.00"	"29.95"	"1014.1"	"0"	"0"	"50.0"	"10.0"	"0"	"0"	"8.0"	"12.9"	"220"	"SW"	"-9999.0"	"-9999.0"	"-999"	"-999"	"10.4"	"16.7"	
"20130114"	"Overcast"	"04"	"54"	"48.9"	"9.4"	"0"	"0"	"-9999"	"-9999"	"96"	"cloudy"	"METAR KBOS 140954Z 23016KT 10SM OVC007 10/09 A2995 RMK AO2 SLP141 T01000094 $"	"-9999.00"	"-9999.00"	"29.95"	"1014.1"	"0"	"0"	"50.0"	"10.0"	"0"	"0"	"10.0"	"16.1"	"230"	"SW"	"-9999.0"	"-9999.0"	"-999"	"-999"	"18.4"	"29.6"	
"20130114"	"Overcast"	"05"	"16"	"48.2"	"9.0"	"0"	"0"	"-9999"	"-9999"	"94"	"cloudy"	"SPECI KBOS 141016Z 23013KT 10SM BKN010 OVC080 10/09 A2994 RMK AO2 $"	"-9999.00"	"-9999.00"	"29.94"	"1013.8"	"0"	"0"	"50.0"	"10.0"	"0"	"0"	"10.0"	"16.1"	"230"	"SW"	"-9999.0"	"-9999.0"	"-999"	"-999"	"15.0"	"24.1"	
"20130114"	"Overcast"	"05"	"54"	"48.9"	"9.4"	"0"	"0"	"-9999"	"-9999"	"92"	"cloudy"	"METAR KBOS 141054Z 22012KT 10SM SCT012 SCT016 OVC075 11/09 A2994 RMK AO2 CIG 011 E SLP138 T01060094 $"	"-9999.00"	"-9999.00"	"29.94"	"1013.8"	"0"	"0"	"51.1"	"10.6"	"0"	"0"	"10.0"	"16.1"	"220"	"SW"	"-9999.0"	"-9999.0"	"-999"	"-999"	"13.8"	"22.2"	
"20130114"	"Overcast"	"06"	"37"	"48.2"	"9.0"	"0"	"0"	"-9999"	"-9999"	"88"	"cloudy"	"SPECI KBOS 141137Z 21012KT 10SM BKN012 OVC075 11/09 A2992 RMK AO2 PRESFR $"	"-9999.00"	"-9999.00"	"29.92"	"1013.1"	"0"	"0"	"51.8"	"11.0"	"0"	"0"	"10.0"	"16.1"	"210"	"SSW"	"-9999.0"	"-9999.0"	"-999"	"-999"	"13.8"	"22.2"	
"20130114"	"Mostly Cloudy"	"06"	"54"	"48.9"	"9.4"	"0"	"0"	"-9999"	"-9999"	"92"	"mostlycloudy"	"METAR KBOS 141154Z 21015KT 10SM BKN012 BKN090 11/09 A2991 RMK AO2 PRESFR SLP127 T01060094 10106 20100 58015"	"-9999.00"	"-9999.00"	"29.91"	"1012.7"	"0"	"0"	"51.1"	"10.6"	"0"	"0"	"10.0"	"16.1"	"210"	"SSW"	"-9999.0"	"-9999.0"	"-999"	"-999"	"17.3"	"27.8"	
"20130114"	"Overcast"	"07"	"21"	"48.2"	"9.0"	"0"	"0"	"-9999"	"-9999"	"94"	"cloudy"	"SPECI KBOS 141221Z 19016KT 10SM SCT010 OVC100 10/09 A2987 RMK AO2"	"-9999.00"	"-9999.00"	"29.87"	"1011.4"	"0"	"0"	"50.0"	"10.0"	"0"	"0"	"10.0"	"16.1"	"190"	"South"	"-9999.0"	"-9999.0"	"-999"	"-999"	"18.4"	"29.6"	
"20130114"	"Overcast"	"07"	"54"	"51.1"	"10.6"	"0"	"0"	"-9999"	"-9999"	"93"	"cloudy"	"METAR KBOS 141254Z 28009G20KT 10SM BKN010 BKN100 OVC160 12/11 A2990 RMK AO2 SLP124 T01170106"	"-9999.00"	"-9999.00"	"29.90"	"1012.4"	"0"	"0"	"53.1"	"11.7"	"0"	"0"	"10.0"	"16.1"	"280"	"West"	"23.0"	"37.0"	"-999"	"-999"	"10.4"	"16.7"	
"20130114"	"Overcast"	"08"	"54"	"51.1"	"10.6"	"0"	"0"	"-9999"	"-9999"	"93"	"cloudy"	"METAR KBOS 141354Z 24012G17KT 10SM OVC010 12/11 A2996 RMK AO2 SLP146 T01170106"	"-9999.00"	"-9999.00"	"29.96"	"1014.6"	"0"	"0"	"53.1"	"11.7"	"0"	"0"	"10.0"	"16.1"	"240"	"WSW"	"19.6"	"31.5"	"-999"	"-999"	"13.8"	"22.2"	
"20130114"	"Overcast"	"09"	"54"	"51.1"	"10.6"	"0"	"0"	"-9999"	"-9999"	"90"	"cloudy"	"METAR KBOS 141454Z 25011G17KT 10SM OVC012 12/11 A3000 RMK AO2 SLP158 T01220106 53031"	"-9999.00"	"-9999.00"	"30.00"	"1015.8"	"0"	"0"	"54.0"	"12.2"	"0"	"0"	"10.0"	"16.1"	"250"	"WSW"	"19.6"	"31.5"	"-999"	"-999"	"12.7"	"20.4"	
"20130114"	"Overcast"	"10"	"36"	"51.8"	"11.0"	"0"	"0"	"-9999"	"-9999"	"94"	"cloudy"	"SPECI KBOS 141536Z 26011KT 10SM SCT014 BKN027 OVC140 12/11 A3000 RMK AO2 CIG 015 E"	"-9999.00"	"-9999.00"	"30.00"	"1015.8"	"0"	"0"	"53.6"	"12.0"	"0"	"0"	"10.0"	"16.1"	"260"	"West"	"-9999.0"	"-9999.0"	"-999"	"-999"	"12.7"	"20.4"	
"20130114"	"Overcast"	"10"	"54"	"51.1"	"10.6"	"0"	"0"	"-9999"	"-9999"	"86"	"cloudy"	"METAR KBOS 141554Z 25009KT 10SM SCT016 BKN025 OVC160 13/11 A3000 RMK AO2 SLP157 T01280106"	"-9999.00"	"-9999.00"	"30.00"	"1015.7"	"0"	"0"	"55.0"	"12.8"	"0"	"0"	"10.0"	"16.1"	"250"	"WSW"	"-9999.0"	"-9999.0"	"-999"	"-999"	"10.4"	"16.7"	
"20130114"	"Overcast"	"11"	"11"	"50.0"	"10.0"	"0"	"0"	"-9999"	"-9999"	"82"	"cloudy"	"SPECI KBOS 141611Z 27007G16KT 10SM FEW016 SCT025 OVC160 13/10 A2999 RMK AO2"	"-9999.00"	"-9999.00"	"29.99"	"1015.5"	"0"	"0"	"55.4"	"13.0"	"0"	"0"	"10.0"	"16.1"	"270"	"West"	"18.4"	"29.6"	"-999"	"-999"	"8.1"	"13.0"	
"20130114"	"Mostly Cloudy"	"11"	"54"	"50.0"	"10.0"	"0"	"0"	"-9999"	"-9999"	"75"	"mostlycloudy"	"METAR KBOS 141654Z 25010G15KT 10SM FEW027 SCT160 BKN200 14/10 A2998 RMK AO2 SLP153 T01440100"	"-9999.00"	"-9999.00"	"29.99"	"1015.3"	"0"	"0"	"57.9"	"14.4"	"0"	"0"	"10.0"	"16.1"	"250"	"WSW"	"17.3"	"27.8"	"-999"	"-999"	"11.5"	"18.5"	
"20130114"	"Scattered Clouds"	"12"	"54"	"46.0"	"7.8"	"0"	"0"	"-9999"	"-9999"	"62"	"partlycloudy"	"METAR KBOS 141754Z 27009KT 10SM FEW140 SCT200 15/08 A2997 RMK AO2 SLP149 T01500078 10150 20100 58009"	"-9999.00"	"-9999.00"	"29.97"	"1014.9"	"0"	"0"	"59.0"	"15.0"	"0"	"0"	"10.0"	"16.1"	"270"	"West"	"-9999.0"	"-9999.0"	"-999"	"-999"	"10.4"	"16.7"	
"20130114"	"Scattered Clouds"	"13"	"54"	"42.1"	"5.6"	"0"	"0"	"-9999"	"-9999"	"51"	"partlycloudy"	"METAR KBOS 141854Z 27016KT 10SM FEW030 SCT140 SCT200 16/06 A3000 RMK AO2 SLP159 T01560056"	"-9999.00"	"-9999.00"	"30.00"	"1015.9"	"0"	"0"	"60.1"	"15.6"	"0"	"0"	"10.0"	"16.1"	"270"	"West"	"-9999.0"	"-9999.0"	"-999"	"-999"	"18.4"	"29.6"	
"20130114"	"Scattered Clouds"	"14"	"54"	"36.0"	"2.2"	"0"	"0"	"-9999"	"-9999"	"42"	"partlycloudy"	"METAR KBOS 141954Z 28014G21KT 10SM FEW030 SCT140 SCT200 15/02 A3005 RMK AO2 PRESRR SLP174 T01500022"	"-9999.00"	"-9999.00"	"30.05"	"1017.4"	"0"	"0"	"59.0"	"15.0"	"0"	"0"	"10.0"	"16.1"	"280"	"West"	"24.2"	"38.9"	"-999"	"-999"	"16.1"	"25.9"	
"20130114"	"Mostly Cloudy"	"15"	"54"	"32.0"	"0.0"	"0"	"0"	"-9999"	"-9999"	"40"	"mostlycloudy"	"METAR KBOS 142054Z 29017G22KT 10SM FEW030 SCT140 BKN220 13/00 A3008 RMK AO2 SLP184 T01330000 53035"	"-9999.00"	"-9999.00"	"30.08"	"1018.4"	"0"	"0"	"55.9"	"13.3"	"0"	"0"	"10.0"	"16.1"	"290"	"WNW"	"25.3"	"40.7"	"-999"	"-999"	"19.6"	"31.5"	
"20130114"	"Mostly Cloudy"	"16"	"54"	"33.1"	"0.6"	"0"	"0"	"-9999"	"-9999"	"47"	"mostlycloudy"	"METAR KBOS 142154Z 30014KT 10SM FEW030 SCT140 BKN220 12/01 A3010 RMK AO2 SLP193 T01170006"	"-9999.00"	"-9999.00"	"30.10"	"1019.3"	"0"	"0"	"53.1"	"11.7"	"0"	"0"	"10.0"	"16.1"	"300"	"WNW"	"-9999.0"	"-9999.0"	"-999"	"-999"	"16.1"	"25.9"	
"20130114"	"Mostly Cloudy"	"17"	"54"	"32.0"	"0.0"	"0"	"0"	"-9999"	"-9999"	"48"	"mostlycloudy"	"METAR KBOS 142254Z 28009KT 10SM FEW030 SCT140 BKN220 11/00 A3013 RMK AO2 SLP201 T01060000"	"-9999.00"	"-9999.00"	"30.13"	"1020.1"	"0"	"0"	"51.1"	"10.6"	"0"	"0"	"10.0"	"16.1"	"280"	"West"	"-9999.0"	"-9999.0"	"-999"	"-999"	"10.4"	"16.7"	
"20130114"	"Mostly Cloudy"	"18"	"54"	"32.0"	"0.0"	"0"	"0"	"-9999"	"-9999"	"52"	"mostlycloudy"	"METAR KBOS 142354Z 29007KT 10SM SCT140 BKN220 09/00 A3014 RMK AO2 SLP207 T00940000 10161 20094 51023"	"-9999.00"	"-9999.00"	"30.14"	"1020.7"	"0"	"0"	"48.9"	"9.4"	"0"	"0"	"10.0"	"16.1"	"290"	"WNW"	"-9999.0"	"-9999.0"	"-999"	"-999"	"8.1"	"13.0"	
"20130114"	"Mostly Cloudy"	"19"	"54"	"30.9"	"-0.6"	"0"	"0"	"-9999"	"-9999"	"52"	"mostlycloudy"	"METAR KBOS 150054Z 32010KT 10SM FEW060 BKN140 BKN220 09/M01 A3016 RMK AO2 SLP212 T00891006"	"-9999.00"	"-9999.00"	"30.16"	"1021.2"	"0"	"0"	"48.0"	"8.9"	"0"	"0"	"10.0"	"16.1"	"320"	"NW"	"-9999.0"	"-9999.0"	"-999"	"-999"	"11.5"	"18.5"	
"20130114"	"Mostly Cloudy"	"20"	"54"	"25.0"	"-3.9"	"0"	"0"	"-9999"	"-9999"	"44"	"mostlycloudy"	"METAR KBOS 150154Z 33011KT 10SM BKN100 BKN220 08/M04 A3020 RMK AO2 SLP225 T00781039"	"-9999.00"	"-9999.00"	"30.20"	"1022.5"	"0"	"0"	"46.0"	"7.8"	"0"	"0"	"10.0"	"16.1"	"330"	"NNW"	"-9999.0"	"-9999.0"	"40.2"	"4.6"	"12.7"	"20.4"	
"20130114"	"Mostly Cloudy"	"21"	"54"	"26.1"	"-3.3"	"0"	"0"	"-9999"	"-9999"	"48"	"mostlycloudy"	"METAR KBOS 150254Z 32010G16KT 10SM SCT080 BKN220 07/M03 A3019 RMK AO2 SLP222 T00721033 50015"	"-9999.00"	"-9999.00"	"30.19"	"1022.2"	"0"	"0"	"45.0"	"7.2"	"0"	"0"	"10.0"	"16.1"	"320"	"NW"	"18.4"	"29.6"	"39.3"	"4.0"	"11.5"	"18.5"	
"20130114"	"Overcast"	"22"	"54"	"25.0"	"-3.9"	"0"	"0"	"-9999"	"-9999"	"47"	"cloudy"	"METAR KBOS 150354Z 32012G17KT 10SM OVC090 07/M04 A3022 RMK AO2 SLP234 T00671039"	"-9999.00"	"-9999.00"	"30.22"	"1023.4"	"0"	"0"	"44.1"	"6.7"	"0"	"0"	"10.0"	"16.1"	"320"	"NW"	"19.6"	"31.5"	"37.4"	"3.0"	"13.8"	"22.2"	
"20130114"	"Mostly Cloudy"	"23"	"54"	"24.1"	"-4.4"	"0"	"0"	"-9999"	"-9999"	"47"	"mostlycloudy"	"METAR KBOS 150454Z 32008KT 10SM BKN110 06/M04 A3026 RMK AO2 SLP245 T00611044 401610056"	"-9999.00"	"-9999.00"	"30.26"	"1024.5"	"0"	"0"	"43.0"	"6.1"	"0"	"0"	"10.0"	"16.1"	"320"	"NW"	"-9999.0"	"-9999.0"	"37.7"	"3.2"	"9.2"	"14.8"	
"20130113"	"Light Drizzle"	"00"	"54"	"41.0"	"5.0"	"0"	"0"	"-9999"	"-9999"	"100"	"rain"	"METAR KBOS 130554Z 21005KT 1/4SM R04R/6000VP6000FT -DZ BR VV003 05/05 A3014 RMK AO2 SFC VIS 3/4 SLP207 P0000 60000 T00500050 10061 20050 55001"	"0.00"	"0.0"	"30.14"	"1020.7"	"0"	"0"	"41.0"	"5.0"	"0"	"0"	"0.2"	"0.4"	"210"	"SSW"	"-9999.0"	"-9999.0"	"37.1"	"2.8"	"5.8"	"9.3"	
"20130113"	"Light Drizzle"	"01"	"54"	"41.0"	"5.0"	"0"	"0"	"-9999"	"-9999"	"100"	"rain"	"METAR KBOS 130654Z 18004KT 1/4SM R04R/3000V4500FT -DZ BR VV003 05/05 A3015 RMK AO2 SFC VIS 3/4 SLP209 P0000 T00500050"	"0.00"	"0.0"	"30.15"	"1020.9"	"0"	"0"	"41.0"	"5.0"	"0"	"0"	"0.2"	"0.4"	"180"	"South"	"-9999.0"	"-9999.0"	"38.0"	"3.3"	"4.6"	"7.4"	
"20130113"	"Overcast"	"02"	"54"	"41.0"	"5.0"	"0"	"0"	"-9999"	"-9999"	"100"	"cloudy"	"METAR KBOS 130754Z 22004KT 1/4SM R04R/4500VP6000FT BR BKN003 OVC009 05/05 A3014 RMK AO2 SFC VIS 3/4 DZE45 SLP207 P0000 T00500050"	"0.00"	"0.0"	"30.14"	"1020.7"	"0"	"0"	"41.0"	"5.0"	"0"	"0"	"0.2"	"0.4"	"220"	"SW"	"-9999.0"	"-9999.0"	"38.0"	"3.3"	"4.6"	"7.4"	
"20130113"	"Overcast"	"03"	"31"	"41.0"	"5.0"	"0"	"0"	"-9999"	"-9999"	"100"	"cloudy"	"SPECI KBOS 130831Z 22004KT 3SM BR BKN003 OVC009 05/05 A3014 RMK AO2"	"-9999.00"	"-9999.00"	"30.14"	"1020.5"	"0"	"0"	"41.0"	"5.0"	"0"	"0"	"3.0"	"4.8"	"220"	"SW"	"-9999.0"	"-9999.0"	"38.0"	"3.3"	"4.6"	"7.4"	
"20130113"	"Overcast"	"03"	"54"	"41.0"	"5.0"	"0"	"0"	"-9999"	"-9999"	"100"	"cloudy"	"METAR KBOS 130854Z 22005KT 3SM BKN005 OVC015 05/05 A3013 RMK AO2 SFC VIS 7 SLP202 60000 T00500050 58005"	"-9999.00"	"-9999.00"	"30.13"	"1020.2"	"0"	"0"	"41.0"	"5.0"	"0"	"0"	"3.0"	"4.8"	"220"	"SW"	"-9999.0"	"-9999.0"	"37.1"	"2.8"	"5.8"	"9.3"	
"20130113"	"Overcast"	"04"	"37"	"41.0"	"5.0"	"0"	"0"	"-9999"	"-9999"	"100"	"cloudy"	"SPECI KBOS 130937Z 19006KT 3SM BR SCT005 OVC013 05/05 A3012 RMK AO2 SFC VIS 4"	"-9999.00"	"-9999.00"	"30.12"	"1019.9"	"0"	"0"	"41.0"	"5.0"	"0"	"0"	"3.0"	"4.8"	"190"	"South"	"-9999.0"	"-9999.0"	"36.4"	"2.5"	"6.9"	"11.1"	
"20130113"	"Overcast"	"04"	"54"	"41.0"	"5.0"	"0"	"0"	"-9999"	"-9999"	"100"	"cloudy"	"METAR KBOS 130954Z 17007KT 3SM BR SCT005 OVC011 05/05 A3011 RMK AO2 SFC VIS 5 SLP195 T00500050"	"-9999.00"	"-9999.00"	"30.11"	"1019.5"	"0"	"0"	"41.0"	"5.0"	"0"	"0"	"3.0"	"4.8"	"170"	"South"	"-9999.0"	"-9999.0"	"35.8"	"2.1"	"8.1"	"13.0"	
"20130113"	"Overcast"	"05"	"54"	"41.0"	"5.0"	"0"	"0"	"-9999"	"-9999"	"100"	"cloudy"	"METAR KBOS 131054Z 11003KT 5SM BR FEW005 OVC012 05/05 A3010 RMK AO2 SLP191 T00500050"	"-9999.00"	"-9999.00"	"30.10"	"1019.1"	"0"	"0"	"41.0"	"5.0"	"0"	"0"	"5.0"	"8.0"	"110"	"ESE"	"-9999.0"	"-9999.0"	"39.0"	"3.9"	"3.5"	"5.6"	
"20130113"	"Overcast"	"06"	"54"	"41.0"	"5.0"	"0"	"0"	"-9999"	"-9999"	"100"	"cloudy"	"METAR KBOS 131154Z 16003KT 7SM FEW003 OVC009 05/05 A3013 RMK AO2 SLP203 60000 T00500050 10056 20044 53001"	"-9999.00"	"-9999.00"	"30.13"	"1020.3"	"0"	"0"	"41.0"	"5.0"	"0"	"0"	"7.0"	"11.3"	"160"	"SSE"	"-9999.0"	"-9999.0"	"39.0"	"3.9"	"3.5"	"5.6"	
"20130113"	"Light Drizzle"	"07"	"31"	"41.0"	"5.0"	"0"	"0"	"-9999"	"-9999"	"100"	"rain"	"SPECI KBOS 131231Z 00000KT 2SM -DZ BR OVC006 05/05 A3014 RMK AO2 SFC VIS 3 DZB15 CIG 003V009 P0000"	"0.00"	"0.0"	"30.14"	"1020.5"	"0"	"0"	"41.0"	"5.0"	"0"	"0"	"2.0"	"3.2"	"0"	"North"	"-9999.0"	"-9999.0"	"-999"	"-999"	"0.0"	"0.0"	
"20130113"	"Light Drizzle"	"07"	"54"	"42.1"	"5.6"	"0"	"0"	"-9999"	"-9999"	"100"	"rain"	"METAR KBOS 131254Z 00000KT 1 3/4SM -DZ BR BKN003 OVC009 06/06 A3015 RMK AO2 TWR VIS 2 SLP209 DZB15 CIG 003V009 P0000 T00560056"	"0.00"	"0.0"	"30.15"	"1020.9"	"0"	"0"	"42.1"	"5.6"	"0"	"0"	"1.8"	"2.8"	"0"	"North"	"-9999.0"	"-9999.0"	"-999"	"-999"	"0.0"	"0.0"	
"20130113"	"Light Drizzle"	"08"	"54"	"43.0"	"6.1"	"0"	"0"	"-9999"	"-9999"	"100"	"rain"	"METAR KBOS 131354Z 20005KT 3/4SM R04R/4000V5000FT -DZ BR OVC004 06/06 A3016 RMK AO2 SFC VIS 1 1/2 SLP210 CIG 003V008 VIS W-NW 2 1/2 P0000 T00610061"	"0.00"	"0.0"	"30.15"	"1021.0"	"0"	"0"	"43.0"	"6.1"	"0"	"0"	"0.8"	"1.2"	"200"	"SSW"	"-9999.0"	"-9999.0"	"39.5"	"4.2"	"5.8"	"9.3"	
"20130113"	"Overcast"	"09"	"54"	"44.1"	"6.7"	"0"	"0"	"-9999"	"-9999"	"100"	"cloudy"	"METAR KBOS 131454Z 21005KT 1/2SM R04R/5500VP6000FT BR OVC003 07/07 A3015 RMK AO2 SFC VIS 1 3/4 SLP210 DZE30 VIS W-NW 2 1/2 P0000 60000 T00670067 50007 $"	"0.00"	"0.0"	"30.15"	"1021.0"	"0"	"0"	"44.1"	"6.7"	"0"	"0"	"0.5"	"0.8"	"210"	"SSW"	"-9999.0"	"-9999.0"	"40.8"	"4.9"	"5.8"	"9.3"	
"20130113"	"Light Drizzle"	"10"	"54"	"44.1"	"6.7"	"0"	"0"	"-9999"	"-9999"	"100"	"rain"	"METAR KBOS 131554Z COR 21005KT 3SM R04R/6000VP6000FT -DZ BR BKN004 OVC008 07/07 A3014 RMK AO2 SLP206 DZB03 P0000 T00670067 $"	"0.00"	"0.0"	"30.14"	"1020.6"	"0"	"0"	"44.1"	"6.7"	"0"	"0"	"3.0"	"4.8"	"210"	"SSW"	"-9999.0"	"-9999.0"	"40.8"	"4.9"	"5.8"	"9.3"	
"20130113"	"Light Drizzle"	"11"	"54"	"46.0"	"7.8"	"0"	"0"	"-9999"	"-9999"	"100"	"rain"	"METAR KBOS 131654Z 19003KT 5SM -DZ BR OVC004 08/08 A3012 RMK AO2 SLP198 DZE1555B20 P0000 T00780078 $"	"0.00"	"0.0"	"30.12"	"1019.8"	"0"	"0"	"46.0"	"7.8"	"0"	"0"	"5.0"	"8.0"	"190"	"South"	"-9999.0"	"-9999.0"	"44.8"	"7.1"	"3.5"	"5.6"	
"20130113"	"Light Drizzle"	"12"	"09"	"46.4"	"8.0"	"0"	"0"	"-9999"	"-9999"	"100"	"rain"	"SPECI KBOS 131709Z 20003KT 2SM -DZ BR OVC004 08/08 A3011 RMK AO2 SFC VIS 4 P0000 $"	"0.00"	"0.0"	"30.11"	"1019.5"	"0"	"0"	"46.4"	"8.0"	"0"	"0"	"2.0"	"3.2"	"200"	"SSW"	"-9999.0"	"-9999.0"	"45.2"	"7.3"	"3.5"	"5.6"	
"20130113"	"Overcast"	"12"	"54"	"46.9"	"8.3"	"0"	"0"	"-9999"	"-9999"	"100"	"cloudy"	"METAR KBOS 131754Z 15003KT 2SM OVC004 08/08 A3009 RMK AO2 SFC VIS 8 SLP188 DZE25 P0000 60000 T00830083 10083 20050 58022 $"	"0.00"	"0.0"	"30.09"	"1018.8"	"0"	"0"	"46.9"	"8.3"	"0"	"0"	"2.0"	"3.2"	"150"	"SSE"	"-9999.0"	"-9999.0"	"-999"	"-999"	"3.5"	"5.6"	
"20130113"	"Overcast"	"13"	"04"	"46.4"	"8.0"	"0"	"0"	"-9999"	"-9999"	"93"	"cloudy"	"SPECI KBOS 131804Z 21009KT 8SM OVC005 09/08 A3008 RMK AO2 $"	"-9999.00"	"-9999.00"	"30.08"	"1018.5"	"0"	"0"	"48.2"	"9.0"	"0"	"0"	"8.0"	"12.9"	"210"	"SSW"	"-9999.0"	"-9999.0"	"-999"	"-999"	"10.4"	"16.7"	
"20130113"	"Overcast"	"13"	"54"	"46.9"	"8.3"	"0"	"0"	"-9999"	"-9999"	"93"	"cloudy"	"METAR KBOS 131854Z 22008KT 10SM FEW006 OVC007 09/08 A3008 RMK AO2 SLP187 T00940083 $"	"-9999.00"	"-9999.00"	"30.09"	"1018.7"	"0"	"0"	"48.9"	"9.4"	"0"	"0"	"10.0"	"16.1"	"220"	"SW"	"-9999.0"	"-9999.0"	"-999"	"-999"	"9.2"	"14.8"	
"20130113"	"Overcast"	"14"	"54"	"46.9"	"8.3"	"0"	"0"	"-9999"	"-9999"	"96"	"cloudy"	"METAR KBOS 131954Z 19007KT 9SM OVC008 09/08 A3007 RMK AO2 SLP181 T00890083 $"	"-9999.00"	"-9999.00"	"30.07"	"1018.1"	"0"	"0"	"48.0"	"8.9"	"0"	"0"	"9.0"	"14.5"	"190"	"South"	"-9999.0"	"-9999.0"	"-999"	"-999"	"8.1"	"13.0"	
"20130113"	"Mostly Cloudy"	"15"	"54"	"46.9"	"8.3"	"0"	"0"	"-9999"	"-9999"	"96"	"mostlycloudy"	"METAR KBOS 132054Z 18005KT 9SM BKN008 BKN023 09/08 A3006 RMK AO2 SLP177 T00890083 58011 $"	"-9999.00"	"-9999.00"	"30.06"	"1017.7"	"0"	"0"	"48.0"	"8.9"	"0"	"0"	"9.0"	"14.5"	"180"	"South"	"-9999.0"	"-9999.0"	"-999"	"-999"	"5.8"	"9.3"	
"20130113"	"Overcast"	"16"	"54"	"46.9"	"8.3"	"0"	"0"	"-9999"	"-9999"	"96"	"cloudy"	"METAR KBOS 132154Z 21006KT 10SM OVC008 09/08 A3004 RMK AO2 SLP173 T00890083 $"	"-9999.00"	"-9999.00"	"30.04"	"1017.3"	"0"	"0"	"48.0"	"8.9"	"0"	"0"	"10.0"	"16.1"	"210"	"SSW"	"-9999.0"	"-9999.0"	"-999"	"-999"	"6.9"	"11.1"	
"20130113"	"Overcast"	"17"	"01"	"46.4"	"8.0"	"0"	"0"	"-9999"	"-9999"	"93"	"cloudy"	"SPECI KBOS 132201Z 19008KT 10SM OVC010 09/08 A3004 RMK AO2 $"	"-9999.00"	"-9999.00"	"30.04"	"1017.2"	"0"	"0"	"48.2"	"9.0"	"0"	"0"	"10.0"	"16.1"	"190"	"South"	"-9999.0"	"-9999.0"	"-999"	"-999"	"9.2"	"14.8"	
"20130113"	"Mostly Cloudy"	"17"	"23"	"46.4"	"8.0"	"0"	"0"	"-9999"	"-9999"	"100"	"mostlycloudy"	"SPECI KBOS 132223Z 20007KT 10SM SCT010 BKN045 08/08 A3003 RMK AO2 $"	"-9999.00"	"-9999.00"	"30.03"	"1016.8"	"0"	"0"	"46.4"	"8.0"	"0"	"0"	"10.0"	"16.1"	"200"	"SSW"	"-9999.0"	"-9999.0"	"42.4"	"5.8"	"8.1"	"13.0"	
"20130113"	"Scattered Clouds"	"17"	"54"	"46.0"	"7.8"	"0"	"0"	"-9999"	"-9999"	"93"	"partlycloudy"	"METAR KBOS 132254Z 20009KT 10SM FEW047 SCT250 09/08 A3003 RMK AO2 SLP167 T00890078 $"	"-9999.00"	"-9999.00"	"30.03"	"1016.7"	"0"	"0"	"48.0"	"8.9"	"0"	"0"	"10.0"	"16.1"	"200"	"SSW"	"-9999.0"	"-9999.0"	"-999"	"-999"	"10.4"	"16.7"	
"20130113"	"Mostly Cloudy"	"18"	"54"	"46.0"	"7.8"	"0"	"0"	"-9999"	"-9999"	"93"	"mostlycloudy"	"METAR KBOS 132354Z 21007KT 10SM SCT020 BKN250 09/08 A3001 RMK AO2 SLP161 T00890078 10094 20083 58016 $"	"-9999.00"	"-9999.00"	"30.01"	"1016.1"	"0"	"0"	"48.0"	"8.9"	"0"	"0"	"10.0"	"16.1"	"210"	"SSW"	"-9999.0"	"-9999.0"	"-999"	"-999"	"8.1"	"13.0"	
"20130113"	"Mostly Cloudy"	"19"	"37"	"46.4"	"8.0"	"0"	"0"	"-9999"	"-9999"	"93"	"mostlycloudy"	"SPECI KBOS 140037Z 23011KT 10SM FEW011 BKN027 BKN250 09/08 A3001 RMK AO2 $"	"-9999.00"	"-9999.00"	"30.01"	"1016.1"	"0"	"0"	"48.2"	"9.0"	"0"	"0"	"10.0"	"16.1"	"230"	"SW"	"-9999.0"	"-9999.0"	"-999"	"-999"	"12.7"	"20.4"	
"20130113"	"Overcast"	"19"	"54"	"46.9"	"8.3"	"0"	"0"	"-9999"	"-9999"	"93"	"cloudy"	"METAR KBOS 140054Z 22011KT 10SM FEW011 OVC027 09/08 A3002 RMK AO2 SLP164 T00940083 $"	"-9999.00"	"-9999.00"	"30.02"	"1016.4"	"0"	"0"	"48.9"	"9.4"	"0"	"0"	"10.0"	"16.1"	"220"	"SW"	"-9999.0"	"-9999.0"	"-999"	"-999"	"12.7"	"20.4"	
"20130113"	"Overcast"	"20"	"11"	"46.4"	"8.0"	"0"	"0"	"-9999"	"-9999"	"93"	"cloudy"	"SPECI KBOS 140111Z 22007KT 10SM BKN011 OVC027 09/08 A3002 RMK AO2 $"	"-9999.00"	"-9999.00"	"30.02"	"1016.5"	"0"	"0"	"48.2"	"9.0"	"0"	"0"	"10.0"	"16.1"	"220"	"SW"	"-9999.0"	"-9999.0"	"-999"	"-999"	"8.1"	"13.0"	
"20130113"	"Overcast"	"20"	"54"	"48.0"	"8.9"	"0"	"0"	"-9999"	"-9999"	"97"	"cloudy"	"METAR KBOS 140154Z 22007KT 10SM SCT013 OVC027 09/09 A3003 RMK AO2 SLP167 T00940089 $"	"-9999.00"	"-9999.00"	"30.03"	"1016.7"	"0"	"0"	"48.9"	"9.4"	"0"	"0"	"10.0"	"16.1"	"220"	"SW"	"-9999.0"	"-9999.0"	"-999"	"-999"	"8.1"	"13.0"	
"20130113"	"Overcast"	"21"	"54"	"48.0"	"8.9"	"0"	"0"	"-9999"	"-9999"	"97"	"cloudy"	"METAR KBOS 140254Z 20007KT 10SM SCT011 OVC025 09/09 A3001 RMK AO2 SLP163 T00940089 50001 $"	"-9999.00"	"-9999.00"	"30.01"	"1016.3"	"0"	"0"	"48.9"	"9.4"	"0"	"0"	"10.0"	"16.1"	"200"	"SSW"	"-9999.0"	"-9999.0"	"-999"	"-999"	"8.1"	"13.0"	
"20130113"	"Overcast"	"22"	"54"	"48.0"	"8.9"	"0"	"0"	"-9999"	"-9999"	"97"	"cloudy"	"METAR KBOS 140354Z 20007KT 10SM OVC023 09/09 A3000 RMK AO2 SLP157 T00940089 $"	"-9999.00"	"-9999.00"	"30.00"	"1015.7"	"0"	"0"	"48.9"	"9.4"	"0"	"0"	"10.0"	"16.1"	"200"	"SSW"	"-9999.0"	"-9999.0"	"-999"	"-999"	"8.1"	"13.0"	
"20130113"	"Overcast"	"23"	"44"	"48.2"	"9.0"	"0"	"0"	"-9999"	"-9999"	"94"	"cloudy"	"SPECI KBOS 140444Z 22012G19KT 10SM BKN013 OVC021 10/09 A2999 RMK AO2 $"	"-9999.00"	"-9999.00"	"29.99"	"1015.5"	"0"	"0"	"50.0"	"10.0"	"0"	"0"	"10.0"	"16.1"	"220"	"SW"	"21.9"	"35.2"	"-999"	"-999"	"13.8"	"22.2"	
"20130113"	"Overcast"	"23"	"54"	"48.0"	"8.9"	"0"	"0"	"-9999"	"-9999"	"89"	"cloudy"	"METAR KBOS 140454Z 21014KT 10SM BKN013 OVC019 11/09 A3000 RMK AO2 SLP156 T01060089 401060044 $"	"-9999.00"	"-9999.00"	"29.99"	"1015.6"	"0"	"0"	"51.1"	"10.6"	"0"	"0"	"10.0"	"16.1"	"210"	"SSW"	"-9999.0"	"-9999.0"	"-999"	"-999"	"16.1"	"25.9"	
"20130113"	"Overcast"	"23"	"59"	"48.2"	"9.0"	"0"	"0"	"-9999"	"-9999"	"94"	"cloudy"	"SPECI KBOS 140459Z 21012G19KT 10SM FEW007 BKN013 OVC019 10/09 A3000 RMK AO2 $"	"-9999.00"	"-9999.00"	"30.00"	"1015.8"	"0"	"0"	"50.0"	"10.0"	"0"	"0"	"10.0"	"16.1"	"210"	"SSW"	"21.9"	"35.2"	"-999"	"-999"	"13.8"	"22.2"	
"20130112"	"Overcast"	"00"	"19"	"35.6"	"2.0"	"0"	"0"	"-9999"	"-9999"	"93"	"cloudy"	"SPECI KBOS 120519Z 16006KT 5SM BR FEW010 SCT027 OVC036 03/02 A3024 RMK AO2 RAE19 CIG 027 E P0000"	"0.00"	"0.0"	"30.24"	"1023.9"	"0"	"0"	"37.4"	"3.0"	"0"	"0"	"5.0"	"8.0"	"160"	"SSE"	"-9999.0"	"-9999.0"	"32.1"	"0.0"	"6.9"	"11.1"	
"20130112"	"Overcast"	"00"	"28"	"35.6"	"2.0"	"0"	"0"	"-9999"	"-9999"	"93"	"cloudy"	"SPECI KBOS 120528Z 16007KT 4SM BR FEW006 SCT029 OVC036 03/02 A3023 RMK AO2 RAE19 CIG 027 E P0000"	"0.00"	"0.0"	"30.23"	"1023.6"	"0"	"0"	"37.4"	"3.0"	"0"	"0"	"4.0"	"6.4"	"160"	"SSE"	"-9999.0"	"-9999.0"	"31.4"	"-0.3"	"8.1"	"13.0"	
"20130112"	"Overcast"	"00"	"37"	"35.6"	"2.0"	"0"	"0"	"-9999"	"-9999"	"93"	"cloudy"	"SPECI KBOS 120537Z 17007KT 3SM BR SCT006 BKN014 OVC036 03/02 A3023 RMK AO2 RAE19 P0001"	"0.01"	"0.3"	"30.23"	"1023.6"	"0"	"0"	"37.4"	"3.0"	"0"	"0"	"3.0"	"4.8"	"170"	"South"	"-9999.0"	"-9999.0"	"31.4"	"-0.3"	"8.1"	"13.0"	
"20130112"	"Overcast"	"00"	"45"	"35.6"	"2.0"	"0"	"0"	"-9999"	"-9999"	"93"	"cloudy"	"SPECI KBOS 120545Z 16006KT 4SM BR SCT004 BKN016 OVC038 03/02 A3023 RMK AO2 RAE19 P0001"	"0.01"	"0.3"	"30.23"	"1023.6"	"0"	"0"	"37.4"	"3.0"	"0"	"0"	"4.0"	"6.4"	"160"	"SSE"	"-9999.0"	"-9999.0"	"32.1"	"0.0"	"6.9"	"11.1"	
"20130112"	"Overcast"	"00"	"54"	"36.0"	"2.2"	"0"	"0"	"-9999"	"-9999"	"93"	"cloudy"	"METAR KBOS 120554Z 15007KT 5SM BR BKN004 OVC018 03/02 A3022 RMK AO2 RAE19 SLP234 P0001 60012 T00330022 10039 20033 58012"	"0.01"	"0.3"	"30.22"	"1023.4"	"0"	"0"	"37.9"	"3.3"	"0"	"0"	"5.0"	"8.0"	"150"	"SSE"	"-9999.0"	"-9999.0"	"32.1"	"0.0"	"8.1"	"13.0"	
"20130112"	"Overcast"	"01"	"17"	"35.6"	"2.0"	"0"	"0"	"-9999"	"-9999"	"93"	"cloudy"	"SPECI KBOS 120617Z 14007KT 10SM SCT004 SCT018 OVC025 03/02 A3021 RMK AO2"	"-9999.00"	"-9999.00"	"30.21"	"1022.9"	"0"	"0"	"37.4"	"3.0"	"0"	"0"	"10.0"	"16.1"	"140"	"SE"	"-9999.0"	"-9999.0"	"31.4"	"-0.3"	"8.1"	"13.0"	
"20130112"	"Overcast"	"01"	"54"	"36.0"	"2.2"	"0"	"0"	"-9999"	"-9999"	"89"	"cloudy"	"METAR KBOS 120654Z 14007KT 10SM SCT019 OVC025 04/02 A3021 RMK AO2 SLP229 T00390022"	"-9999.00"	"-9999.00"	"30.21"	"1022.9"	"0"	"0"	"39.0"	"3.9"	"0"	"0"	"10.0"	"16.1"	"140"	"SE"	"-9999.0"	"-9999.0"	"33.4"	"0.8"	"8.1"	"13.0"	
"20130112"	"Overcast"	"02"	"29"	"37.4"	"3.0"	"0"	"0"	"-9999"	"-9999"	"93"	"cloudy"	"SPECI KBOS 120729Z 15005KT 10SM FEW008 BKN034 OVC043 04/03 A3021 RMK AO2 CIG 024 E"	"-9999.00"	"-9999.00"	"30.21"	"1022.9"	"0"	"0"	"39.2"	"4.0"	"0"	"0"	"10.0"	"16.1"	"150"	"SSE"	"-9999.0"	"-9999.0"	"35.0"	"1.7"	"5.8"	"9.3"	
"20130112"	"Overcast"	"02"	"39"	"37.4"	"3.0"	"0"	"0"	"-9999"	"-9999"	"93"	"cloudy"	"SPECI KBOS 120739Z 14007KT 10SM BKN008 BKN024 OVC043 04/03 A3020 RMK AO2"	"-9999.00"	"-9999.00"	"30.20"	"1022.6"	"0"	"0"	"39.2"	"4.0"	"0"	"0"	"10.0"	"16.1"	"140"	"SE"	"-9999.0"	"-9999.0"	"33.6"	"0.9"	"8.1"	"13.0"	
"20130112"	"Overcast"	"02"	"54"	"37.0"	"2.8"	"0"	"0"	"-9999"	"-9999"	"93"	"cloudy"	"METAR KBOS 120754Z 16006KT 10SM OVC008 04/03 A3020 RMK AO2 SLP225 T00390028"	"-9999.00"	"-9999.00"	"30.20"	"1022.5"	"0"	"0"	"39.0"	"3.9"	"0"	"0"	"10.0"	"16.1"	"160"	"SSE"	"-9999.0"	"-9999.0"	"34.0"	"1.1"	"6.9"	"11.1"	
"20130112"	"Overcast"	"03"	"54"	"37.0"	"2.8"	"0"	"0"	"-9999"	"-9999"	"93"	"cloudy"	"METAR KBOS 120854Z 13004KT 8SM OVC008 04/03 A3017 RMK AO2 SLP217 T00390028 58017"	"-9999.00"	"-9999.00"	"30.17"	"1021.7"	"0"	"0"	"39.0"	"3.9"	"0"	"0"	"8.0"	"12.9"	"130"	"SE"	"-9999.0"	"-9999.0"	"35.7"	"2.0"	"4.6"	"7.4"	
"20130112"	"Overcast"	"04"	"30"	"37.4"	"3.0"	"0"	"0"	"-9999"	"-9999"	"93"	"cloudy"	"SPECI KBOS 120930Z 14003KT 10SM SCT008 OVC019 04/03 A3017 RMK AO2"	"-9999.00"	"-9999.00"	"30.17"	"1021.6"	"0"	"0"	"39.2"	"4.0"	"0"	"0"	"10.0"	"16.1"	"140"	"SE"	"-9999.0"	"-9999.0"	"37.0"	"2.8"	"3.5"	"5.6"	
"20130112"	"Overcast"	"04"	"54"	"37.9"	"3.3"	"0"	"0"	"-9999"	"-9999"	"93"	"cloudy"	"METAR KBOS 120954Z 00000KT 10SM OVC019 04/03 A3016 RMK AO2 SLP213 T00440033"	"-9999.00"	"-9999.00"	"30.16"	"1021.3"	"0"	"0"	"39.9"	"4.4"	"0"	"0"	"10.0"	"16.1"	"0"	"North"	"-9999.0"	"-9999.0"	"-999"	"-999"	"0.0"	"0.0"	
"20130112"	"Overcast"	"05"	"43"	"39.2"	"4.0"	"0"	"0"	"-9999"	"-9999"	"100"	"cloudy"	"SPECI KBOS 121043Z 00000KT 8SM SCT009 OVC019 04/04 A3018 RMK AO2"	"-9999.00"	"-9999.00"	"30.18"	"1021.9"	"0"	"0"	"39.2"	"4.0"	"0"	"0"	"8.0"	"12.9"	"0"	"North"	"-9999.0"	"-9999.0"	"-999"	"-999"	"0.0"	"0.0"	
"20130112"	"Overcast"	"05"	"54"	"39.0"	"3.9"	"0"	"0"	"-9999"	"-9999"	"97"	"cloudy"	"METAR KBOS 121054Z 00000KT 5SM BR SCT009 OVC017 04/04 A3017 RMK AO2 SLP217 T00440039"	"-9999.00"	"-9999.00"	"30.17"	"1021.7"	"0"	"0"	"39.9"	"4.4"	"0"	"0"	"5.0"	"8.0"	"0"	"North"	"-9999.0"	"-9999.0"	"-999"	"-999"	"0.0"	"0.0"	
"20130112"	"Overcast"	"06"	"05"	"37.4"	"3.0"	"0"	"0"	"-9999"	"-9999"	"93"	"cloudy"	"SPECI KBOS 121105Z 00000KT 4SM BR BKN007 OVC017 04/03 A3017 RMK AO2"	"-9999.00"	"-9999.00"	"30.17"	"1021.6"	"0"	"0"	"39.2"	"4.0"	"0"	"0"	"4.0"	"6.4"	"0"	"North"	"-9999.0"	"-9999.0"	"-999"	"-999"	"0.0"	"0.0"	
"20130112"	"Overcast"	"06"	"54"	"37.9"	"3.3"	"0"	"0"	"-9999"	"-9999"	"93"	"cloudy"	"METAR KBOS 121154Z 11003KT 2 1/2SM BR OVC005 04/03 A3017 RMK AO2 SFC VIS 5 SLP214 70013 T00440033 10044 20033 56003"	"-9999.00"	"-9999.00"	"30.17"	"1021.4"	"0"	"0"	"39.9"	"4.4"	"0"	"0"	"2.5"	"4.0"	"110"	"ESE"	"-9999.0"	"-9999.0"	"37.8"	"3.2"	"3.5"	"5.6"	
"20130112"	"Overcast"	"07"	"39"	"39.2"	"4.0"	"0"	"0"	"-9999"	"-9999"	"100"	"cloudy"	"SPECI KBOS 121239Z 00000KT 10SM OVC005 04/04 A3020 RMK AO2"	"-9999.00"	"-9999.00"	"30.20"	"1022.6"	"0"	"0"	"39.2"	"4.0"	"0"	"0"	"10.0"	"16.1"	"0"	"North"	"-9999.0"	"-9999.0"	"-999"	"-999"	"0.0"	"0.0"	
"20130112"	"Overcast"	"07"	"54"	"39.0"	"3.9"	"0"	"0"	"-9999"	"-9999"	"93"	"cloudy"	"METAR KBOS 121254Z 00000KT 7SM OVC005 05/04 A3020 RMK AO2 SLP226 T00500039"	"-9999.00"	"-9999.00"	"30.20"	"1022.6"	"0"	"0"	"41.0"	"5.0"	"0"	"0"	"7.0"	"11.3"	"0"	"North"	"-9999.0"	"-9999.0"	"-999"	"-999"	"0.0"	"0.0"	
"20130112"	"Overcast"	"08"	"38"	"39.2"	"4.0"	"0"	"0"	"-9999"	"-9999"	"93"	"cloudy"	"SPECI KBOS 121338Z 13003KT 7SM SCT005 OVC017 05/04 A3019 RMK AO2"	"-9999.00"	"-9999.00"	"30.19"	"1022.2"	"0"	"0"	"41.0"	"5.0"	"0"	"0"	"7.0"	"11.3"	"130"	"SE"	"-9999.0"	"-9999.0"	"39.0"	"3.9"	"3.5"	"5.6"	
"20130112"	"Overcast"	"08"	"54"	"39.0"	"3.9"	"0"	"0"	"-9999"	"-9999"	"93"	"cloudy"	"METAR KBOS 121354Z 13003KT 7SM SCT005 OVC017 05/04 A3020 RMK AO2 SLP225 T00500039"	"-9999.00"	"-9999.00"	"30.20"	"1022.5"	"0"	"0"	"41.0"	"5.0"	"0"	"0"	"7.0"	"11.3"	"130"	"SE"	"-9999.0"	"-9999.0"	"39.0"	"3.9"	"3.5"	"5.6"	
"20130112"	"Overcast"	"09"	"54"	"39.9"	"4.4"	"0"	"0"	"-9999"	"-9999"	"92"	"cloudy"	"METAR KBOS 121454Z 00000KT 10SM SCT007 OVC015 06/04 A3020 RMK AO2 SLP226 T00560044 51012"	"-9999.00"	"-9999.00"	"30.20"	"1022.6"	"0"	"0"	"42.1"	"5.6"	"0"	"0"	"10.0"	"16.1"	"0"	"North"	"-9999.0"	"-9999.0"	"-999"	"-999"	"0.0"	"0.0"	
"20130112"	"Overcast"	"10"	"54"	"39.0"	"3.9"	"0"	"0"	"-9999"	"-9999"	"86"	"cloudy"	"METAR KBOS 121554Z 00000KT 10SM SCT006 BKN009 OVC012 06/04 A3019 RMK AO2 SLP221 T00610039"	"-9999.00"	"-9999.00"	"30.19"	"1022.1"	"0"	"0"	"43.0"	"6.1"	"0"	"0"	"10.0"	"16.1"	"0"	"North"	"-9999.0"	"-9999.0"	"-999"	"-999"	"0.0"	"0.0"	
"20130112"	"Overcast"	"11"	"54"	"39.0"	"3.9"	"0"	"0"	"-9999"	"-9999"	"89"	"cloudy"	"METAR KBOS 121654Z 09004KT 10SM FEW006 BKN009 OVC012 06/04 A3016 RMK AO2 SLP214 T00560039"	"-9999.00"	"-9999.00"	"30.17"	"1021.4"	"0"	"0"	"42.1"	"5.6"	"0"	"0"	"10.0"	"16.1"	"90"	"East"	"-9999.0"	"-9999.0"	"39.2"	"4.0"	"4.6"	"7.4"	
"20130112"	"Overcast"	"12"	"54"	"39.9"	"4.4"	"0"	"0"	"-9999"	"-9999"	"92"	"cloudy"	"METAR KBOS 121754Z 12003KT 7SM OVC006 06/04 A3014 RMK AO2 SLP207 T00560044 10067 20044 58019"	"-9999.00"	"-9999.00"	"30.14"	"1020.7"	"0"	"0"	"42.1"	"5.6"	"0"	"0"	"7.0"	"11.3"	"120"	"ESE"	"-9999.0"	"-9999.0"	"40.2"	"4.6"	"3.5"	"5.6"	
"20130112"	"Overcast"	"13"	"54"	"39.9"	"4.4"	"0"	"0"	"-9999"	"-9999"	"92"	"cloudy"	"METAR KBOS 121854Z 00000KT 7SM OVC006 06/04 A3017 RMK AO2 PRESRR SLP216 T00560044"	"-9999.00"	"-9999.00"	"30.17"	"1021.6"	"0"	"0"	"42.1"	"5.6"	"0"	"0"	"7.0"	"11.3"	"0"	"North"	"-9999.0"	"-9999.0"	"-999"	"-999"	"0.0"	"0.0"	
"20130112"	"Overcast"	"14"	"54"	"39.9"	"4.4"	"0"	"0"	"-9999"	"-9999"	"89"	"cloudy"	"METAR KBOS 121954Z 11003KT 7SM BKN007 OVC011 06/04 A3017 RMK AO2 SLP214 VIS LWR SE T00610044"	"-9999.00"	"-9999.00"	"30.17"	"1021.4"	"0"	"0"	"43.0"	"6.1"	"0"	"0"	"7.0"	"11.3"	"110"	"ESE"	"-9999.0"	"-9999.0"	"41.3"	"5.2"	"3.5"	"5.6"	
"20130112"	"Overcast"	"15"	"45"	"39.2"	"4.0"	"0"	"0"	"-9999"	"-9999"	"87"	"cloudy"	"SPECI KBOS 122045Z 00000KT 1SM R04R/P6000FT BR OVC004 06/04 A3017 RMK AO2"	"-9999.00"	"-9999.00"	"30.17"	"1021.6"	"0"	"0"	"42.8"	"6.0"	"0"	"0"	"1.0"	"1.6"	"0"	"North"	"-9999.0"	"-9999.0"	"-999"	"-999"	"0.0"	"0.0"	
"20130112"	"Overcast"	"15"	"54"	"39.9"	"4.4"	"0"	"0"	"-9999"	"-9999"	"96"	"cloudy"	"METAR KBOS 122054Z 00000KT 1SM R04R/P6000FT BR OVC004 05/04 A3017 RMK AO2 SLP216 T00500044 51009"	"-9999.00"	"-9999.00"	"30.17"	"1021.6"	"0"	"0"	"41.0"	"5.0"	"0"	"0"	"1.0"	"1.6"	"0"	"North"	"-9999.0"	"-9999.0"	"-999"	"-999"	"0.0"	"0.0"	
"20130112"	"Overcast"	"16"	"54"	"39.0"	"3.9"	"0"	"0"	"-9999"	"-9999"	"93"	"cloudy"	"METAR KBOS 122154Z 15003KT 1/2SM R04R/P6000FT BR OVC004 05/04 A3015 RMK AO2 SFC VIS 1 SLP208 T00500039"	"-9999.00"	"-9999.00"	"30.15"	"1020.8"	"0"	"0"	"41.0"	"5.0"	"0"	"0"	"0.5"	"0.8"	"150"	"SSE"	"-9999.0"	"-9999.0"	"39.0"	"3.9"	"3.5"	"5.6"	
"20130112"	"Light Drizzle"	"17"	"54"	"41.0"	"5.0"	"0"	"0"	"-9999"	"-9999"	"96"	"rain"	"METAR KBOS 122254Z 00000KT 1/2SM R04R/4000VP6000FT -DZ BR OVC003 06/05 A3016 RMK AO2 SFC VIS 3/4 DZB49 SLP214 P0000 T00560050"	"0.00"	"0.0"	"30.17"	"1021.4"	"0"	"0"	"42.1"	"5.6"	"0"	"0"	"0.5"	"0.8"	"0"	"North"	"-9999.0"	"-9999.0"	"-999"	"-999"	"0.0"	"0.0"	
"20130112"	"Light Drizzle"	"18"	"54"	"42.1"	"5.6"	"0"	"0"	"-9999"	"-9999"	"97"	"rain"	"METAR KBOS 122354Z 00000KT 1/2SM R04R/P6000FT -DZ BR OVC003 06/06 A3015 RMK AO2 SFC VIS 1 SLP209 P0000 60000 T00610056 10061 20050 56007"	"0.00"	"0.0"	"30.15"	"1020.9"	"0"	"0"	"43.0"	"6.1"	"0"	"0"	"0.5"	"0.8"	"0"	"North"	"-9999.0"	"-9999.0"	"-999"	"-999"	"0.0"	"0.0"	
"20130112"	"Light Drizzle"	"19"	"19"	"41.0"	"5.0"	"0"	"0"	"-9999"	"-9999"	"93"	"rain"	"SPECI KBOS 130019Z 24003KT 1 1/2SM -DZ BR BKN004 OVC010 06/05 A3015 RMK AO2 SFC VIS 2 P0000"	"0.00"	"0.0"	"30.15"	"1020.9"	"0"	"0"	"42.8"	"6.0"	"0"	"0"	"1.5"	"2.4"	"240"	"WSW"	"-9999.0"	"-9999.0"	"41.1"	"5.0"	"3.5"	"5.6"	
"20130112"	"Light Drizzle"	"19"	"34"	"42.8"	"6.0"	"0"	"0"	"-9999"	"-9999"	"100"	"rain"	"SPECI KBOS 130034Z 22003KT 1 1/2SM -DZ BR BKN005 OVC011 06/06 A3015 RMK AO2 SFC VIS 2 1/2 P0000"	"0.00"	"0.0"	"30.15"	"1020.9"	"0"	"0"	"42.8"	"6.0"	"0"	"0"	"1.5"	"2.4"	"220"	"SW"	"-9999.0"	"-9999.0"	"41.1"	"5.0"	"3.5"	"5.6"	
"20130112"	"Overcast"	"19"	"54"	"42.1"	"5.6"	"0"	"0"	"-9999"	"-9999"	"100"	"cloudy"	"METAR KBOS 130054Z 21003KT 1 1/2SM BR BKN005 OVC011 06/06 A3015 RMK AO2 SFC VIS 3 DZE44 SLP209 P0000 T00560056"	"0.00"	"0.0"	"30.15"	"1020.9"	"0"	"0"	"42.1"	"5.6"	"0"	"0"	"1.5"	"2.4"	"210"	"SSW"	"-9999.0"	"-9999.0"	"40.2"	"4.6"	"3.5"	"5.6"	
"20130112"	"Light Drizzle"	"20"	"54"	"42.1"	"5.6"	"0"	"0"	"-9999"	"-9999"	"100"	"rain"	"METAR KBOS 130154Z 00000KT 1 1/2SM -DZ BR OVC005 06/06 A3016 RMK AO2 SFC VIS 1 3/4 VIS 1/2 E DZB51 SLP212 P0000 T00560056"	"0.00"	"0.0"	"30.16"	"1021.2"	"0"	"0"	"42.1"	"5.6"	"0"	"0"	"1.5"	"2.4"	"0"	"North"	"-9999.0"	"-9999.0"	"-999"	"-999"	"0.0"	"0.0"	
"20130112"	"Light Drizzle"	"21"	"30"	"41.0"	"5.0"	"0"	"0"	"-9999"	"-9999"	"100"	"rain"	"SPECI KBOS 130230Z 20004KT 1SM R04R/4500VP6000FT -DZ BR OVC004 05/05 A3015 RMK AO2 TWR VIS 1 1/2 P0000"	"0.00"	"0.0"	"30.15"	"1020.9"	"0"	"0"	"41.0"	"5.0"	"0"	"0"	"1.0"	"1.6"	"200"	"SSW"	"-9999.0"	"-9999.0"	"38.0"	"3.3"	"4.6"	"7.4"	
"20130112"	"Light Drizzle"	"21"	"37"	"41.0"	"5.0"	"1"	"0"	"-9999"	"-9999"	"100"	"rain"	"SPECI KBOS 130237Z 19004KT 1/2SM R04R/4000V6000FT -DZ FG OVC004 05/05 A3015 RMK AO2 TWR VIS 1 1/2 P0000"	"0.00"	"0.0"	"30.15"	"1020.9"	"0"	"0"	"41.0"	"5.0"	"0"	"0"	"0.5"	"0.8"	"190"	"South"	"-9999.0"	"-9999.0"	"38.0"	"3.3"	"4.6"	"7.4"	
"20130112"	"Light Drizzle"	"21"	"54"	"41.0"	"5.0"	"0"	"0"	"-9999"	"-9999"	"100"	"rain"	"METAR KBOS 130254Z 00000KT 3/4SM R04R/2600V5000FT -DZ BR OVC003 05/05 A3015 RMK AO2 TWR VIS 1 1/2 SLP208 P0000 60000 T00500050 58000"	"0.00"	"0.0"	"30.15"	"1020.8"	"0"	"0"	"41.0"	"5.0"	"0"	"0"	"0.8"	"1.2"	"0"	"North"	"-9999.0"	"-9999.0"	"-999"	"-999"	"0.0"	"0.0"	
"20130112"	"Light Drizzle"	"22"	"13"	"42.8"	"6.0"	"0"	"0"	"-9999"	"-9999"	"100"	"rain"	"SPECI KBOS 130313Z 23003KT 1SM R04R/5500VP6000FT -DZ BR OVC003 06/06 A3015 RMK AO2 TWR VIS 1 1/2 P0000"	"0.00"	"0.0"	"30.15"	"1020.9"	"0"	"0"	"42.8"	"6.0"	"0"	"0"	"1.0"	"1.6"	"230"	"SW"	"-9999.0"	"-9999.0"	"41.1"	"5.0"	"3.5"	"5.6"	
"20130112"	"Light Drizzle"	"22"	"27"	"42.8"	"6.0"	"0"	"0"	"-9999"	"-9999"	"100"	"rain"	"SPECI KBOS 130327Z 22003KT 1/2SM R04R/3000V5500FT -DZ BR OVC003 06/06 A3014 RMK AO2 SFC VIS 3/4 P0000"	"0.00"	"0.0"	"30.14"	"1020.5"	"0"	"0"	"42.8"	"6.0"	"0"	"0"	"0.5"	"0.8"	"220"	"SW"	"-9999.0"	"-9999.0"	"41.1"	"5.0"	"3.5"	"5.6"	
"20130112"	"Light Drizzle"	"22"	"54"	"41.0"	"5.0"	"1"	"0"	"-9999"	"-9999"	"100"	"rain"	"METAR KBOS 130354Z 22003KT 1/2SM R04R/3000V5000FT -DZ FG OVC004 05/05 A3014 RMK AO2 SLP205 P0000 T00500050"	"0.00"	"0.0"	"30.14"	"1020.5"	"0"	"0"	"41.0"	"5.0"	"0"	"0"	"0.5"	"0.8"	"220"	"SW"	"-9999.0"	"-9999.0"	"39.0"	"3.9"	"3.5"	"5.6"	
"20130112"	"Light Drizzle"	"23"	"54"	"42.1"	"5.6"	"0"	"0"	"-9999"	"-9999"	"100"	"rain"	"METAR KBOS 130454Z 00000KT 1/4SM R04R/4000VP6000FT -DZ BR OVC003 06/06 A3014 RMK AO2 SFC VIS 3/4 SLP206 P0000 T00560056 400670033"	"0.00"	"0.0"	"30.14"	"1020.6"	"0"	"0"	"42.1"	"5.6"	"0"	"0"	"0.2"	"0.4"	"0"	"North"	"-9999.0"	"-9999.0"	"-999"	"-999"	"0.0"	"0.0"	
"20130111"	"Clear"	"00"	"54"	"21.9"	"-5.6"	"0"	"0"	"-9999"	"-9999"	"59"	"clear"	"METAR KBOS 110554Z 31007KT 10SM CLR 02/M06 A3052 RMK AO2 SLP335 T00171056 10050 20017 55004"	"-9999.00"	"-9999.00"	"30.52"	"1033.5"	"0"	"0"	"35.1"	"1.7"	"0"	"0"	"10.0"	"16.1"	"310"	"NW"	"-9999.0"	"-9999.0"	"28.6"	"-1.9"	"8.1"	"13.0"	
"20130111"	"Clear"	"01"	"54"	"21.9"	"-5.6"	"0"	"0"	"-9999"	"-9999"	"61"	"clear"	"METAR KBOS 110654Z 34006KT 10SM CLR 01/M06 A3051 RMK AO2 SLP332 T00111056"	"-9999.00"	"-9999.00"	"30.51"	"1033.2"	"0"	"0"	"34.0"	"1.1"	"0"	"0"	"10.0"	"16.1"	"340"	"NNW"	"-9999.0"	"-9999.0"	"28.0"	"-2.2"	"6.9"	"11.1"	
"20130111"	"Clear"	"02"	"54"	"21.9"	"-5.6"	"0"	"0"	"-9999"	"-9999"	"64"	"clear"	"METAR KBOS 110754Z 33005KT 10SM CLR 01/M06 A3051 RMK AO2 SLP331 T00061056"	"-9999.00"	"-9999.00"	"30.51"	"1033.1"	"0"	"0"	"33.1"	"0.6"	"0"	"0"	"10.0"	"16.1"	"330"	"NNW"	"-9999.0"	"-9999.0"	"27.7"	"-2.4"	"5.8"	"9.3"	
"20130111"	"Clear"	"03"	"54"	"21.0"	"-6.1"	"0"	"0"	"-9999"	"-9999"	"64"	"clear"	"METAR KBOS 110854Z 34004KT 10SM CLR 00/M06 A3049 RMK AO2 SLP324 T00001061 58011"	"-9999.00"	"-9999.00"	"30.49"	"1032.4"	"0"	"0"	"32.0"	"0.0"	"0"	"0"	"10.0"	"16.1"	"340"	"NNW"	"-9999.0"	"-9999.0"	"27.5"	"-2.5"	"4.6"	"7.4"	
"20130111"	"Clear"	"04"	"54"	"21.9"	"-5.6"	"0"	"0"	"-9999"	"-9999"	"66"	"clear"	"METAR KBOS 110954Z 32004KT 10SM CLR 00/M06 A3048 RMK AO2 SLP320 T00001056"	"-9999.00"	"-9999.00"	"30.48"	"1032.0"	"0"	"0"	"32.0"	"0.0"	"0"	"0"	"10.0"	"16.1"	"320"	"NW"	"-9999.0"	"-9999.0"	"27.5"	"-2.5"	"4.6"	"7.4"	
"20130111"	"Scattered Clouds"	"05"	"54"	"21.9"	"-5.6"	"0"	"0"	"-9999"	"-9999"	"66"	"partlycloudy"	"METAR KBOS 111054Z 33005KT 10SM SCT200 00/M06 A3049 RMK AO2 SLP325 T00001056"	"-9999.00"	"-9999.00"	"30.49"	"1032.5"	"0"	"0"	"32.0"	"0.0"	"0"	"0"	"10.0"	"16.1"	"330"	"NNW"	"-9999.0"	"-9999.0"	"26.4"	"-3.1"	"5.8"	"9.3"	
"20130111"	"Mostly Cloudy"	"06"	"54"	"21.9"	"-5.6"	"0"	"0"	"-9999"	"-9999"	"66"	"mostlycloudy"	"METAR KBOS 111154Z 35004KT 10SM FEW140 BKN250 00/M06 A3051 RMK AO2 SLP329 T00001056 10017 20000 53005"	"-9999.00"	"-9999.00"	"30.51"	"1032.9"	"0"	"0"	"32.0"	"0.0"	"0"	"0"	"10.0"	"16.1"	"350"	"North"	"-9999.0"	"-9999.0"	"27.5"	"-2.5"	"4.6"	"7.4"	
"20130111"	"Overcast"	"07"	"54"	"21.9"	"-5.6"	"0"	"0"	"-9999"	"-9999"	"66"	"cloudy"	"METAR KBOS 111254Z 35005KT 10SM BKN200 OVC250 00/M06 A3051 RMK AO2 SLP331 T00001056"	"-9999.00"	"-9999.00"	"30.51"	"1033.1"	"0"	"0"	"32.0"	"0.0"	"0"	"0"	"10.0"	"16.1"	"350"	"North"	"-9999.0"	"-9999.0"	"26.4"	"-3.1"	"5.8"	"9.3"	
"20130111"	"Mostly Cloudy"	"08"	"54"	"24.1"	"-4.4"	"0"	"0"	"-9999"	"-9999"	"67"	"mostlycloudy"	"METAR KBOS 111354Z 01003KT 10SM SCT200 BKN250 01/M04 A3051 RMK AO2 SLP329 T00111044"	"-9999.00"	"-9999.00"	"30.51"	"1032.9"	"0"	"0"	"34.0"	"1.1"	"0"	"0"	"10.0"	"16.1"	"10"	"North"	"-9999.0"	"-9999.0"	"31.0"	"-0.6"	"3.5"	"5.6"	
"20130111"	"Mostly Cloudy"	"09"	"54"	"25.0"	"-3.9"	"0"	"0"	"-9999"	"-9999"	"62"	"mostlycloudy"	"METAR KBOS 111454Z 00000KT 10SM FEW200 BKN250 03/M04 A3049 RMK AO2 SLP325 T00281039 58004"	"-9999.00"	"-9999.00"	"30.49"	"1032.5"	"0"	"0"	"37.0"	"2.8"	"0"	"0"	"10.0"	"16.1"	"0"	"North"	"-9999.0"	"-9999.0"	"-999"	"-999"	"0.0"	"0.0"	
"20130111"	"Mostly Cloudy"	"10"	"54"	"28.0"	"-2.2"	"0"	"0"	"-9999"	"-9999"	"65"	"mostlycloudy"	"METAR KBOS 111554Z 00000KT 10SM FEW180 BKN250 04/M02 A3047 RMK AO2 SLP317 T00391022"	"-9999.00"	"-9999.00"	"30.47"	"1031.7"	"0"	"0"	"39.0"	"3.9"	"0"	"0"	"10.0"	"16.1"	"0"	"North"	"-9999.0"	"-9999.0"	"-999"	"-999"	"0.0"	"0.0"	
"20130111"	"Overcast"	"11"	"54"	"28.9"	"-1.7"	"0"	"0"	"-9999"	"-9999"	"67"	"cloudy"	"METAR KBOS 111654Z 00000KT 10SM OVC170 04/M02 A3043 RMK AO2 SLP303 T00391017"	"-9999.00"	"-9999.00"	"30.43"	"1030.3"	"0"	"0"	"39.0"	"3.9"	"0"	"0"	"10.0"	"16.1"	"0"	"North"	"-9999.0"	"-9999.0"	"-999"	"-999"	"0.0"	"0.0"	
"20130111"	"Overcast"	"12"	"54"	"30.0"	"-1.1"	"0"	"0"	"-9999"	"-9999"	"70"	"cloudy"	"METAR KBOS 111754Z 00000KT 10SM BKN160 OVC200 04/M01 A3041 RMK AO2 SLP298 T00391011 10044 21006 56027"	"-9999.00"	"-9999.00"	"30.41"	"1029.8"	"0"	"0"	"39.0"	"3.9"	"0"	"0"	"10.0"	"16.1"	"0"	"North"	"-9999.0"	"-9999.0"	"-999"	"-999"	"0.0"	"0.0"	
"20130111"	"Overcast"	"13"	"54"	"30.9"	"-0.6"	"0"	"0"	"-9999"	"-9999"	"70"	"cloudy"	"METAR KBOS 111854Z 00000KT 10SM SCT110 OVC140 04/M01 A3039 RMK AO2 SLP289 T00441006"	"-9999.00"	"-9999.00"	"30.39"	"1028.9"	"0"	"0"	"39.9"	"4.4"	"0"	"0"	"10.0"	"16.1"	"0"	"North"	"-9999.0"	"-9999.0"	"-999"	"-999"	"0.0"	"0.0"	
"20130111"	"Overcast"	"14"	"54"	"30.0"	"-1.1"	"0"	"0"	"-9999"	"-9999"	"70"	"cloudy"	"METAR KBOS 111954Z 00000KT 10SM FEW085 OVC110 04/M01 A3038 RMK AO2 SLP286 T00391011"	"-9999.00"	"-9999.00"	"30.38"	"1028.6"	"0"	"0"	"39.0"	"3.9"	"0"	"0"	"10.0"	"16.1"	"0"	"North"	"-9999.0"	"-9999.0"	"-999"	"-999"	"0.0"	"0.0"	
"20130111"	"Overcast"	"15"	"54"	"30.0"	"-1.1"	"0"	"0"	"-9999"	"-9999"	"70"	"cloudy"	"METAR KBOS 112054Z 12003KT 10SM BKN120 OVC160 04/M01 A3035 RMK AO2 SLP276 T00391011 58022"	"-9999.00"	"-9999.00"	"30.35"	"1027.6"	"0"	"0"	"39.0"	"3.9"	"0"	"0"	"10.0"	"16.1"	"120"	"ESE"	"-9999.0"	"-9999.0"	"36.8"	"2.6"	"3.5"	"5.6"	
"20130111"	"Overcast"	"16"	"54"	"30.9"	"-0.6"	"0"	"0"	"-9999"	"-9999"	"73"	"cloudy"	"METAR KBOS 112154Z 17003KT 10SM OVC100 04/M01 A3033 RMK AO2 SLP271 T00391006"	"-9999.00"	"-9999.00"	"30.33"	"1027.1"	"0"	"0"	"39.0"	"3.9"	"0"	"0"	"10.0"	"16.1"	"170"	"South"	"-9999.0"	"-9999.0"	"36.8"	"2.6"	"3.5"	"5.6"	
"20130111"	"Light Rain"	"17"	"54"	"33.1"	"0.6"	"0"	"0"	"-9999"	"-9999"	"83"	"rain"	"METAR KBOS 112254Z 15004KT 10SM -RA OVC090 03/01 A3032 RMK AO2 RAB44 SLP266 P0000 T00330006"	"0.00"	"0.0"	"30.32"	"1026.6"	"1"	"0"	"37.9"	"3.3"	"0"	"0"	"10.0"	"16.1"	"150"	"SSE"	"-9999.0"	"-9999.0"	"34.4"	"1.3"	"4.6"	"7.4"	
"20130111"	"Overcast"	"18"	"54"	"33.1"	"0.6"	"0"	"0"	"-9999"	"-9999"	"83"	"cloudy"	"METAR KBOS 112354Z 14005KT 10SM SCT031 OVC090 03/01 A3030 RMK AO2 RAE34 SLP260 P0001 60001 T00330006 10044 20033 58017"	"0.01"	"0.3"	"30.30"	"1026.0"	"0"	"0"	"37.9"	"3.3"	"0"	"0"	"10.0"	"16.1"	"140"	"SE"	"-9999.0"	"-9999.0"	"33.5"	"0.8"	"5.8"	"9.3"	
"20130111"	"Light Rain"	"19"	"54"	"33.1"	"0.6"	"0"	"0"	"-9999"	"-9999"	"79"	"rain"	"METAR KBOS 120054Z 15005KT 10SM -RA FEW031 OVC055 04/01 A3029 RMK AO2 RAB07E20B44 SLP256 P0000 T00390006"	"0.00"	"0.0"	"30.29"	"1025.6"	"1"	"0"	"39.0"	"3.9"	"0"	"0"	"10.0"	"16.1"	"150"	"SSE"	"-9999.0"	"-9999.0"	"34.8"	"1.5"	"5.8"	"9.3"	
"20130111"	"Light Rain"	"20"	"54"	"33.1"	"0.6"	"0"	"0"	"-9999"	"-9999"	"83"	"rain"	"METAR KBOS 120154Z 16008KT 6SM -RA OVC050 03/01 A3027 RMK AO2 SLP250 P0001 T00330006"	"0.01"	"0.3"	"30.27"	"1025.0"	"1"	"0"	"37.9"	"3.3"	"0"	"0"	"6.0"	"9.7"	"160"	"SSE"	"-9999.0"	"-9999.0"	"31.5"	"-0.3"	"9.2"	"14.8"	
"20130111"	"Light Rain"	"21"	"54"	"34.0"	"1.1"	"0"	"0"	"-9999"	"-9999"	"86"	"rain"	"METAR KBOS 120254Z 14008KT 8SM -RA SCT031 BKN039 OVC048 03/01 A3026 RMK AO2 SLP245 P0004 60005 T00330011 58015"	"0.04"	"1.0"	"30.26"	"1024.5"	"1"	"0"	"37.9"	"3.3"	"0"	"0"	"8.0"	"12.9"	"140"	"SE"	"-9999.0"	"-9999.0"	"31.5"	"-0.3"	"9.2"	"14.8"	
"20130111"	"Overcast"	"22"	"54"	"35.1"	"1.7"	"0"	"0"	"-9999"	"-9999"	"89"	"cloudy"	"METAR KBOS 120354Z 15009KT 10SM FEW015 BKN035 OVC044 03/02 A3024 RMK AO2 RAE39 SLP239 P0001 T00330017"	"0.01"	"0.3"	"30.24"	"1023.9"	"0"	"0"	"37.9"	"3.3"	"0"	"0"	"10.0"	"16.1"	"150"	"SSE"	"-9999.0"	"-9999.0"	"30.9"	"-0.6"	"10.4"	"16.7"	
"20130111"	"Light Rain"	"23"	"23"	"35.6"	"2.0"	"0"	"0"	"-9999"	"-9999"	"93"	"rain"	"SPECI KBOS 120423Z 17007KT 2 1/2SM -RA BR BKN027 OVC033 03/02 A3025 RMK AO2 RAB09 P0001"	"0.01"	"0.3"	"30.25"	"1024.3"	"1"	"0"	"37.4"	"3.0"	"0"	"0"	"2.5"	"4.0"	"170"	"South"	"-9999.0"	"-9999.0"	"31.4"	"-0.3"	"8.1"	"13.0"	
"20130111"	"Light Rain"	"23"	"54"	"36.0"	"2.2"	"0"	"0"	"-9999"	"-9999"	"93"	"rain"	"METAR KBOS 120454Z 15006KT 3SM -RA BR FEW014 BKN024 OVC036 03/02 A3025 RMK AO2 RAB09 SLP241 P0005 T00330022 400441006"	"0.05"	"1.3"	"30.25"	"1024.1"	"1"	"0"	"37.9"	"3.3"	"0"	"0"	"3.0"	"4.8"	"150"	"SSE"	"-9999.0"	"-9999.0"	"32.7"	"0.4"	"6.9"	"11.1"	
"20130110"	"Clear"	"00"	"54"	"24.1"	"-4.4"	"0"	"0"	"-9999"	"-9999"	"45"	"clear"	"METAR KBOS 100554Z 27015G23KT 10SM CLR 07/M04 A3004 RMK AO2 PK WND 27029/0457 SLP172 T00671044 10078 20056 53005 $"	"-9999.00"	"-9999.00"	"30.04"	"1017.2"	"0"	"0"	"44.1"	"6.7"	"0"	"0"	"10.0"	"16.1"	"270"	"West"	"26.5"	"42.6"	"36.5"	"2.5"	"17.3"	"27.8"	
"20130110"	"Clear"	"01"	"54"	"24.1"	"-4.4"	"0"	"0"	"-9999"	"-9999"	"45"	"clear"	"METAR KBOS 100654Z 28012G22KT 10SM CLR 07/M04 A3005 RMK AO2 PK WND 29028/0636 SLP176 T00671044 $"	"-9999.00"	"-9999.00"	"30.05"	"1017.6"	"0"	"0"	"44.1"	"6.7"	"0"	"0"	"10.0"	"16.1"	"280"	"West"	"25.3"	"40.7"	"37.4"	"3.0"	"13.8"	"22.2"	
"20130110"	"Clear"	"02"	"54"	"25.0"	"-3.9"	"0"	"0"	"-9999"	"-9999"	"49"	"clear"	"METAR KBOS 100754Z 29016G35KT 10SM CLR 06/M04 A3009 RMK AO2 PK WND 29039/0722 SLP189 T00611039 $"	"-9999.00"	"-9999.00"	"30.09"	"1018.9"	"0"	"0"	"43.0"	"6.1"	"0"	"0"	"10.0"	"16.1"	"290"	"WNW"	"40.3"	"64.8"	"34.8"	"1.5"	"18.4"	"29.6"	
"20130110"	"Clear"	"03"	"54"	"25.0"	"-3.9"	"0"	"0"	"-9999"	"-9999"	"51"	"clear"	"METAR KBOS 100854Z 28012G24KT 10SM CLR 06/M04 A3013 RMK AO2 PK WND 28031/0838 SLP203 T00561039 53031 $"	"-9999.00"	"-9999.00"	"30.13"	"1020.3"	"0"	"0"	"42.1"	"5.6"	"0"	"0"	"10.0"	"16.1"	"280"	"West"	"27.6"	"44.4"	"34.9"	"1.6"	"13.8"	"22.2"	
"20130110"	"Clear"	"04"	"54"	"23.0"	"-5.0"	"0"	"0"	"-9999"	"-9999"	"47"	"clear"	"METAR KBOS 100954Z 31017G27KT 10SM CLR 06/M05 A3016 RMK AO2 PK WND 30032/0939 SLP213 T00561050 $"	"-9999.00"	"-9999.00"	"30.16"	"1021.3"	"0"	"0"	"42.1"	"5.6"	"0"	"0"	"10.0"	"16.1"	"310"	"NW"	"31.1"	"50.0"	"33.3"	"0.7"	"19.6"	"31.5"	
"20130110"	"Clear"	"05"	"54"	"21.9"	"-5.6"	"0"	"0"	"-9999"	"-9999"	"45"	"clear"	"METAR KBOS 101054Z 31017G27KT 10SM CLR 06/M06 A3019 RMK AO2 PK WND 31031/1014 SLP223 T00561056 $"	"-9999.00"	"-9999.00"	"30.19"	"1022.3"	"0"	"0"	"42.1"	"5.6"	"0"	"0"	"10.0"	"16.1"	"310"	"NW"	"31.1"	"50.0"	"33.3"	"0.7"	"19.6"	"31.5"	
"20130110"	"Scattered Clouds"	"06"	"54"	"21.0"	"-6.1"	"0"	"0"	"-9999"	"-9999"	"45"	"partlycloudy"	"METAR KBOS 101154Z 30018G25KT 10SM FEW040 SCT250 05/M06 A3025 RMK AO2 PK WND 29028/1122 SLP241 T00501061 10072 20050 53038"	"-9999.00"	"-9999.00"	"30.25"	"1024.1"	"0"	"0"	"41.0"	"5.0"	"0"	"0"	"10.0"	"16.1"	"300"	"WNW"	"28.8"	"46.3"	"31.6"	"-0.2"	"20.7"	"33.3"	
"20130110"	"Scattered Clouds"	"07"	"54"	"21.0"	"-6.1"	"0"	"0"	"-9999"	"-9999"	"45"	"partlycloudy"	"METAR KBOS 101254Z 29013G22KT 10SM FEW040 SCT250 05/M06 A3028 RMK AO2 PK WND 29029/1223 SLP252 T00501061"	"-9999.00"	"-9999.00"	"30.28"	"1025.2"	"0"	"0"	"41.0"	"5.0"	"0"	"0"	"10.0"	"16.1"	"290"	"WNW"	"25.3"	"40.7"	"33.1"	"0.6"	"15.0"	"24.1"	
"20130110"	"Scattered Clouds"	"08"	"54"	"21.0"	"-6.1"	"0"	"0"	"-9999"	"-9999"	"43"	"partlycloudy"	"METAR KBOS 101354Z 29019G28KT 10SM FEW040 SCT250 06/M06 A3031 RMK AO2 PK WND 28028/1345 SLP263 T00561061"	"-9999.00"	"-9999.00"	"30.31"	"1026.3"	"0"	"0"	"42.1"	"5.6"	"0"	"0"	"10.0"	"16.1"	"290"	"WNW"	"32.2"	"51.9"	"32.8"	"0.5"	"21.9"	"35.2"	
"20130110"	"Scattered Clouds"	"09"	"54"	"21.0"	"-6.1"	"0"	"0"	"-9999"	"-9999"	"42"	"partlycloudy"	"METAR KBOS 101454Z 31017G24KT 10SM FEW040 SCT250 06/M06 A3034 RMK AO2 PK WND 29028/1439 SLP272 T00611061 51031"	"-9999.00"	"-9999.00"	"30.34"	"1027.2"	"0"	"0"	"43.0"	"6.1"	"0"	"0"	"10.0"	"16.1"	"310"	"NW"	"27.6"	"44.4"	"34.5"	"1.4"	"19.6"	"31.5"	
"20130110"	"Scattered Clouds"	"10"	"54"	"21.0"	"-6.1"	"0"	"0"	"-9999"	"-9999"	"40"	"partlycloudy"	"METAR KBOS 101554Z 31016G32KT 10SM FEW040 SCT250 07/M06 A3033 RMK AO2 PK WND 32032/1546 SLP268 T00671061 VISNO E $"	"-9999.00"	"-9999.00"	"30.32"	"1026.8"	"0"	"0"	"44.1"	"6.7"	"0"	"0"	"10.0"	"16.1"	"310"	"NW"	"36.8"	"59.3"	"36.2"	"2.3"	"18.4"	"29.6"	
"20130110"	"Scattered Clouds"	"11"	"54"	"21.9"	"-5.6"	"0"	"0"	"-9999"	"-9999"	"39"	"partlycloudy"	"METAR KBOS 101654Z 31016G21KT 10SM FEW040 SCT250 08/M06 A3032 RMK AO2 PK WND 32027/1556 SLP266 T00781056 $"	"-9999.00"	"-9999.00"	"30.32"	"1026.6"	"0"	"0"	"46.0"	"7.8"	"0"	"0"	"10.0"	"16.1"	"310"	"NW"	"24.2"	"38.9"	"38.8"	"3.8"	"18.4"	"29.6"	
"20130110"	"Scattered Clouds"	"12"	"54"	"21.0"	"-6.1"	"0"	"0"	"-9999"	"-9999"	"37"	"partlycloudy"	"METAR KBOS 101754Z 31015G24KT 10SM FEW040 SCT250 08/M06 A3033 RMK AO2 PK WND 30027/1656 SLP270 T00781061 10083 20044 55002"	"-9999.00"	"-9999.00"	"30.33"	"1027.0"	"0"	"0"	"46.0"	"7.8"	"0"	"0"	"10.0"	"16.1"	"310"	"NW"	"27.6"	"44.4"	"39.0"	"3.9"	"17.3"	"27.8"	
"20130110"	"Scattered Clouds"	"13"	"54"	"21.0"	"-6.1"	"0"	"0"	"-9999"	"-9999"	"36"	"partlycloudy"	"METAR KBOS 101854Z 31011G21KT 10SM FEW040 SCT250 08/M06 A3035 RMK AO2 PK WND 32026/1812 SLP275 T00831061"	"-9999.00"	"-9999.00"	"30.35"	"1027.5"	"0"	"0"	"46.9"	"8.3"	"0"	"0"	"10.0"	"16.1"	"310"	"NW"	"24.2"	"38.9"	"-999"	"-999"	"12.7"	"20.4"	
"20130110"	"Scattered Clouds"	"14"	"54"	"21.0"	"-6.1"	"0"	"0"	"-9999"	"-9999"	"36"	"partlycloudy"	"METAR KBOS 101954Z 33015G23KT 10SM FEW040 SCT250 08/M06 A3038 RMK AO2 SLP286 T00831061"	"-9999.00"	"-9999.00"	"30.38"	"1028.6"	"0"	"0"	"46.9"	"8.3"	"0"	"0"	"10.0"	"16.1"	"330"	"NNW"	"26.5"	"42.6"	"-999"	"-999"	"17.3"	"27.8"	
"20130110"	"Scattered Clouds"	"15"	"54"	"21.0"	"-6.1"	"0"	"0"	"-9999"	"-9999"	"39"	"partlycloudy"	"METAR KBOS 102054Z 32011KT 10SM FEW040 SCT250 07/M06 A3040 RMK AO2 SLP294 T00721061 53024"	"-9999.00"	"-9999.00"	"30.40"	"1029.4"	"0"	"0"	"45.0"	"7.2"	"0"	"0"	"10.0"	"16.1"	"320"	"NW"	"-9999.0"	"-9999.0"	"38.9"	"3.8"	"12.7"	"20.4"	
"20130110"	"Scattered Clouds"	"16"	"54"	"19.9"	"-6.7"	"0"	"0"	"-9999"	"-9999"	"38"	"partlycloudy"	"METAR KBOS 102154Z 33011G16KT 10SM FEW040 SCT250 07/M07 A3045 RMK AO2 PRESRR SLP309 T00671067"	"-9999.00"	"-9999.00"	"30.45"	"1030.9"	"0"	"0"	"44.1"	"6.7"	"0"	"0"	"10.0"	"16.1"	"330"	"NNW"	"18.4"	"29.6"	"37.7"	"3.2"	"12.7"	"20.4"	
"20130110"	"Clear"	"17"	"54"	"21.0"	"-6.1"	"0"	"0"	"-9999"	"-9999"	"43"	"clear"	"METAR KBOS 102254Z 35011G16KT 10SM CLR 06/M06 A3045 RMK AO2 SLP310 T00561061"	"-9999.00"	"-9999.00"	"30.45"	"1031.0"	"0"	"0"	"42.1"	"5.6"	"0"	"0"	"10.0"	"16.1"	"350"	"North"	"18.4"	"29.6"	"35.2"	"1.8"	"12.7"	"20.4"	
"20130110"	"Clear"	"18"	"54"	"21.9"	"-5.6"	"0"	"0"	"-9999"	"-9999"	"47"	"clear"	"METAR KBOS 102354Z 31010G17KT 10SM CLR 05/M06 A3047 RMK AO2 SLP316 T00501056 10083 20050 51022"	"-9999.00"	"-9999.00"	"30.47"	"1031.6"	"0"	"0"	"41.0"	"5.0"	"0"	"0"	"10.0"	"16.1"	"310"	"NW"	"19.6"	"31.5"	"34.3"	"1.3"	"11.5"	"18.5"	
"20130110"	"Clear"	"19"	"54"	"21.0"	"-6.1"	"0"	"0"	"-9999"	"-9999"	"49"	"clear"	"METAR KBOS 110054Z 31010G17KT 10SM CLR 04/M06 A3048 RMK AO2 SLP320 T00391061"	"-9999.00"	"-9999.00"	"30.48"	"1032.0"	"0"	"0"	"39.0"	"3.9"	"0"	"0"	"10.0"	"16.1"	"310"	"NW"	"19.6"	"31.5"	"31.8"	"-0.1"	"11.5"	"18.5"	
"20130110"	"Clear"	"20"	"54"	"21.0"	"-6.1"	"0"	"0"	"-9999"	"-9999"	"51"	"clear"	"METAR KBOS 110154Z 32008KT 10SM CLR 03/M06 A3051 RMK AO2 SLP331 T00331061"	"-9999.00"	"-9999.00"	"30.51"	"1033.1"	"0"	"0"	"37.9"	"3.3"	"0"	"0"	"10.0"	"16.1"	"320"	"NW"	"-9999.0"	"-9999.0"	"31.5"	"-0.3"	"9.2"	"14.8"	
"20130110"	"Clear"	"21"	"54"	"21.9"	"-5.6"	"0"	"0"	"-9999"	"-9999"	"54"	"clear"	"METAR KBOS 110254Z 32009KT 10SM CLR 03/M06 A3053 RMK AO2 SLP339 T00281056 53023"	"-9999.00"	"-9999.00"	"30.53"	"1033.9"	"0"	"0"	"37.0"	"2.8"	"0"	"0"	"10.0"	"16.1"	"320"	"NW"	"-9999.0"	"-9999.0"	"29.8"	"-1.2"	"10.4"	"16.7"	
"20130110"	"Clear"	"22"	"54"	"21.9"	"-5.6"	"0"	"0"	"-9999"	"-9999"	"54"	"clear"	"METAR KBOS 110354Z 32009KT 10SM CLR 03/M06 A3053 RMK AO2 SLP339 T00281056"	"-9999.00"	"-9999.00"	"30.53"	"1033.9"	"0"	"0"	"37.0"	"2.8"	"0"	"0"	"10.0"	"16.1"	"320"	"NW"	"-9999.0"	"-9999.0"	"29.8"	"-1.2"	"10.4"	"16.7"	
"20130110"	"Clear"	"23"	"54"	"21.9"	"-5.6"	"0"	"0"	"-9999"	"-9999"	"57"	"clear"	"METAR KBOS 110454Z 33009KT 10SM CLR 02/M06 A3052 RMK AO2 SLP333 T00221056 400830017"	"-9999.00"	"-9999.00"	"30.52"	"1033.3"	"0"	"0"	"36.0"	"2.2"	"0"	"0"	"10.0"	"16.1"	"330"	"NNW"	"-9999.0"	"-9999.0"	"28.5"	"-2.0"	"10.4"	"16.7"	
"20130109"	"Clear"	"00"	"54"	"25.0"	"-3.9"	"0"	"0"	"-9999"	"-9999"	"62"	"clear"	"METAR KBOS 090554Z 33004KT 10SM CLR 03/M04 A3037 RMK AO2 SLP283 T00281039 10050 20028 53007"	"-9999.00"	"-9999.00"	"30.37"	"1028.3"	"0"	"0"	"37.0"	"2.8"	"0"	"0"	"10.0"	"16.1"	"330"	"NNW"	"-9999.0"	"-9999.0"	"33.3"	"0.7"	"4.6"	"7.4"	
"20130109"	"Clear"	"01"	"54"	"24.1"	"-4.4"	"0"	"0"	"-9999"	"-9999"	"70"	"clear"	"METAR KBOS 090654Z 00000KT 10SM CLR 01/M04 A3038 RMK AO2 SLP287 T00061044"	"-9999.00"	"-9999.00"	"30.38"	"1028.7"	"0"	"0"	"33.1"	"0.6"	"0"	"0"	"10.0"	"16.1"	"0"	"North"	"-9999.0"	"-9999.0"	"-999"	"-999"	"0.0"	"0.0"	
"20130109"	"Clear"	"02"	"54"	"25.0"	"-3.9"	"0"	"0"	"-9999"	"-9999"	"70"	"clear"	"METAR KBOS 090754Z 00000KT 10SM CLR 01/M04 A3038 RMK AO2 SLP285 T00111039"	"-9999.00"	"-9999.00"	"30.38"	"1028.5"	"0"	"0"	"34.0"	"1.1"	"0"	"0"	"10.0"	"16.1"	"0"	"North"	"-9999.0"	"-9999.0"	"-999"	"-999"	"0.0"	"0.0"	
"20130109"	"Clear"	"03"	"54"	"26.1"	"-3.3"	"0"	"0"	"-9999"	"-9999"	"75"	"clear"	"METAR KBOS 090854Z 00000KT 10SM CLR 01/M03 A3038 RMK AO2 SLP285 T00061033 50002"	"-9999.00"	"-9999.00"	"30.38"	"1028.5"	"0"	"0"	"33.1"	"0.6"	"0"	"0"	"10.0"	"16.1"	"0"	"North"	"-9999.0"	"-9999.0"	"-999"	"-999"	"0.0"	"0.0"	
"20130109"	"Clear"	"04"	"54"	"27.0"	"-2.8"	"0"	"0"	"-9999"	"-9999"	"82"	"clear"	"METAR KBOS 090954Z 00000KT 9SM CLR 00/M03 A3036 RMK AO2 SLP281 T00001028"	"-9999.00"	"-9999.00"	"30.36"	"1028.1"	"0"	"0"	"32.0"	"0.0"	"0"	"0"	"9.0"	"14.5"	"0"	"North"	"-9999.0"	"-9999.0"	"-999"	"-999"	"0.0"	"0.0"	
"20130109"	"Clear"	"05"	"54"	"27.0"	"-2.8"	"0"	"0"	"-9999"	"-9999"	"78"	"clear"	"METAR KBOS 091054Z 26003KT 9SM CLR 01/M03 A3037 RMK AO2 SLP284 T00061028"	"-9999.00"	"-9999.00"	"30.37"	"1028.4"	"0"	"0"	"33.1"	"0.6"	"0"	"0"	"9.0"	"14.5"	"260"	"West"	"-9999.0"	"-9999.0"	"30.0"	"-1.1"	"3.5"	"5.6"	
"20130109"	"Partly Cloudy"	"06"	"54"	"25.0"	"-3.9"	"0"	"0"	"-9999"	"-9999"	"75"	"partlycloudy"	"METAR KBOS 091154Z 00000KT 9SM FEW250 00/M04 A3040 RMK AO2 SLP292 T00001039 10028 21011 53007"	"-9999.00"	"-9999.00"	"30.40"	"1029.2"	"0"	"0"	"32.0"	"0.0"	"0"	"0"	"9.0"	"14.5"	"0"	"North"	"-9999.0"	"-9999.0"	"-999"	"-999"	"0.0"	"0.0"	
"20130109"	"Mostly Cloudy"	"07"	"54"	"25.0"	"-3.9"	"0"	"0"	"-9999"	"-9999"	"79"	"mostlycloudy"	"METAR KBOS 091254Z 31003KT 7SM BKN250 M01/M04 A3040 RMK AO2 SLP293 T10061039"	"-9999.00"	"-9999.00"	"30.40"	"1029.3"	"0"	"0"	"30.9"	"-0.6"	"0"	"0"	"7.0"	"11.3"	"310"	"NW"	"-9999.0"	"-9999.0"	"27.5"	"-2.5"	"3.5"	"5.6"	
"20130109"	"Mostly Cloudy"	"08"	"54"	"27.0"	"-2.8"	"0"	"0"	"-9999"	"-9999"	"70"	"mostlycloudy"	"METAR KBOS 091354Z 00000KT 8SM BKN200 02/M03 A3039 RMK AO2 SLP289 T00221028"	"-9999.00"	"-9999.00"	"30.39"	"1028.9"	"0"	"0"	"36.0"	"2.2"	"0"	"0"	"8.0"	"12.9"	"0"	"North"	"-9999.0"	"-9999.0"	"-999"	"-999"	"0.0"	"0.0"	
"20130109"	"Overcast"	"09"	"54"	"30.0"	"-1.1"	"0"	"0"	"-9999"	"-9999"	"76"	"cloudy"	"METAR KBOS 091454Z 00000KT 7SM BKN200 OVC250 03/M01 A3038 RMK AO2 SLP286 T00281011 58006"	"-9999.00"	"-9999.00"	"30.38"	"1028.6"	"0"	"0"	"37.0"	"2.8"	"0"	"0"	"7.0"	"11.3"	"0"	"North"	"-9999.0"	"-9999.0"	"-999"	"-999"	"0.0"	"0.0"	
"20130109"	"Overcast"	"10"	"54"	"28.9"	"-1.7"	"0"	"0"	"-9999"	"-9999"	"73"	"cloudy"	"METAR KBOS 091554Z 17003KT 7SM BKN200 OVC250 03/M02 A3034 RMK AO2 SLP273 T00281017"	"-9999.00"	"-9999.00"	"30.34"	"1027.3"	"0"	"0"	"37.0"	"2.8"	"0"	"0"	"7.0"	"11.3"	"170"	"South"	"-9999.0"	"-9999.0"	"34.5"	"1.4"	"3.5"	"5.6"	
"20130109"	"Overcast"	"11"	"54"	"28.9"	"-1.7"	"0"	"0"	"-9999"	"-9999"	"70"	"cloudy"	"METAR KBOS 091654Z 15006KT 7SM OVC200 03/M02 A3027 RMK AO2 PRESFR SLP250 T00331017"	"-9999.00"	"-9999.00"	"30.27"	"1025.0"	"0"	"0"	"37.9"	"3.3"	"0"	"0"	"7.0"	"11.3"	"150"	"SSE"	"-9999.0"	"-9999.0"	"32.7"	"0.4"	"6.9"	"11.1"	
"20130109"	"Overcast"	"12"	"54"	"28.9"	"-1.7"	"0"	"0"	"-9999"	"-9999"	"67"	"cloudy"	"METAR KBOS 091754Z 00000KT 7SM OVC180 04/M02 A3021 RMK AO2 SLP231 T00391017 10039 21022 58055"	"-9999.00"	"-9999.00"	"30.22"	"1023.1"	"0"	"0"	"39.0"	"3.9"	"0"	"0"	"7.0"	"11.3"	"0"	"North"	"-9999.0"	"-9999.0"	"-999"	"-999"	"0.0"	"0.0"	
"20130109"	"Overcast"	"13"	"54"	"27.0"	"-2.8"	"0"	"0"	"-9999"	"-9999"	"51"	"cloudy"	"METAR KBOS 091854Z 22012KT 10SM OVC180 07/M03 A3021 RMK AO2 SLP230 T00671028"	"-9999.00"	"-9999.00"	"30.21"	"1023.0"	"0"	"0"	"44.1"	"6.7"	"0"	"0"	"10.0"	"16.1"	"220"	"SW"	"-9999.0"	"-9999.0"	"37.4"	"3.0"	"13.8"	"22.2"	
"20130109"	"Overcast"	"14"	"54"	"28.0"	"-2.2"	"0"	"0"	"-9999"	"-9999"	"58"	"cloudy"	"METAR KBOS 091954Z 18008KT 10SM FEW070 OVC180 06/M02 A3014 RMK AO2 SLP207 T00561022"	"-9999.00"	"-9999.00"	"30.14"	"1020.7"	"0"	"0"	"42.1"	"5.6"	"0"	"0"	"10.0"	"16.1"	"180"	"South"	"-9999.0"	"-9999.0"	"36.6"	"2.5"	"9.2"	"14.8"	
"20130109"	"Overcast"	"15"	"54"	"28.9"	"-1.7"	"0"	"0"	"-9999"	"-9999"	"58"	"cloudy"	"METAR KBOS 092054Z 20009KT 10SM SCT100 OVC180 06/M02 A3012 RMK AO2 SLP200 T00611017 58031"	"-9999.00"	"-9999.00"	"30.12"	"1020.0"	"0"	"0"	"43.0"	"6.1"	"0"	"0"	"10.0"	"16.1"	"200"	"SSW"	"-9999.0"	"-9999.0"	"37.2"	"2.9"	"10.4"	"16.7"	
"20130109"	"Light Rain"	"16"	"54"	"30.9"	"-0.6"	"0"	"0"	"-9999"	"-9999"	"65"	"rain"	"METAR KBOS 092154Z COR 22014G29KT 10SM -RA BKN075 BKN100 BKN180 06/M01 A3004 RMK AO2 PK WND 18029/2147 RAB30E53 PRESRR SLP172 PCPN VRY LGT P0000 T00561006"	"0.00"	"0.0"	"30.04"	"1017.2"	"1"	"0"	"42.1"	"5.6"	"0"	"0"	"10.0"	"16.1"	"220"	"SW"	"33.4"	"53.7"	"34.2"	"1.2"	"16.1"	"25.9"	
"20130109"	"Mostly Cloudy"	"17"	"04"	"32.0"	"0.0"	"0"	"0"	"-9999"	"-9999"	"61"	"mostlycloudy"	"SPECI KBOS 092204Z 26011G22KT 10SM BKN075 BKN100 BKN180 07/00 A3006 RMK AO2 WSHFT 2144"	"-9999.00"	"-9999.00"	"30.06"	"1017.8"	"0"	"0"	"44.6"	"7.0"	"0"	"0"	"10.0"	"16.1"	"260"	"West"	"25.3"	"40.7"	"38.4"	"3.6"	"12.7"	"20.4"	
"20130109"	"Overcast"	"17"	"54"	"33.1"	"0.6"	"0"	"0"	"-9999"	"-9999"	"68"	"cloudy"	"METAR KBOS 092254Z 22014KT 10SM BKN060 OVC080 06/01 A3002 RMK AO2 WSHFT 2144 SLP164 T00610006 $"	"-9999.00"	"-9999.00"	"30.02"	"1016.4"	"0"	"0"	"43.0"	"6.1"	"0"	"0"	"10.0"	"16.1"	"220"	"SW"	"-9999.0"	"-9999.0"	"35.4"	"1.9"	"16.1"	"25.9"	
"20130109"	"Partly Cloudy"	"18"	"54"	"33.1"	"0.6"	"0"	"0"	"-9999"	"-9999"	"70"	"partlycloudy"	"METAR KBOS 092354Z 22014G21KT 10SM FEW080 06/01 A3001 RMK AO2 SLP160 60000 T00560006 10067 20039 56039 $"	"-9999.00"	"-9999.00"	"30.01"	"1016.0"	"0"	"0"	"42.1"	"5.6"	"0"	"0"	"10.0"	"16.1"	"220"	"SW"	"24.2"	"38.9"	"34.2"	"1.2"	"16.1"	"25.9"	
"20130109"	"Clear"	"19"	"54"	"34.0"	"1.1"	"0"	"0"	"-9999"	"-9999"	"68"	"clear"	"METAR KBOS 100054Z 24016KT 10SM CLR 07/01 A3001 RMK AO2 SLP161 T00670011 $"	"-9999.00"	"-9999.00"	"30.01"	"1016.1"	"0"	"0"	"44.1"	"6.7"	"0"	"0"	"10.0"	"16.1"	"240"	"WSW"	"-9999.0"	"-9999.0"	"36.2"	"2.3"	"18.4"	"29.6"	
"20130109"	"Clear"	"20"	"54"	"33.1"	"0.6"	"0"	"0"	"-9999"	"-9999"	"65"	"clear"	"METAR KBOS 100154Z 25013G18KT 10SM CLR 07/01 A3001 RMK AO2 SLP162 T00670006 $"	"-9999.00"	"-9999.00"	"30.01"	"1016.2"	"0"	"0"	"44.1"	"6.7"	"0"	"0"	"10.0"	"16.1"	"250"	"WSW"	"20.7"	"33.3"	"37.1"	"2.8"	"15.0"	"24.1"	
"20130109"	"Clear"	"21"	"54"	"32.0"	"0.0"	"0"	"0"	"-9999"	"-9999"	"60"	"clear"	"METAR KBOS 100254Z 25011G19KT 10SM CLR 07/00 A3002 RMK AO2 SLP166 T00720000 53006 $"	"-9999.00"	"-9999.00"	"30.02"	"1016.6"	"0"	"0"	"45.0"	"7.2"	"0"	"0"	"10.0"	"16.1"	"250"	"WSW"	"21.9"	"35.2"	"38.9"	"3.8"	"12.7"	"20.4"	
"20130109"	"Clear"	"22"	"54"	"30.9"	"-0.6"	"0"	"0"	"-9999"	"-9999"	"58"	"clear"	"METAR KBOS 100354Z 26019G29KT 10SM CLR 07/M01 A3002 RMK AO2 PK WND 25029/0352 SLP165 T00721006 $"	"-9999.00"	"-9999.00"	"30.02"	"1016.5"	"0"	"0"	"45.0"	"7.2"	"0"	"0"	"10.0"	"16.1"	"260"	"West"	"33.4"	"53.7"	"36.6"	"2.6"	"21.9"	"35.2"	
"20130109"	"Clear"	"23"	"54"	"27.0"	"-2.8"	"0"	"0"	"-9999"	"-9999"	"49"	"clear"	"METAR KBOS 100454Z 26016G27KT 10SM CLR 07/M03 A3003 RMK AO2 PK WND 26029/0421 SLP170 T00721028 400781022 $"	"-9999.00"	"-9999.00"	"30.04"	"1017.0"	"0"	"0"	"45.0"	"7.2"	"0"	"0"	"10.0"	"16.1"	"260"	"West"	"31.1"	"50.0"	"37.4"	"3.0"	"18.4"	"29.6"	
"20130108"	"Mostly Cloudy"	"00"	"20"	"24.8"	"-4.0"	"0"	"0"	"-9999"	"-9999"	"86"	"mostlycloudy"	"SPECI KBOS 080520Z 20007KT 10SM BKN019 M02/M04 A3038 RMK AO2"	"-9999.00"	"-9999.00"	"30.38"	"1028.7"	"0"	"0"	"28.4"	"-2.0"	"0"	"0"	"10.0"	"16.1"	"200"	"SSW"	"-9999.0"	"-9999.0"	"20.4"	"-6.4"	"8.1"	"13.0"	
"20130108"	"Scattered Clouds"	"00"	"54"	"25.0"	"-3.9"	"0"	"0"	"-9999"	"-9999"	"88"	"partlycloudy"	"METAR KBOS 080554Z 21007KT 10SM SCT019 M02/M04 A3037 RMK AO2 SLP285 T10221039 10006 21022 58007"	"-9999.00"	"-9999.00"	"30.38"	"1028.5"	"0"	"0"	"28.0"	"-2.2"	"0"	"0"	"10.0"	"16.1"	"210"	"SSW"	"-9999.0"	"-9999.0"	"20.0"	"-6.7"	"8.1"	"13.0"	
"20130108"	"Clear"	"01"	"54"	"26.1"	"-3.3"	"0"	"0"	"-9999"	"-9999"	"89"	"clear"	"METAR KBOS 080654Z 19007KT 10SM CLR M02/M03 A3036 RMK AO2 SLP279 T10171033"	"-9999.00"	"-9999.00"	"30.36"	"1027.9"	"0"	"0"	"28.9"	"-1.7"	"0"	"0"	"10.0"	"16.1"	"190"	"South"	"-9999.0"	"-9999.0"	"21.1"	"-6.1"	"8.1"	"13.0"	
"20130108"	"Clear"	"02"	"54"	"26.1"	"-3.3"	"0"	"0"	"-9999"	"-9999"	"89"	"clear"	"METAR KBOS 080754Z 20008KT 10SM CLR M02/M03 A3035 RMK AO2 SLP278 T10171033"	"-9999.00"	"-9999.00"	"30.35"	"1027.8"	"0"	"0"	"28.9"	"-1.7"	"0"	"0"	"10.0"	"16.1"	"200"	"SSW"	"-9999.0"	"-9999.0"	"20.4"	"-6.4"	"9.2"	"14.8"	
"20130108"	"Clear"	"03"	"54"	"26.1"	"-3.3"	"0"	"0"	"-9999"	"-9999"	"85"	"clear"	"METAR KBOS 080854Z 21006KT 10SM CLR M01/M03 A3033 RMK AO2 SLP269 T10111033 58016"	"-9999.00"	"-9999.00"	"30.33"	"1026.9"	"0"	"0"	"30.0"	"-1.1"	"0"	"0"	"10.0"	"16.1"	"210"	"SSW"	"-9999.0"	"-9999.0"	"23.2"	"-4.9"	"6.9"	"11.1"	
"20130108"	"Clear"	"04"	"54"	"26.1"	"-3.3"	"0"	"0"	"-9999"	"-9999"	"79"	"clear"	"METAR KBOS 080954Z 22009KT 10SM CLR 00/M03 A3031 RMK AO2 SLP263 T00001033"	"-9999.00"	"-9999.00"	"30.31"	"1026.3"	"0"	"0"	"32.0"	"0.0"	"0"	"0"	"10.0"	"16.1"	"220"	"SW"	"-9999.0"	"-9999.0"	"23.6"	"-4.7"	"10.4"	"16.7"	
"20130108"	"Clear"	"05"	"54"	"26.1"	"-3.3"	"0"	"0"	"-9999"	"-9999"	"75"	"clear"	"METAR KBOS 081054Z 22015G21KT 10SM CLR 01/M03 A3030 RMK AO2 SLP259 T00061033"	"-9999.00"	"-9999.00"	"30.30"	"1025.9"	"0"	"0"	"33.1"	"0.6"	"0"	"0"	"10.0"	"16.1"	"220"	"SW"	"24.2"	"38.9"	"22.2"	"-5.4"	"17.3"	"27.8"	
"20130108"	"Clear"	"06"	"54"	"26.1"	"-3.3"	"0"	"0"	"-9999"	"-9999"	"75"	"clear"	"METAR KBOS 081154Z 22017KT 10SM CLR 01/M03 A3031 RMK AO2 SLP262 T00061033 10011 21022 55007"	"-9999.00"	"-9999.00"	"30.31"	"1026.2"	"0"	"0"	"33.1"	"0.6"	"0"	"0"	"10.0"	"16.1"	"220"	"SW"	"-9999.0"	"-9999.0"	"21.5"	"-5.8"	"19.6"	"31.5"	
"20130108"	"Partly Cloudy"	"07"	"54"	"27.0"	"-2.8"	"0"	"0"	"-9999"	"-9999"	"75"	"partlycloudy"	"METAR KBOS 081254Z 23016KT 10SM FEW250 01/M03 A3033 RMK AO2 SLP268 T00111028"	"-9999.00"	"-9999.00"	"30.32"	"1026.8"	"0"	"0"	"34.0"	"1.1"	"0"	"0"	"10.0"	"16.1"	"230"	"SW"	"-9999.0"	"-9999.0"	"23.0"	"-5.0"	"18.4"	"29.6"	
"20130108"	"Partly Cloudy"	"08"	"54"	"27.0"	"-2.8"	"0"	"0"	"-9999"	"-9999"	"67"	"partlycloudy"	"METAR KBOS 081354Z 23016G24KT 9SM FEW250 03/M03 A3034 RMK AO2 SLP272 T00281028"	"-9999.00"	"-9999.00"	"30.34"	"1027.2"	"0"	"0"	"37.0"	"2.8"	"0"	"0"	"9.0"	"14.5"	"230"	"SW"	"27.6"	"44.4"	"27.0"	"-2.8"	"18.4"	"29.6"	
"20130108"	"Partly Cloudy"	"09"	"54"	"27.0"	"-2.8"	"0"	"0"	"-9999"	"-9999"	"60"	"partlycloudy"	"METAR KBOS 081454Z 24024G31KT 10SM FEW250 04/M03 A3034 RMK AO2 PK WND 24031/1453 SLP273 T00441028 51011"	"-9999.00"	"-9999.00"	"30.34"	"1027.3"	"0"	"0"	"39.9"	"4.4"	"0"	"0"	"10.0"	"16.1"	"240"	"WSW"	"35.7"	"57.4"	"28.8"	"-1.8"	"27.6"	"44.4"	
"20130108"	"Partly Cloudy"	"10"	"54"	"26.1"	"-3.3"	"0"	"0"	"-9999"	"-9999"	"53"	"partlycloudy"	"METAR KBOS 081554Z 25014G24KT 10SM FEW250 06/M03 A3032 RMK AO2 PK WND 25029/1510 SLP267 T00561033"	"-9999.00"	"-9999.00"	"30.32"	"1026.7"	"0"	"0"	"42.1"	"5.6"	"0"	"0"	"10.0"	"16.1"	"250"	"WSW"	"27.6"	"44.4"	"34.2"	"1.2"	"16.1"	"25.9"	
"20130108"	"Mostly Cloudy"	"11"	"54"	"26.1"	"-3.3"	"0"	"0"	"-9999"	"-9999"	"49"	"mostlycloudy"	"METAR KBOS 081654Z 26015G21KT 10SM BKN250 07/M03 A3029 RMK AO2 PK WND 25031/1600 SLP255 T00671033"	"-9999.00"	"-9999.00"	"30.29"	"1025.5"	"0"	"0"	"44.1"	"6.7"	"0"	"0"	"10.0"	"16.1"	"260"	"West"	"24.2"	"38.9"	"36.5"	"2.5"	"17.3"	"27.8"	
"20130108"	"Mostly Cloudy"	"12"	"54"	"26.1"	"-3.3"	"0"	"0"	"-9999"	"-9999"	"48"	"mostlycloudy"	"METAR KBOS 081754Z 24017G21KT 10SM R04R/0800VP6000FT BKN250 07/M03 A3026 RMK AO2 PK WND 24027/1708 SLP247 T00721033 10072 20006 58026"	"-9999.00"	"-9999.00"	"30.26"	"1024.7"	"0"	"0"	"45.0"	"7.2"	"0"	"0"	"10.0"	"16.1"	"240"	"WSW"	"24.2"	"38.9"	"37.1"	"2.8"	"19.6"	"31.5"	
"20130108"	"Mostly Cloudy"	"13"	"54"	"26.1"	"-3.3"	"0"	"0"	"-9999"	"-9999"	"46"	"mostlycloudy"	"METAR KBOS 081854Z 25016G20KT 10SM BKN250 08/M03 A3026 RMK AO2 SLP246 T00781033"	"-9999.00"	"-9999.00"	"30.26"	"1024.6"	"0"	"0"	"46.0"	"7.8"	"0"	"0"	"10.0"	"16.1"	"250"	"WSW"	"23.0"	"37.0"	"38.8"	"3.8"	"18.4"	"29.6"	
"20130108"	"Mostly Cloudy"	"14"	"54"	"26.1"	"-3.3"	"0"	"0"	"-9999"	"-9999"	"46"	"mostlycloudy"	"METAR KBOS 081954Z 25013KT 10SM BKN250 08/M03 A3028 RMK AO2 SLP254 T00781033"	"-9999.00"	"-9999.00"	"30.28"	"1025.4"	"0"	"0"	"46.0"	"7.8"	"0"	"0"	"10.0"	"16.1"	"250"	"WSW"	"-9999.0"	"-9999.0"	"39.6"	"4.2"	"15.0"	"24.1"	
"20130108"	"Mostly Cloudy"	"15"	"54"	"26.1"	"-3.3"	"0"	"0"	"-9999"	"-9999"	"48"	"mostlycloudy"	"METAR KBOS 082054Z 24010KT 10SM BKN250 07/M03 A3029 RMK AO2 SLP256 T00721033 53010"	"-9999.00"	"-9999.00"	"30.29"	"1025.6"	"0"	"0"	"45.0"	"7.2"	"0"	"0"	"10.0"	"16.1"	"240"	"WSW"	"-9999.0"	"-9999.0"	"39.3"	"4.0"	"11.5"	"18.5"	
"20130108"	"Mostly Cloudy"	"16"	"54"	"26.1"	"-3.3"	"0"	"0"	"-9999"	"-9999"	"51"	"mostlycloudy"	"METAR KBOS 082154Z COR 24009KT 10SM BKN250 06/M03 A3030 RMK AO2 SLP258 T00611033"	"-9999.00"	"-9999.00"	"30.30"	"1025.8"	"0"	"0"	"43.0"	"6.1"	"0"	"0"	"10.0"	"16.1"	"240"	"WSW"	"-9999.0"	"-9999.0"	"37.2"	"2.9"	"10.4"	"16.7"	
"20130108"	"Scattered Clouds"	"17"	"54"	"26.1"	"-3.3"	"0"	"0"	"-9999"	"-9999"	"53"	"partlycloudy"	"METAR KBOS 082254Z 23008KT 10SM SCT250 06/M03 A3032 RMK AO2 SLP266 T00561033"	"-9999.00"	"-9999.00"	"30.32"	"1026.6"	"0"	"0"	"42.1"	"5.6"	"0"	"0"	"10.0"	"16.1"	"230"	"SW"	"-9999.0"	"-9999.0"	"36.6"	"2.5"	"9.2"	"14.8"	
"20130108"	"Partly Cloudy"	"18"	"54"	"27.0"	"-2.8"	"0"	"0"	"-9999"	"-9999"	"62"	"partlycloudy"	"METAR KBOS 082354Z 21004KT 10SM FEW250 04/M03 A3034 RMK AO2 SLP271 T00391028 10078 20033 53015"	"-9999.00"	"-9999.00"	"30.33"	"1027.1"	"0"	"0"	"39.0"	"3.9"	"0"	"0"	"10.0"	"16.1"	"210"	"SSW"	"-9999.0"	"-9999.0"	"35.7"	"2.0"	"4.6"	"7.4"	
"20130108"	"Partly Cloudy"	"19"	"54"	"27.0"	"-2.8"	"0"	"0"	"-9999"	"-9999"	"65"	"partlycloudy"	"METAR KBOS 090054Z 23007KT 10SM FEW250 03/M03 A3035 RMK AO2 SLP277 T00331028"	"-9999.00"	"-9999.00"	"30.35"	"1027.7"	"0"	"0"	"37.9"	"3.3"	"0"	"0"	"10.0"	"16.1"	"230"	"SW"	"-9999.0"	"-9999.0"	"32.1"	"0.0"	"8.1"	"13.0"	
"20130108"	"Clear"	"20"	"54"	"28.0"	"-2.2"	"0"	"0"	"-9999"	"-9999"	"63"	"clear"	"METAR KBOS 090154Z 24008KT 10SM CLR 04/M02 A3035 RMK AO2 SLP277 T00441022"	"-9999.00"	"-9999.00"	"30.35"	"1027.7"	"0"	"0"	"39.9"	"4.4"	"0"	"0"	"10.0"	"16.1"	"240"	"WSW"	"-9999.0"	"-9999.0"	"33.9"	"1.1"	"9.2"	"14.8"	
"20130108"	"Clear"	"21"	"54"	"26.1"	"-3.3"	"0"	"0"	"-9999"	"-9999"	"55"	"clear"	"METAR KBOS 090254Z 25009KT 10SM CLR 05/M03 A3035 RMK AO2 SLP276 T00501033 50005"	"-9999.00"	"-9999.00"	"30.35"	"1027.6"	"0"	"0"	"41.0"	"5.0"	"0"	"0"	"10.0"	"16.1"	"250"	"WSW"	"-9999.0"	"-9999.0"	"34.7"	"1.5"	"10.4"	"16.7"	
"20130108"	"Clear"	"22"	"54"	"26.1"	"-3.3"	"0"	"0"	"-9999"	"-9999"	"58"	"clear"	"METAR KBOS 090354Z 27007KT 10SM CLR 04/M03 A3035 RMK AO2 SLP276 T00441033"	"-9999.00"	"-9999.00"	"30.35"	"1027.6"	"0"	"0"	"39.9"	"4.4"	"0"	"0"	"10.0"	"16.1"	"270"	"West"	"-9999.0"	"-9999.0"	"34.5"	"1.4"	"8.1"	"13.0"	
"20130108"	"Clear"	"23"	"54"	"25.0"	"-3.9"	"0"	"0"	"-9999"	"-9999"	"57"	"clear"	"METAR KBOS 090454Z 28006KT 10SM CLR 04/M04 A3036 RMK AO2 SLP280 T00391039 400781022"	"-9999.00"	"-9999.00"	"30.36"	"1028.0"	"0"	"0"	"39.0"	"3.9"	"0"	"0"	"10.0"	"16.1"	"280"	"West"	"-9999.0"	"-9999.0"	"34.0"	"1.1"	"6.9"	"11.1"	
"20130107"	"Scattered Clouds"	"00"	"54"	"26.1"	"-3.3"	"0"	"0"	"-9999"	"-9999"	"65"	"partlycloudy"	"METAR KBOS 070554Z 28009KT 10SM SCT080 03/M03 A2998 RMK AO2 SLP150 T00281033 10039 20011 53002"	"-9999.00"	"-9999.00"	"29.98"	"1015.0"	"0"	"0"	"37.0"	"2.8"	"0"	"0"	"10.0"	"16.1"	"280"	"West"	"-9999.0"	"-9999.0"	"29.8"	"-1.2"	"10.4"	"16.7"	
"20130107"	"Mostly Cloudy"	"01"	"54"	"26.1"	"-3.3"	"0"	"0"	"-9999"	"-9999"	"67"	"mostlycloudy"	"METAR KBOS 070654Z 28008KT 10SM FEW080 BKN085 02/M03 A3000 RMK AO2 SLP158 T00221033"	"-9999.00"	"-9999.00"	"30.00"	"1015.8"	"0"	"0"	"36.0"	"2.2"	"0"	"0"	"10.0"	"16.1"	"280"	"West"	"-9999.0"	"-9999.0"	"29.0"	"-1.6"	"9.2"	"14.8"	
"20130107"	"Partly Cloudy"	"02"	"54"	"25.0"	"-3.9"	"0"	"0"	"-9999"	"-9999"	"64"	"partlycloudy"	"METAR KBOS 070754Z 28008KT 10SM FEW090 02/M04 A3001 RMK AO2 SLP161 T00221039"	"-9999.00"	"-9999.00"	"30.01"	"1016.1"	"0"	"0"	"36.0"	"2.2"	"0"	"0"	"10.0"	"16.1"	"280"	"West"	"-9999.0"	"-9999.0"	"29.0"	"-1.6"	"9.2"	"14.8"	
"20130107"	"Clear"	"03"	"54"	"26.1"	"-3.3"	"0"	"0"	"-9999"	"-9999"	"67"	"clear"	"METAR KBOS 070854Z 28011KT 10SM CLR 02/M03 A3001 RMK AO2 SLP163 T00221033 51013"	"-9999.00"	"-9999.00"	"30.01"	"1016.3"	"0"	"0"	"36.0"	"2.2"	"0"	"0"	"10.0"	"16.1"	"280"	"West"	"-9999.0"	"-9999.0"	"27.5"	"-2.5"	"12.7"	"20.4"	
"20130107"	"Clear"	"04"	"54"	"26.1"	"-3.3"	"0"	"0"	"-9999"	"-9999"	"70"	"clear"	"METAR KBOS 070954Z 29009KT 10SM CLR 02/M03 A3003 RMK AO2 SLP169 T00171033"	"-9999.00"	"-9999.00"	"30.03"	"1016.9"	"0"	"0"	"35.1"	"1.7"	"0"	"0"	"10.0"	"16.1"	"290"	"WNW"	"-9999.0"	"-9999.0"	"27.4"	"-2.6"	"10.4"	"16.7"	
"20130107"	"Partly Cloudy"	"05"	"54"	"26.1"	"-3.3"	"0"	"0"	"-9999"	"-9999"	"73"	"partlycloudy"	"METAR KBOS 071054Z 28008KT 10SM FEW070 01/M03 A3006 RMK AO2 SLP179 T00111033"	"-9999.00"	"-9999.00"	"30.06"	"1017.9"	"0"	"0"	"34.0"	"1.1"	"0"	"0"	"10.0"	"16.1"	"280"	"West"	"-9999.0"	"-9999.0"	"26.6"	"-3.0"	"9.2"	"14.8"	
"20130107"	"Partly Cloudy"	"06"	"54"	"26.1"	"-3.3"	"0"	"0"	"-9999"	"-9999"	"70"	"partlycloudy"	"METAR KBOS 071154Z 28008KT 10SM FEW070 02/M03 A3011 RMK AO2 SLP194 T00171033 10028 20011 53032"	"-9999.00"	"-9999.00"	"30.11"	"1019.4"	"0"	"0"	"35.1"	"1.7"	"0"	"0"	"10.0"	"16.1"	"280"	"West"	"-9999.0"	"-9999.0"	"27.9"	"-2.3"	"9.2"	"14.8"	
"20130107"	"Partly Cloudy"	"07"	"54"	"27.0"	"-2.8"	"0"	"0"	"-9999"	"-9999"	"72"	"partlycloudy"	"METAR KBOS 071254Z 30005KT 10SM FEW070 02/M03 A3015 RMK AO2 SLP207 T00171028"	"-9999.00"	"-9999.00"	"30.14"	"1020.7"	"0"	"0"	"35.1"	"1.7"	"0"	"0"	"10.0"	"16.1"	"300"	"WNW"	"-9999.0"	"-9999.0"	"30.1"	"-1.1"	"5.8"	"9.3"	
"20130107"	"Partly Cloudy"	"08"	"54"	"27.0"	"-2.8"	"0"	"0"	"-9999"	"-9999"	"67"	"partlycloudy"	"METAR KBOS 071354Z 32012G17KT 10SM FEW070 03/M03 A3020 RMK AO2 SLP225 T00281028"	"-9999.00"	"-9999.00"	"30.20"	"1022.5"	"0"	"0"	"37.0"	"2.8"	"0"	"0"	"10.0"	"16.1"	"320"	"NW"	"19.6"	"31.5"	"28.5"	"-2.0"	"13.8"	"22.2"	
"20130107"	"Partly Cloudy"	"09"	"54"	"24.1"	"-4.4"	"0"	"0"	"-9999"	"-9999"	"57"	"partlycloudy"	"METAR KBOS 071454Z 34013G18KT 10SM FEW060 03/M04 A3024 RMK AO2 SLP240 T00331044 53046"	"-9999.00"	"-9999.00"	"30.24"	"1024.0"	"0"	"0"	"37.9"	"3.3"	"0"	"0"	"10.0"	"16.1"	"340"	"NNW"	"20.7"	"33.3"	"29.2"	"-1.5"	"15.0"	"24.1"	
"20130107"	"Partly Cloudy"	"10"	"54"	"23.0"	"-5.0"	"0"	"0"	"-9999"	"-9999"	"53"	"partlycloudy"	"METAR KBOS 071554Z 36008KT 10SM FEW040 04/M05 A3026 RMK AO2 SLP246 T00391050"	"-9999.00"	"-9999.00"	"30.26"	"1024.6"	"0"	"0"	"39.0"	"3.9"	"0"	"0"	"10.0"	"16.1"	"360"	"North"	"-9999.0"	"-9999.0"	"32.8"	"0.4"	"9.2"	"14.8"	
"20130107"	"Partly Cloudy"	"11"	"54"	"21.0"	"-6.1"	"0"	"0"	"-9999"	"-9999"	"49"	"partlycloudy"	"METAR KBOS 071654Z 32011KT 10SM FEW040 04/M06 A3027 RMK AO2 SLP251 T00391061"	"-9999.00"	"-9999.00"	"30.27"	"1025.1"	"0"	"0"	"39.0"	"3.9"	"0"	"0"	"10.0"	"16.1"	"320"	"NW"	"-9999.0"	"-9999.0"	"31.4"	"-0.3"	"12.7"	"20.4"	
"20130107"	"Scattered Clouds"	"12"	"54"	"19.0"	"-7.2"	"0"	"0"	"-9999"	"-9999"	"47"	"partlycloudy"	"METAR KBOS 071754Z 34011KT 10SM FEW040 SCT060 03/M07 A3029 RMK AO2 SLP257 T00331072 10039 20017 53017"	"-9999.00"	"-9999.00"	"30.29"	"1025.7"	"0"	"0"	"37.9"	"3.3"	"0"	"0"	"10.0"	"16.1"	"340"	"NNW"	"-9999.0"	"-9999.0"	"30.0"	"-1.1"	"12.7"	"20.4"	
"20130107"	"Partly Cloudy"	"13"	"54"	"26.1"	"-3.3"	"0"	"0"	"-9999"	"-9999"	"67"	"partlycloudy"	"METAR KBOS 071854Z 07008KT 10SM FEW040 02/M03 A3032 RMK AO2 SLP265 T00221033"	"-9999.00"	"-9999.00"	"30.32"	"1026.5"	"0"	"0"	"36.0"	"2.2"	"0"	"0"	"10.0"	"16.1"	"70"	"ENE"	"-9999.0"	"-9999.0"	"29.0"	"-1.6"	"9.2"	"14.8"	
"20130107"	"Partly Cloudy"	"14"	"54"	"26.1"	"-3.3"	"0"	"0"	"-9999"	"-9999"	"70"	"partlycloudy"	"METAR KBOS 071954Z 09007KT 10SM FEW040 02/M03 A3035 RMK AO2 SLP275 T00171033"	"-9999.00"	"-9999.00"	"30.35"	"1027.5"	"0"	"0"	"35.1"	"1.7"	"0"	"0"	"10.0"	"16.1"	"90"	"East"	"-9999.0"	"-9999.0"	"28.6"	"-1.9"	"8.1"	"13.0"	
"20130107"	"Partly Cloudy"	"15"	"54"	"25.0"	"-3.9"	"0"	"0"	"-9999"	"-9999"	"70"	"partlycloudy"	"METAR KBOS 072054Z 10004KT 10SM FEW040 01/M04 A3036 RMK AO2 SLP281 T00111039 51024"	"-9999.00"	"-9999.00"	"30.36"	"1028.1"	"0"	"0"	"34.0"	"1.1"	"0"	"0"	"10.0"	"16.1"	"100"	"East"	"-9999.0"	"-9999.0"	"29.8"	"-1.2"	"4.6"	"7.4"	
"20130107"	"Partly Cloudy"	"16"	"54"	"24.1"	"-4.4"	"0"	"0"	"-9999"	"-9999"	"73"	"partlycloudy"	"METAR KBOS 072154Z 11004KT 10SM FEW040 00/M04 A3038 RMK AO2 SLP287 T00001044"	"-9999.00"	"-9999.00"	"30.38"	"1028.7"	"0"	"0"	"32.0"	"0.0"	"0"	"0"	"10.0"	"16.1"	"110"	"ESE"	"-9999.0"	"-9999.0"	"27.5"	"-2.5"	"4.6"	"7.4"	
"20130107"	"Partly Cloudy"	"17"	"54"	"25.0"	"-3.9"	"0"	"0"	"-9999"	"-9999"	"72"	"partlycloudy"	"METAR KBOS 072254Z 14003KT 10SM FEW040 01/M04 A3040 RMK AO2 SLP292 T00061039"	"-9999.00"	"-9999.00"	"30.40"	"1029.2"	"0"	"0"	"33.1"	"0.6"	"0"	"0"	"10.0"	"16.1"	"140"	"SE"	"-9999.0"	"-9999.0"	"30.0"	"-1.1"	"3.5"	"5.6"	
"20130107"	"Partly Cloudy"	"18"	"54"	"25.0"	"-3.9"	"0"	"0"	"-9999"	"-9999"	"75"	"partlycloudy"	"METAR KBOS 072354Z 16003KT 10SM FEW040 00/M04 A3040 RMK AO2 SLP295 T00001039 10039 20000 51013"	"-9999.00"	"-9999.00"	"30.40"	"1029.5"	"0"	"0"	"32.0"	"0.0"	"0"	"0"	"10.0"	"16.1"	"160"	"SSE"	"-9999.0"	"-9999.0"	"28.7"	"-1.8"	"3.5"	"5.6"	
"20130107"	"Partly Cloudy"	"19"	"54"	"25.0"	"-3.9"	"0"	"0"	"-9999"	"-9999"	"82"	"partlycloudy"	"METAR KBOS 080054Z 19005KT 10SM FEW040 M01/M04 A3040 RMK AO2 SLP294 T10111039"	"-9999.00"	"-9999.00"	"30.40"	"1029.4"	"0"	"0"	"30.0"	"-1.1"	"0"	"0"	"10.0"	"16.1"	"190"	"South"	"-9999.0"	"-9999.0"	"24.1"	"-4.4"	"5.8"	"9.3"	
"20130107"	"Partly Cloudy"	"20"	"54"	"25.0"	"-3.9"	"0"	"0"	"-9999"	"-9999"	"82"	"partlycloudy"	"METAR KBOS 080154Z 18007KT 10SM FEW040 M01/M04 A3040 RMK AO2 SLP294 T10111039"	"-9999.00"	"-9999.00"	"30.40"	"1029.4"	"0"	"0"	"30.0"	"-1.1"	"0"	"0"	"10.0"	"16.1"	"180"	"South"	"-9999.0"	"-9999.0"	"22.4"	"-5.3"	"8.1"	"13.0"	
"20130107"	"Partly Cloudy"	"21"	"54"	"25.0"	"-3.9"	"0"	"0"	"-9999"	"-9999"	"82"	"partlycloudy"	"METAR KBOS 080254Z 20008KT 10SM FEW040 M01/M04 A3040 RMK AO2 SLP292 T10111039 58003"	"-9999.00"	"-9999.00"	"30.40"	"1029.2"	"0"	"0"	"30.0"	"-1.1"	"0"	"0"	"10.0"	"16.1"	"200"	"SSW"	"-9999.0"	"-9999.0"	"21.7"	"-5.7"	"9.2"	"14.8"	
"20130107"	"Partly Cloudy"	"22"	"54"	"25.0"	"-3.9"	"0"	"0"	"-9999"	"-9999"	"82"	"partlycloudy"	"METAR KBOS 080354Z 20008KT 10SM FEW040 M01/M04 A3039 RMK AO2 SLP291 T10111039"	"-9999.00"	"-9999.00"	"30.39"	"1029.1"	"0"	"0"	"30.0"	"-1.1"	"0"	"0"	"10.0"	"16.1"	"200"	"SSW"	"-9999.0"	"-9999.0"	"21.7"	"-5.7"	"9.2"	"14.8"	
"20130107"	"Partly Cloudy"	"23"	"54"	"24.1"	"-4.4"	"0"	"0"	"-9999"	"-9999"	"82"	"partlycloudy"	"METAR KBOS 080454Z 20007KT 10SM FEW040 M02/M04 A3038 RMK AO2 SLP287 T10171044 400391017"	"-9999.00"	"-9999.00"	"30.38"	"1028.7"	"0"	"0"	"28.9"	"-1.7"	"0"	"0"	"10.0"	"16.1"	"200"	"SSW"	"-9999.0"	"-9999.0"	"21.1"	"-6.1"	"8.1"	"13.0"	
"20130106"	"Overcast"	"00"	"54"	"19.0"	"-7.2"	"0"	"0"	"-9999"	"-9999"	"67"	"cloudy"	"METAR KBOS 060554Z 04003KT 10SM BKN180 OVC220 M02/M07 A3018 RMK AO2 SLP220 T10171072 10011 21028 58022"	"-9999.00"	"-9999.00"	"30.18"	"1022.0"	"0"	"0"	"28.9"	"-1.7"	"0"	"0"	"10.0"	"16.1"	"40"	"NE"	"-9999.0"	"-9999.0"	"25.2"	"-3.8"	"3.5"	"5.6"	
"20130106"	"Overcast"	"01"	"54"	"21.9"	"-5.6"	"0"	"0"	"-9999"	"-9999"	"69"	"cloudy"	"METAR KBOS 060654Z 26003KT 10SM OVC160 M01/M06 A3022 RMK AO2 SLP232 T10061056"	"-9999.00"	"-9999.00"	"30.22"	"1023.2"	"0"	"0"	"30.9"	"-0.6"	"0"	"0"	"10.0"	"16.1"	"260"	"West"	"-9999.0"	"-9999.0"	"27.5"	"-2.5"	"3.5"	"5.6"	
"20130106"	"Overcast"	"02"	"54"	"21.0"	"-6.1"	"0"	"0"	"-9999"	"-9999"	"67"	"cloudy"	"METAR KBOS 060754Z 00000KT 10SM OVC120 M01/M06 A3019 RMK AO2 SLP223 T10061061"	"-9999.00"	"-9999.00"	"30.19"	"1022.3"	"0"	"0"	"30.9"	"-0.6"	"0"	"0"	"10.0"	"16.1"	"0"	"North"	"-9999.0"	"-9999.0"	"-999"	"-999"	"0.0"	"0.0"	
"20130106"	"Overcast"	"03"	"54"	"19.9"	"-6.7"	"0"	"0"	"-9999"	"-9999"	"64"	"cloudy"	"METAR KBOS 060854Z 22004KT 10SM FEW060 BKN075 OVC100 M01/M07 A3016 RMK AO2 SLP213 T10061067 58007"	"-9999.00"	"-9999.00"	"30.16"	"1021.3"	"0"	"0"	"30.9"	"-0.6"	"0"	"0"	"10.0"	"16.1"	"220"	"SW"	"-9999.0"	"-9999.0"	"26.2"	"-3.2"	"4.6"	"7.4"	
"20130106"	"Overcast"	"04"	"54"	"19.9"	"-6.7"	"0"	"0"	"-9999"	"-9999"	"64"	"cloudy"	"METAR KBOS 060954Z 21004KT 10SM OVC047 M01/M07 A3013 RMK AO2 SNB10E44 SLP201 P0000 T10061067"	"0.00"	"0.0"	"30.13"	"1020.1"	"0"	"0"	"30.9"	"-0.6"	"0"	"0"	"10.0"	"16.1"	"210"	"SSW"	"-9999.0"	"-9999.0"	"26.2"	"-3.2"	"4.6"	"7.4"	
"20130106"	"Light Snow"	"05"	"54"	"21.0"	"-6.1"	"0"	"0"	"-9999"	"-9999"	"69"	"snow"	"METAR KBOS 061054Z 22007KT 9SM -SN BKN040 OVC050 M01/M06 A3011 RMK AO2 SNB22 SLP194 PCPN VRY LGT P0000 T10111061"	"0.00"	"0.0"	"30.11"	"1019.4"	"0"	"1"	"30.0"	"-1.1"	"0"	"0"	"9.0"	"14.5"	"220"	"SW"	"-9999.0"	"-9999.0"	"22.4"	"-5.3"	"8.1"	"13.0"	
"20130106"	"Light Snow"	"06"	"54"	"24.1"	"-4.4"	"0"	"0"	"-9999"	"-9999"	"79"	"snow"	"METAR KBOS 061154Z 21005KT 9SM -SN SCT040 OVC070 M01/M04 A3010 RMK AO2 SLP190 P0000 60000 T10111044 10000 21022 56023"	"0.00"	"0.0"	"30.09"	"1019.0"	"0"	"1"	"30.0"	"-1.1"	"0"	"0"	"9.0"	"14.5"	"210"	"SSW"	"-9999.0"	"-9999.0"	"24.1"	"-4.4"	"5.8"	"9.3"	
"20130106"	"Overcast"	"07"	"54"	"26.1"	"-3.3"	"0"	"0"	"-9999"	"-9999"	"82"	"cloudy"	"METAR KBOS 061254Z 22007KT 10SM FEW040 OVC070 M01/M03 A3008 RMK AO2 SNE48 SLP185 P0000 T10061033"	"0.00"	"0.0"	"30.08"	"1018.5"	"0"	"0"	"30.9"	"-0.6"	"0"	"0"	"10.0"	"16.1"	"220"	"SW"	"-9999.0"	"-9999.0"	"23.5"	"-4.7"	"8.1"	"13.0"	
"20130106"	"Scattered Clouds"	"08"	"54"	"27.0"	"-2.8"	"0"	"0"	"-9999"	"-9999"	"82"	"partlycloudy"	"METAR KBOS 061354Z 22012KT 9SM FEW040 SCT085 00/M03 A3007 RMK AO2 SLP182 T00001028"	"-9999.00"	"-9999.00"	"30.07"	"1018.2"	"0"	"0"	"32.0"	"0.0"	"0"	"0"	"9.0"	"14.5"	"220"	"SW"	"-9999.0"	"-9999.0"	"22.1"	"-5.5"	"13.8"	"22.2"	
"20130106"	"Partly Cloudy"	"09"	"54"	"27.0"	"-2.8"	"0"	"0"	"-9999"	"-9999"	"72"	"partlycloudy"	"METAR KBOS 061454Z 23012KT 9SM FEW085 02/M03 A3005 RMK AO2 SLP176 60000 T00171028 58014"	"-9999.00"	"-9999.00"	"30.05"	"1017.6"	"0"	"0"	"35.1"	"1.7"	"0"	"0"	"9.0"	"14.5"	"230"	"SW"	"-9999.0"	"-9999.0"	"25.9"	"-3.4"	"13.8"	"22.2"	
"20130106"	"Clear"	"10"	"54"	"26.1"	"-3.3"	"0"	"0"	"-9999"	"-9999"	"65"	"clear"	"METAR KBOS 061554Z 24016G22KT 9SM CLR 03/M03 A3002 RMK AO2 SLP166 T00281033"	"-9999.00"	"-9999.00"	"30.02"	"1016.6"	"0"	"0"	"37.0"	"2.8"	"0"	"0"	"9.0"	"14.5"	"240"	"WSW"	"25.3"	"40.7"	"27.0"	"-2.8"	"18.4"	"29.6"	
"20130106"	"Clear"	"11"	"54"	"26.1"	"-3.3"	"0"	"0"	"-9999"	"-9999"	"58"	"clear"	"METAR KBOS 061654Z 24015G21KT 10SM CLR 04/M03 A2998 RMK AO2 SLP150 T00441033"	"-9999.00"	"-9999.00"	"29.98"	"1015.0"	"0"	"0"	"39.9"	"4.4"	"0"	"0"	"10.0"	"16.1"	"240"	"WSW"	"24.2"	"38.9"	"31.1"	"-0.5"	"17.3"	"27.8"	
"20130106"	"Clear"	"12"	"54"	"26.1"	"-3.3"	"0"	"0"	"-9999"	"-9999"	"53"	"clear"	"METAR KBOS 061754Z 24007KT 10SM CLR 06/M03 A2995 RMK AO2 SLP143 60000 T00561033 10056 21011 56034"	"-9999.00"	"-9999.00"	"29.96"	"1014.3"	"0"	"0"	"42.1"	"5.6"	"0"	"0"	"10.0"	"16.1"	"240"	"WSW"	"-9999.0"	"-9999.0"	"37.1"	"2.8"	"8.1"	"13.0"	
"20130106"	"Clear"	"13"	"54"	"26.1"	"-3.3"	"0"	"0"	"-9999"	"-9999"	"53"	"clear"	"METAR KBOS 061854Z 26008KT 10SM CLR 06/M03 A2995 RMK AO2 SLP140 T00561033"	"-9999.00"	"-9999.00"	"29.95"	"1014.0"	"0"	"0"	"42.1"	"5.6"	"0"	"0"	"10.0"	"16.1"	"260"	"West"	"-9999.0"	"-9999.0"	"36.6"	"2.5"	"9.2"	"14.8"	
"20130106"	"Clear"	"14"	"54"	"25.0"	"-3.9"	"0"	"0"	"-9999"	"-9999"	"49"	"clear"	"METAR KBOS 061954Z 28009G17KT 10SM CLR 06/M04 A2995 RMK AO2 SLP140 T00611039"	"-9999.00"	"-9999.00"	"29.95"	"1014.0"	"0"	"0"	"43.0"	"6.1"	"0"	"0"	"10.0"	"16.1"	"280"	"West"	"19.6"	"31.5"	"37.2"	"2.9"	"10.4"	"16.7"	
"20130106"	"Clear"	"15"	"54"	"25.0"	"-3.9"	"0"	"0"	"-9999"	"-9999"	"53"	"clear"	"METAR KBOS 062054Z 30010G14KT 10SM CLR 05/M04 A2994 RMK AO2 SLP139 T00501039 56003"	"-9999.00"	"-9999.00"	"29.94"	"1013.9"	"0"	"0"	"41.0"	"5.0"	"0"	"0"	"10.0"	"16.1"	"300"	"WNW"	"16.1"	"25.9"	"34.3"	"1.3"	"11.5"	"18.5"	
"20130106"	"Clear"	"16"	"54"	"25.0"	"-3.9"	"0"	"0"	"-9999"	"-9999"	"55"	"clear"	"METAR KBOS 062154Z 30005KT 10SM CLR 04/M04 A2995 RMK AO2 SLP143 T00441039"	"-9999.00"	"-9999.00"	"29.96"	"1014.3"	"0"	"0"	"39.9"	"4.4"	"0"	"0"	"10.0"	"16.1"	"300"	"WNW"	"-9999.0"	"-9999.0"	"35.8"	"2.1"	"5.8"	"9.3"	
"20130106"	"Partly Cloudy"	"17"	"54"	"25.0"	"-3.9"	"0"	"0"	"-9999"	"-9999"	"57"	"partlycloudy"	"METAR KBOS 062254Z 27005KT 10SM FEW220 04/M04 A2996 RMK AO2 SLP146 T00391039"	"-9999.00"	"-9999.00"	"29.96"	"1014.6"	"0"	"0"	"39.0"	"3.9"	"0"	"0"	"10.0"	"16.1"	"270"	"West"	"-9999.0"	"-9999.0"	"34.8"	"1.5"	"5.8"	"9.3"	
"20130106"	"Overcast"	"18"	"54"	"26.1"	"-3.3"	"0"	"0"	"-9999"	"-9999"	"60"	"cloudy"	"METAR KBOS 062354Z 23004KT 10SM OVC100 04/M03 A2997 RMK AO2 SLP148 T00391033 10061 20022 51008"	"-9999.00"	"-9999.00"	"29.97"	"1014.8"	"0"	"0"	"39.0"	"3.9"	"0"	"0"	"10.0"	"16.1"	"230"	"SW"	"-9999.0"	"-9999.0"	"35.7"	"2.0"	"4.6"	"7.4"	
"20130106"	"Overcast"	"19"	"54"	"26.1"	"-3.3"	"0"	"0"	"-9999"	"-9999"	"65"	"cloudy"	"METAR KBOS 070054Z VRB05KT 10SM OVC100 03/M03 A2997 RMK AO2 SLP148 T00281033"	"-9999.00"	"-9999.00"	"29.97"	"1014.8"	"0"	"0"	"37.0"	"2.8"	"0"	"0"	"10.0"	"16.1"	"0"	"Variable"	"-9999.0"	"-9999.0"	"32.4"	"0.2"	"5.8"	"9.3"	
"20130106"	"Overcast"	"20"	"54"	"27.0"	"-2.8"	"0"	"0"	"-9999"	"-9999"	"70"	"cloudy"	"METAR KBOS 070154Z 20003KT 9SM SCT060 OVC080 02/M03 A2997 RMK AO2 SLP147 T00221028"	"-9999.00"	"-9999.00"	"29.97"	"1014.7"	"0"	"0"	"36.0"	"2.2"	"0"	"0"	"9.0"	"14.5"	"200"	"SSW"	"-9999.0"	"-9999.0"	"33.3"	"0.7"	"3.5"	"5.6"	
"20130106"	"Overcast"	"21"	"54"	"27.0"	"-2.8"	"0"	"0"	"-9999"	"-9999"	"70"	"cloudy"	"METAR KBOS 070254Z 21005KT 10SM BKN055 OVC100 02/M03 A2997 RMK AO2 SLP148 T00221028 53001"	"-9999.00"	"-9999.00"	"29.97"	"1014.8"	"0"	"0"	"36.0"	"2.2"	"0"	"0"	"10.0"	"16.1"	"210"	"SSW"	"-9999.0"	"-9999.0"	"31.1"	"-0.5"	"5.8"	"9.3"	
"20130106"	"Overcast"	"22"	"54"	"27.0"	"-2.8"	"0"	"0"	"-9999"	"-9999"	"65"	"cloudy"	"METAR KBOS 070354Z 26008KT 10SM FEW055 BKN060 OVC100 03/M03 A2996 RMK AO2 SLP145 T00331028"	"-9999.00"	"-9999.00"	"29.96"	"1014.5"	"0"	"0"	"37.9"	"3.3"	"0"	"0"	"10.0"	"16.1"	"260"	"West"	"-9999.0"	"-9999.0"	"31.5"	"-0.3"	"9.2"	"14.8"	
"20130106"	"Scattered Clouds"	"23"	"54"	"25.0"	"-3.9"	"0"	"0"	"-9999"	"-9999"	"70"	"partlycloudy"	"METAR KBOS 070454Z 21006KT 10SM FEW090 SCT100 01/M04 A2996 RMK AO2 SLP143 T00111039 400611022"	"-9999.00"	"-9999.00"	"29.96"	"1014.3"	"0"	"0"	"34.0"	"1.1"	"0"	"0"	"10.0"	"16.1"	"210"	"SSW"	"-9999.0"	"-9999.0"	"28.0"	"-2.2"	"6.9"	"11.1"	
"20130105"	"Scattered Clouds"	"00"	"54"	"19.0"	"-7.2"	"0"	"0"	"-9999"	"-9999"	"61"	"partlycloudy"	"METAR KBOS 050554Z 24011KT 10SM SCT048 M01/M07 A2986 RMK AO2 SLP111 T10061072 10017 21011 53002"	"-9999.00"	"-9999.00"	"29.86"	"1011.1"	"0"	"0"	"30.9"	"-0.6"	"0"	"0"	"10.0"	"16.1"	"240"	"WSW"	"-9999.0"	"-9999.0"	"21.2"	"-6.0"	"12.7"	"20.4"	
"20130105"	"Overcast"	"01"	"54"	"19.0"	"-7.2"	"0"	"0"	"-9999"	"-9999"	"61"	"cloudy"	"METAR KBOS 050654Z 23013KT 10SM OVC048 M01/M07 A2988 RMK AO2 SLP118 T10061072"	"-9999.00"	"-9999.00"	"29.88"	"1011.8"	"0"	"0"	"30.9"	"-0.6"	"0"	"0"	"10.0"	"16.1"	"230"	"SW"	"-9999.0"	"-9999.0"	"20.2"	"-6.5"	"15.0"	"24.1"	
"20130105"	"Overcast"	"02"	"54"	"19.9"	"-6.7"	"0"	"0"	"-9999"	"-9999"	"61"	"cloudy"	"METAR KBOS 050754Z 23013KT 10SM OVC055 00/M07 A2989 RMK AO2 SLP122 T00001067"	"-9999.00"	"-9999.00"	"29.89"	"1012.2"	"0"	"0"	"32.0"	"0.0"	"0"	"0"	"10.0"	"16.1"	"230"	"SW"	"-9999.0"	"-9999.0"	"21.6"	"-5.8"	"15.0"	"24.1"	
"20130105"	"Clear"	"03"	"54"	"19.9"	"-6.7"	"0"	"0"	"-9999"	"-9999"	"64"	"clear"	"METAR KBOS 050854Z 23012KT 10SM CLR M01/M07 A2990 RMK AO2 SLP125 T10061067 51014"	"-9999.00"	"-9999.00"	"29.90"	"1012.5"	"0"	"0"	"30.9"	"-0.6"	"0"	"0"	"10.0"	"16.1"	"230"	"SW"	"-9999.0"	"-9999.0"	"20.7"	"-6.3"	"13.8"	"22.2"	
"20130105"	"Mostly Cloudy"	"04"	"54"	"19.9"	"-6.7"	"0"	"0"	"-9999"	"-9999"	"64"	"mostlycloudy"	"METAR KBOS 050954Z 24011KT 10SM BKN060 M01/M07 A2993 RMK AO2 SLP133 T10061067"	"-9999.00"	"-9999.00"	"29.93"	"1013.3"	"0"	"0"	"30.9"	"-0.6"	"0"	"0"	"10.0"	"16.1"	"240"	"WSW"	"-9999.0"	"-9999.0"	"21.2"	"-6.0"	"12.7"	"20.4"	
"20130105"	"Scattered Clouds"	"05"	"54"	"19.9"	"-6.7"	"0"	"0"	"-9999"	"-9999"	"66"	"partlycloudy"	"METAR KBOS 051054Z 24013KT 10SM SCT110 M01/M07 A2996 RMK AO2 SLP143 T10111067"	"-9999.00"	"-9999.00"	"29.96"	"1014.3"	"0"	"0"	"30.0"	"-1.1"	"0"	"0"	"10.0"	"16.1"	"240"	"WSW"	"-9999.0"	"-9999.0"	"19.1"	"-7.2"	"15.0"	"24.1"	
"20130105"	"Scattered Clouds"	"06"	"54"	"21.0"	"-6.1"	"0"	"0"	"-9999"	"-9999"	"64"	"partlycloudy"	"METAR KBOS 051154Z 24011KT 10SM SCT110 00/M06 A2999 RMK AO2 SLP155 T00001061 10000 21011 53030"	"-9999.00"	"-9999.00"	"29.99"	"1015.5"	"0"	"0"	"32.0"	"0.0"	"0"	"0"	"10.0"	"16.1"	"240"	"WSW"	"-9999.0"	"-9999.0"	"22.5"	"-5.3"	"12.7"	"20.4"	
"20130105"	"Clear"	"07"	"54"	"21.0"	"-6.1"	"0"	"0"	"-9999"	"-9999"	"69"	"clear"	"METAR KBOS 051254Z 20010KT 10SM CLR M01/M06 A3004 RMK AO2 SLP171 T10111061"	"-9999.00"	"-9999.00"	"30.04"	"1017.1"	"0"	"0"	"30.0"	"-1.1"	"0"	"0"	"10.0"	"16.1"	"200"	"SSW"	"-9999.0"	"-9999.0"	"20.5"	"-6.4"	"11.5"	"18.5"	
"20130105"	"Clear"	"08"	"54"	"21.9"	"-5.6"	"0"	"0"	"-9999"	"-9999"	"64"	"clear"	"METAR KBOS 051354Z 23011KT 10SM CLR 01/M06 A3007 RMK AO2 SLP183 T00061056"	"-9999.00"	"-9999.00"	"30.07"	"1018.3"	"0"	"0"	"33.1"	"0.6"	"0"	"0"	"10.0"	"16.1"	"230"	"SW"	"-9999.0"	"-9999.0"	"23.9"	"-4.5"	"12.7"	"20.4"	
"20130105"	"Mostly Cloudy"	"09"	"54"	"23.0"	"-5.0"	"0"	"0"	"-9999"	"-9999"	"55"	"mostlycloudy"	"METAR KBOS 051454Z 26010G18KT 10SM BKN055 03/M05 A3012 RMK AO2 SLP197 T00331050 51042"	"-9999.00"	"-9999.00"	"30.12"	"1019.7"	"0"	"0"	"37.9"	"3.3"	"0"	"0"	"10.0"	"16.1"	"260"	"West"	"20.7"	"33.3"	"30.5"	"-0.9"	"11.5"	"18.5"	
"20130105"	"Mostly Cloudy"	"10"	"54"	"21.0"	"-6.1"	"0"	"0"	"-9999"	"-9999"	"47"	"mostlycloudy"	"METAR KBOS 051554Z 31015G19KT 10SM BKN050 04/M06 A3012 RMK AO2 SLP199 T00441061"	"-9999.00"	"-9999.00"	"30.12"	"1019.9"	"0"	"0"	"39.9"	"4.4"	"0"	"0"	"10.0"	"16.1"	"310"	"NW"	"21.9"	"35.2"	"31.1"	"-0.5"	"17.3"	"27.8"	
"20130105"	"Mostly Cloudy"	"11"	"54"	"19.9"	"-6.7"	"0"	"0"	"-9999"	"-9999"	"43"	"mostlycloudy"	"METAR KBOS 051654Z 33008KT 10SM BKN048 05/M07 A3013 RMK AO2 SLP203 T00501067"	"-9999.00"	"-9999.00"	"30.13"	"1020.3"	"0"	"0"	"41.0"	"5.0"	"0"	"0"	"10.0"	"16.1"	"330"	"NNW"	"-9999.0"	"-9999.0"	"35.2"	"1.8"	"9.2"	"14.8"	
"20130105"	"Partly Cloudy"	"12"	"54"	"19.0"	"-7.2"	"0"	"0"	"-9999"	"-9999"	"41"	"partlycloudy"	"METAR KBOS 051754Z 31009KT 10SM FEW050 05/M07 A3013 RMK AO2 SLP203 T00501072 10056 21011 51006"	"-9999.00"	"-9999.00"	"30.13"	"1020.3"	"0"	"0"	"41.0"	"5.0"	"0"	"0"	"10.0"	"16.1"	"310"	"NW"	"-9999.0"	"-9999.0"	"34.7"	"1.5"	"10.4"	"16.7"	
"20130105"	"Scattered Clouds"	"13"	"54"	"16.0"	"-8.9"	"0"	"0"	"-9999"	"-9999"	"36"	"partlycloudy"	"METAR KBOS 051854Z 29015G22KT 10SM FEW050 SCT260 05/M09 A3014 RMK AO2 SLP206 T00501089"	"-9999.00"	"-9999.00"	"30.14"	"1020.6"	"0"	"0"	"41.0"	"5.0"	"0"	"0"	"10.0"	"16.1"	"290"	"WNW"	"25.3"	"40.7"	"32.5"	"0.3"	"17.3"	"27.8"	
"20130105"	"Mostly Cloudy"	"14"	"54"	"15.1"	"-9.4"	"0"	"0"	"-9999"	"-9999"	"35"	"mostlycloudy"	"METAR KBOS 051954Z 30007KT 10SM BKN280 05/M09 A3015 RMK AO2 SLP208 T00501094"	"-9999.00"	"-9999.00"	"30.15"	"1020.8"	"0"	"0"	"41.0"	"5.0"	"0"	"0"	"10.0"	"16.1"	"300"	"WNW"	"-9999.0"	"-9999.0"	"35.8"	"2.1"	"8.1"	"13.0"	
"20130105"	"Mostly Cloudy"	"15"	"54"	"16.0"	"-8.9"	"0"	"0"	"-9999"	"-9999"	"39"	"mostlycloudy"	"METAR KBOS 052054Z 34006KT 10SM SCT250 BKN300 04/M09 A3018 RMK AO2 SLP218 T00391089 53016"	"-9999.00"	"-9999.00"	"30.18"	"1021.8"	"0"	"0"	"39.0"	"3.9"	"0"	"0"	"10.0"	"16.1"	"340"	"NNW"	"-9999.0"	"-9999.0"	"34.0"	"1.1"	"6.9"	"11.1"	
"20130105"	"Scattered Clouds"	"16"	"54"	"15.1"	"-9.4"	"0"	"0"	"-9999"	"-9999"	"39"	"partlycloudy"	"METAR KBOS 052154Z 34004KT 10SM FEW150 SCT250 SCT300 03/M09 A3021 RMK AO2 SLP229 T00331094"	"-9999.00"	"-9999.00"	"30.21"	"1022.9"	"0"	"0"	"37.9"	"3.3"	"0"	"0"	"10.0"	"16.1"	"340"	"NNW"	"-9999.0"	"-9999.0"	"34.4"	"1.3"	"4.6"	"7.4"	
"20130105"	"Partly Cloudy"	"17"	"54"	"15.1"	"-9.4"	"0"	"0"	"-9999"	"-9999"	"43"	"partlycloudy"	"METAR KBOS 052254Z 35004KT 10SM FEW250 02/M09 A3023 RMK AO2 SLP237 T00221094"	"-9999.00"	"-9999.00"	"30.23"	"1023.7"	"0"	"0"	"36.0"	"2.2"	"0"	"0"	"10.0"	"16.1"	"350"	"North"	"-9999.0"	"-9999.0"	"32.1"	"0.0"	"4.6"	"7.4"	
"20130105"	"Partly Cloudy"	"18"	"54"	"15.1"	"-9.4"	"0"	"0"	"-9999"	"-9999"	"46"	"partlycloudy"	"METAR KBOS 052354Z 36003KT 10SM FEW200 01/M09 A3026 RMK AO2 SLP245 T00111094 10056 20006 51027"	"-9999.00"	"-9999.00"	"30.26"	"1024.5"	"0"	"0"	"34.0"	"1.1"	"0"	"0"	"10.0"	"16.1"	"360"	"North"	"-9999.0"	"-9999.0"	"31.0"	"-0.6"	"3.5"	"5.6"	
"20130105"	"Scattered Clouds"	"19"	"54"	"15.1"	"-9.4"	"0"	"0"	"-9999"	"-9999"	"52"	"partlycloudy"	"METAR KBOS 060054Z 04004KT 10SM FEW150 SCT200 M01/M09 A3026 RMK AO2 SLP245 T10061094"	"-9999.00"	"-9999.00"	"30.26"	"1024.5"	"0"	"0"	"30.9"	"-0.6"	"0"	"0"	"10.0"	"16.1"	"40"	"NE"	"-9999.0"	"-9999.0"	"26.2"	"-3.2"	"4.6"	"7.4"	
"20130105"	"Mostly Cloudy"	"20"	"54"	"16.0"	"-8.9"	"0"	"0"	"-9999"	"-9999"	"56"	"mostlycloudy"	"METAR KBOS 060154Z 00000KT 10SM FEW180 BKN220 M01/M09 A3025 RMK AO2 SLP242 T10111089"	"-9999.00"	"-9999.00"	"30.25"	"1024.2"	"0"	"0"	"30.0"	"-1.1"	"0"	"0"	"10.0"	"16.1"	"0"	"North"	"-9999.0"	"-9999.0"	"-999"	"-999"	"0.0"	"0.0"	
"20130105"	"Partly Cloudy"	"21"	"54"	"15.1"	"-9.4"	"0"	"0"	"-9999"	"-9999"	"54"	"partlycloudy"	"METAR KBOS 060254Z 00000KT 10SM FEW220 M01/M09 A3025 RMK AO2 SLP242 T10111094 56003"	"-9999.00"	"-9999.00"	"30.25"	"1024.2"	"0"	"0"	"30.0"	"-1.1"	"0"	"0"	"10.0"	"16.1"	"0"	"North"	"-9999.0"	"-9999.0"	"-999"	"-999"	"0.0"	"0.0"	
"20130105"	"Mostly Cloudy"	"22"	"54"	"16.0"	"-8.9"	"0"	"0"	"-9999"	"-9999"	"54"	"mostlycloudy"	"METAR KBOS 060354Z 00000KT 10SM BKN180 M01/M09 A3026 RMK AO2 SLP245 T10061089"	"-9999.00"	"-9999.00"	"30.26"	"1024.5"	"0"	"0"	"30.9"	"-0.6"	"0"	"0"	"10.0"	"16.1"	"0"	"North"	"-9999.0"	"-9999.0"	"-999"	"-999"	"0.0"	"0.0"	
"20130105"	"Mostly Cloudy"	"23"	"54"	"19.0"	"-7.2"	"0"	"0"	"-9999"	"-9999"	"67"	"mostlycloudy"	"METAR KBOS 060454Z 01003KT 10SM BKN180 M02/M07 A3022 RMK AO2 SLP233 T10171072 400561028"	"-9999.00"	"-9999.00"	"30.22"	"1023.3"	"0"	"0"	"28.9"	"-1.7"	"0"	"0"	"10.0"	"16.1"	"10"	"North"	"-9999.0"	"-9999.0"	"25.2"	"-3.8"	"3.5"	"5.6"	
"20130104"	"Scattered Clouds"	"00"	"54"	"10.9"	"-11.7"	"0"	"0"	"-9999"	"-9999"	"60"	"partlycloudy"	"METAR KBOS 040554Z 24009KT 10SM SCT085 SCT100 M05/M12 A2997 RMK AO2 SLP149 T10501117 11044 21061 58025"	"-9999.00"	"-9999.00"	"29.97"	"1014.9"	"0"	"0"	"23.0"	"-5.0"	"0"	"0"	"10.0"	"16.1"	"240"	"WSW"	"-9999.0"	"-9999.0"	"12.4"	"-10.9"	"10.4"	"16.7"	
"20130104"	"Scattered Clouds"	"01"	"54"	"12.0"	"-11.1"	"0"	"0"	"-9999"	"-9999"	"63"	"partlycloudy"	"METAR KBOS 040654Z 25008KT 10SM FEW085 SCT110 M05/M11 A2997 RMK AO2 SLP149 T10501111"	"-9999.00"	"-9999.00"	"29.97"	"1014.9"	"0"	"0"	"23.0"	"-5.0"	"0"	"0"	"10.0"	"16.1"	"250"	"WSW"	"-9999.0"	"-9999.0"	"13.1"	"-10.5"	"9.2"	"14.8"	
"20130104"	"Scattered Clouds"	"02"	"54"	"12.9"	"-10.6"	"0"	"0"	"-9999"	"-9999"	"62"	"partlycloudy"	"METAR KBOS 040754Z 25007KT 10SM FEW085 SCT100 M04/M11 A2997 RMK AO2 SLP146 T10441106"	"-9999.00"	"-9999.00"	"29.96"	"1014.6"	"0"	"0"	"24.1"	"-4.4"	"0"	"0"	"10.0"	"16.1"	"250"	"WSW"	"-9999.0"	"-9999.0"	"15.2"	"-9.3"	"8.1"	"13.0"	
"20130104"	"Scattered Clouds"	"03"	"54"	"14.0"	"-10.0"	"0"	"0"	"-9999"	"-9999"	"63"	"partlycloudy"	"METAR KBOS 040854Z 26008KT 10SM FEW085 SCT110 M04/M10 A2995 RMK AO2 SLP140 T10391100 58009"	"-9999.00"	"-9999.00"	"29.95"	"1014.0"	"0"	"0"	"25.0"	"-3.9"	"0"	"0"	"10.0"	"16.1"	"260"	"West"	"-9999.0"	"-9999.0"	"15.5"	"-9.2"	"9.2"	"14.8"	
"20130104"	"Scattered Clouds"	"04"	"54"	"14.0"	"-10.0"	"0"	"0"	"-9999"	"-9999"	"68"	"partlycloudy"	"METAR KBOS 040954Z 23008KT 10SM SCT110 M05/M10 A2995 RMK AO2 SLP140 T10501100"	"-9999.00"	"-9999.00"	"29.95"	"1014.0"	"0"	"0"	"23.0"	"-5.0"	"0"	"0"	"10.0"	"16.1"	"230"	"SW"	"-9999.0"	"-9999.0"	"13.1"	"-10.5"	"9.2"	"14.8"	
"20130104"	"Scattered Clouds"	"05"	"54"	"16.0"	"-8.9"	"0"	"0"	"-9999"	"-9999"	"69"	"partlycloudy"	"METAR KBOS 041054Z 23006KT 10SM SCT100 M04/M09 A2995 RMK AO2 SLP140 T10391089"	"-9999.00"	"-9999.00"	"29.95"	"1014.0"	"0"	"0"	"25.0"	"-3.9"	"0"	"0"	"10.0"	"16.1"	"230"	"SW"	"-9999.0"	"-9999.0"	"17.1"	"-8.3"	"6.9"	"11.1"	
"20130104"	"Scattered Clouds"	"06"	"54"	"17.1"	"-8.3"	"0"	"0"	"-9999"	"-9999"	"66"	"partlycloudy"	"METAR KBOS 041154Z 26011G20KT 10SM FEW100 SCT250 M03/M08 A2995 RMK AO2 SLP142 T10281083 11022 21061 53003"	"-9999.00"	"-9999.00"	"29.95"	"1014.2"	"0"	"0"	"27.0"	"-2.8"	"0"	"0"	"10.0"	"16.1"	"260"	"West"	"23.0"	"37.0"	"16.1"	"-8.8"	"12.7"	"20.4"	
"20130104"	"Mostly Cloudy"	"07"	"54"	"19.0"	"-7.2"	"0"	"0"	"-9999"	"-9999"	"67"	"mostlycloudy"	"METAR KBOS 041254Z 26015G21KT 10SM FEW100 BKN250 M02/M07 A2996 RMK AO2 SLP146 T10171072"	"-9999.00"	"-9999.00"	"29.96"	"1014.6"	"0"	"0"	"28.9"	"-1.7"	"0"	"0"	"10.0"	"16.1"	"260"	"West"	"24.2"	"38.9"	"16.9"	"-8.4"	"17.3"	"27.8"	
"20130104"	"Mostly Cloudy"	"08"	"54"	"19.0"	"-7.2"	"0"	"0"	"-9999"	"-9999"	"64"	"mostlycloudy"	"METAR KBOS 041354Z 26012G19KT 10SM BKN060 M01/M07 A2996 RMK AO2 SLP146 T10111072"	"-9999.00"	"-9999.00"	"29.96"	"1014.6"	"0"	"0"	"30.0"	"-1.1"	"0"	"0"	"10.0"	"16.1"	"260"	"West"	"21.9"	"35.2"	"19.5"	"-6.9"	"13.8"	"22.2"	
"20130104"	"Mostly Cloudy"	"09"	"54"	"21.0"	"-6.1"	"0"	"0"	"-9999"	"-9999"	"61"	"mostlycloudy"	"METAR KBOS 041454Z 26012KT 10SM SCT050 BKN250 01/M06 A2995 RMK AO2 SLP141 T00061061 58001"	"-9999.00"	"-9999.00"	"29.95"	"1014.1"	"0"	"0"	"33.1"	"0.6"	"0"	"0"	"10.0"	"16.1"	"260"	"West"	"-9999.0"	"-9999.0"	"23.4"	"-4.8"	"13.8"	"22.2"	
"20130104"	"Mostly Cloudy"	"10"	"54"	"19.9"	"-6.7"	"0"	"0"	"-9999"	"-9999"	"54"	"mostlycloudy"	"METAR KBOS 041554Z 27013G22KT 10SM FEW055 BKN110 BKN200 02/M07 A2992 RMK AO2 SLP132 T00171067"	"-9999.00"	"-9999.00"	"29.92"	"1013.2"	"0"	"0"	"35.1"	"1.7"	"0"	"0"	"10.0"	"16.1"	"270"	"West"	"25.3"	"40.7"	"25.5"	"-3.6"	"15.0"	"24.1"	
"20130104"	"Mostly Cloudy"	"11"	"54"	"19.0"	"-7.2"	"0"	"0"	"-9999"	"-9999"	"50"	"mostlycloudy"	"METAR KBOS 041654Z 27016G27KT 10SM FEW040 SCT110 BKN200 02/M07 A2987 RMK AO2 PK WND 25027/1645 PRESFR SLP115 T00221072"	"-9999.00"	"-9999.00"	"29.87"	"1011.5"	"0"	"0"	"36.0"	"2.2"	"0"	"0"	"10.0"	"16.1"	"270"	"West"	"31.1"	"50.0"	"25.6"	"-3.5"	"18.4"	"29.6"	
"20130104"	"Mostly Cloudy"	"12"	"54"	"19.9"	"-6.7"	"0"	"0"	"-9999"	"-9999"	"50"	"mostlycloudy"	"METAR KBOS 041754Z 25015G23KT 10SM FEW110 SCT140 BKN200 03/M07 A2984 RMK AO2 PK WND 25028/1701 SLP103 T00281067 10028 21028 58039"	"-9999.00"	"-9999.00"	"29.84"	"1010.3"	"0"	"0"	"37.0"	"2.8"	"0"	"0"	"10.0"	"16.1"	"250"	"WSW"	"26.5"	"42.6"	"27.4"	"-2.6"	"17.3"	"27.8"	
"20130104"	"Mostly Cloudy"	"13"	"54"	"19.9"	"-6.7"	"0"	"0"	"-9999"	"-9999"	"50"	"mostlycloudy"	"METAR KBOS 041854Z 25016G24KT 10SM FEW040 SCT140 BKN250 03/M07 A2981 RMK AO2 PK WND 23026/1835 SLP095 T00281067"	"-9999.00"	"-9999.00"	"29.81"	"1009.5"	"0"	"0"	"37.0"	"2.8"	"0"	"0"	"10.0"	"16.1"	"250"	"WSW"	"27.6"	"44.4"	"27.0"	"-2.8"	"18.4"	"29.6"	
"20130104"	"Mostly Cloudy"	"14"	"54"	"21.0"	"-6.1"	"0"	"0"	"-9999"	"-9999"	"52"	"mostlycloudy"	"METAR KBOS 041954Z 24014KT 10SM FEW040 SCT140 BKN250 03/M06 A2982 RMK AO2 SLP097 T00281061"	"-9999.00"	"-9999.00"	"29.82"	"1009.7"	"0"	"0"	"37.0"	"2.8"	"0"	"0"	"10.0"	"16.1"	"240"	"WSW"	"-9999.0"	"-9999.0"	"27.7"	"-2.4"	"16.1"	"25.9"	
"20130104"	"Mostly Cloudy"	"15"	"54"	"21.0"	"-6.1"	"0"	"0"	"-9999"	"-9999"	"55"	"mostlycloudy"	"METAR KBOS 042054Z 24016G23KT 10SM FEW040 BKN140 BKN250 02/M06 A2983 RMK AO2 SLP099 T00221061 55004"	"-9999.00"	"-9999.00"	"29.83"	"1009.9"	"0"	"0"	"36.0"	"2.2"	"0"	"0"	"10.0"	"16.1"	"240"	"WSW"	"26.5"	"42.6"	"25.6"	"-3.5"	"18.4"	"29.6"	
"20130104"	"Mostly Cloudy"	"16"	"54"	"21.9"	"-5.6"	"0"	"0"	"-9999"	"-9999"	"57"	"mostlycloudy"	"METAR KBOS 042154Z 23011KT 10SM FEW040 BKN140 BKN250 02/M06 A2983 RMK AO2 SLP099 T00221056"	"-9999.00"	"-9999.00"	"29.83"	"1009.9"	"0"	"0"	"36.0"	"2.2"	"0"	"0"	"10.0"	"16.1"	"230"	"SW"	"-9999.0"	"-9999.0"	"27.5"	"-2.5"	"12.7"	"20.4"	
"20130104"	"Overcast"	"17"	"54"	"21.9"	"-5.6"	"0"	"0"	"-9999"	"-9999"	"57"	"cloudy"	"METAR KBOS 042254Z 24010KT 10SM BKN140 OVC250 02/M06 A2983 RMK AO2 SLP101 T00221056"	"-9999.00"	"-9999.00"	"29.83"	"1010.1"	"0"	"0"	"36.0"	"2.2"	"0"	"0"	"10.0"	"16.1"	"240"	"WSW"	"-9999.0"	"-9999.0"	"28.0"	"-2.2"	"11.5"	"18.5"	
"20130104"	"Mostly Cloudy"	"18"	"54"	"21.9"	"-5.6"	"0"	"0"	"-9999"	"-9999"	"59"	"mostlycloudy"	"METAR KBOS 042354Z 23011KT 10SM SCT140 BKN250 02/M06 A2984 RMK AO2 SLP104 T00171056 10033 20017 53005"	"-9999.00"	"-9999.00"	"29.84"	"1010.4"	"0"	"0"	"35.1"	"1.7"	"0"	"0"	"10.0"	"16.1"	"230"	"SW"	"-9999.0"	"-9999.0"	"26.4"	"-3.1"	"12.7"	"20.4"	
"20130104"	"Partly Cloudy"	"19"	"54"	"21.0"	"-6.1"	"0"	"0"	"-9999"	"-9999"	"59"	"partlycloudy"	"METAR KBOS 050054Z 23010KT 10SM FEW250 01/M06 A2985 RMK AO2 SLP106 T00111061"	"-9999.00"	"-9999.00"	"29.85"	"1010.6"	"0"	"0"	"34.0"	"1.1"	"0"	"0"	"10.0"	"16.1"	"230"	"SW"	"-9999.0"	"-9999.0"	"25.5"	"-3.6"	"11.5"	"18.5"	
"20130104"	"Partly Cloudy"	"20"	"54"	"21.0"	"-6.1"	"0"	"0"	"-9999"	"-9999"	"61"	"partlycloudy"	"METAR KBOS 050154Z 24010KT 10SM FEW250 01/M06 A2985 RMK AO2 SLP107 T00061061"	"-9999.00"	"-9999.00"	"29.85"	"1010.7"	"0"	"0"	"33.1"	"0.6"	"0"	"0"	"10.0"	"16.1"	"240"	"WSW"	"-9999.0"	"-9999.0"	"24.4"	"-4.2"	"11.5"	"18.5"	
"20130104"	"Scattered Clouds"	"21"	"54"	"19.9"	"-6.7"	"0"	"0"	"-9999"	"-9999"	"61"	"partlycloudy"	"METAR KBOS 050254Z 23011KT 10SM FEW140 SCT280 00/M07 A2986 RMK AO2 SLP109 T00001067 53005"	"-9999.00"	"-9999.00"	"29.86"	"1010.9"	"0"	"0"	"32.0"	"0.0"	"0"	"0"	"10.0"	"16.1"	"230"	"SW"	"-9999.0"	"-9999.0"	"22.5"	"-5.3"	"12.7"	"20.4"	
"20130104"	"Overcast"	"22"	"54"	"21.0"	"-6.1"	"0"	"0"	"-9999"	"-9999"	"64"	"cloudy"	"METAR KBOS 050354Z 23011KT 10SM OVC050 00/M06 A2986 RMK AO2 SLP110 T00001061"	"-9999.00"	"-9999.00"	"29.86"	"1011.0"	"0"	"0"	"32.0"	"0.0"	"0"	"0"	"10.0"	"16.1"	"230"	"SW"	"-9999.0"	"-9999.0"	"22.5"	"-5.3"	"12.7"	"20.4"	
"20130104"	"Mostly Cloudy"	"23"	"54"	"19.9"	"-6.7"	"0"	"0"	"-9999"	"-9999"	"64"	"mostlycloudy"	"METAR KBOS 050454Z 23010KT 10SM FEW050 BKN120 M01/M07 A2985 RMK AO2 SLP107 T10061067 400331061"	"-9999.00"	"-9999.00"	"29.85"	"1010.7"	"0"	"0"	"30.9"	"-0.6"	"0"	"0"	"10.0"	"16.1"	"230"	"SW"	"-9999.0"	"-9999.0"	"21.7"	"-5.7"	"11.5"	"18.5"	
"20130103"	"Clear"	"00"	"54"	"-7.1"	"-21.7"	"0"	"0"	"-9999"	"-9999"	"46"	"clear"	"METAR KBOS 030554Z 32015G21KT 10SM CLR M12/M22 A3012 RMK AO2 SLP198 T11221217 11050 21122 53011"	"-9999.00"	"-9999.00"	"30.12"	"1019.8"	"0"	"0"	"10.0"	"-12.2"	"0"	"0"	"10.0"	"16.1"	"320"	"NW"	"24.2"	"38.9"	"-7.6"	"-22.0"	"17.3"	"27.8"	
"20130103"	"Clear"	"01"	"54"	"-7.1"	"-21.7"	"0"	"0"	"-9999"	"-9999"	"46"	"clear"	"METAR KBOS 030654Z 32015G20KT 10SM CLR M12/M22 A3014 RMK AO2 SLP204 T11221217"	"-9999.00"	"-9999.00"	"30.14"	"1020.4"	"0"	"0"	"10.0"	"-12.2"	"0"	"0"	"10.0"	"16.1"	"320"	"NW"	"23.0"	"37.0"	"-7.6"	"-22.0"	"17.3"	"27.8"	
"20130103"	"Clear"	"02"	"54"	"-4.0"	"-20.0"	"0"	"0"	"-9999"	"-9999"	"56"	"clear"	"METAR KBOS 030754Z 29014KT 10SM CLR M13/M20 A3013 RMK AO2 SLP202 T11281200"	"-9999.00"	"-9999.00"	"30.13"	"1020.2"	"0"	"0"	"9.0"	"-12.8"	"0"	"0"	"10.0"	"16.1"	"290"	"WNW"	"-9999.0"	"-9999.0"	"-8.5"	"-22.5"	"16.1"	"25.9"	
"20130103"	"Clear"	"03"	"54"	"-6.0"	"-21.1"	"0"	"0"	"-9999"	"-9999"	"53"	"clear"	"METAR KBOS 030854Z 30014KT 10SM CLR M13/M21 A3013 RMK AO2 SLP201 T11331211 50003"	"-9999.00"	"-9999.00"	"30.13"	"1020.1"	"0"	"0"	"8.1"	"-13.3"	"0"	"0"	"10.0"	"16.1"	"300"	"WNW"	"-9999.0"	"-9999.0"	"-9.6"	"-23.1"	"16.1"	"25.9"	
"20130103"	"Clear"	"04"	"54"	"-6.0"	"-21.1"	"0"	"0"	"-9999"	"-9999"	"53"	"clear"	"METAR KBOS 030954Z 31009KT 10SM CLR M13/M21 A3012 RMK AO2 SLP198 T11331211"	"-9999.00"	"-9999.00"	"30.12"	"1019.8"	"0"	"0"	"8.1"	"-13.3"	"0"	"0"	"10.0"	"16.1"	"310"	"NW"	"-9999.0"	"-9999.0"	"-6.2"	"-21.2"	"10.4"	"16.7"	
"20130103"	"Partly Cloudy"	"05"	"54"	"-6.0"	"-21.1"	"0"	"0"	"-9999"	"-9999"	"55"	"partlycloudy"	"METAR KBOS 031054Z 30009KT 10SM FEW200 M14/M21 A3012 RMK AO2 SLP198 T11391211"	"-9999.00"	"-9999.00"	"30.12"	"1019.8"	"0"	"0"	"7.0"	"-13.9"	"0"	"0"	"10.0"	"16.1"	"300"	"WNW"	"-9999.0"	"-9999.0"	"-7.5"	"-22.0"	"10.4"	"16.7"	
"20130103"	"Scattered Clouds"	"06"	"54"	"-6.0"	"-21.1"	"0"	"0"	"-9999"	"-9999"	"53"	"partlycloudy"	"METAR KBOS 031154Z 30008KT 10SM FEW040 SCT200 M13/M21 A3012 RMK AO2 SLP199 T11331211 11122 21139 55002 $"	"-9999.00"	"-9999.00"	"30.12"	"1019.9"	"0"	"0"	"8.1"	"-13.3"	"0"	"0"	"10.0"	"16.1"	"300"	"WNW"	"-9999.0"	"-9999.0"	"-5.3"	"-20.7"	"9.2"	"14.8"	
"20130103"	"Scattered Clouds"	"07"	"54"	"-6.0"	"-21.1"	"0"	"0"	"-9999"	"-9999"	"53"	"partlycloudy"	"METAR KBOS 031254Z 28009KT 10SM FEW040 SCT200 M13/M21 A3014 RMK AO2 SLP204 T11331211"	"-9999.00"	"-9999.00"	"30.14"	"1020.4"	"0"	"0"	"8.1"	"-13.3"	"0"	"0"	"10.0"	"16.1"	"280"	"West"	"-9999.0"	"-9999.0"	"-6.2"	"-21.2"	"10.4"	"16.7"	
"20130103"	"Scattered Clouds"	"08"	"54"	"-5.1"	"-20.6"	"0"	"0"	"-9999"	"-9999"	"51"	"partlycloudy"	"METAR KBOS 031354Z 30009KT 10SM FEW040 SCT200 M12/M21 A3013 RMK AO2 SLP202 T11221206"	"-9999.00"	"-9999.00"	"30.13"	"1020.2"	"0"	"0"	"10.0"	"-12.2"	"0"	"0"	"10.0"	"16.1"	"300"	"WNW"	"-9999.0"	"-9999.0"	"-3.7"	"-19.9"	"10.4"	"16.7"	
"20130103"	"Scattered Clouds"	"09"	"54"	"-2.9"	"-19.4"	"0"	"0"	"-9999"	"-9999"	"49"	"partlycloudy"	"METAR KBOS 031454Z 29009KT 10SM FEW040 SCT200 M11/M19 A3013 RMK AO2 SLP202 T11061194 51003"	"-9999.00"	"-9999.00"	"30.13"	"1020.2"	"0"	"0"	"12.9"	"-10.6"	"0"	"0"	"10.0"	"16.1"	"290"	"WNW"	"-9999.0"	"-9999.0"	"-0.2"	"-17.9"	"10.4"	"16.7"	
"20130103"	"Scattered Clouds"	"10"	"54"	"-2.0"	"-18.9"	"0"	"0"	"-9999"	"-9999"	"45"	"partlycloudy"	"METAR KBOS 031554Z 31008KT 10SM FEW040 SCT200 M09/M19 A3010 RMK AO2 SLP193 T10891189"	"-9999.00"	"-9999.00"	"30.10"	"1019.3"	"0"	"0"	"16.0"	"-8.9"	"0"	"0"	"10.0"	"16.1"	"310"	"NW"	"-9999.0"	"-9999.0"	"4.4"	"-15.3"	"9.2"	"14.8"	
"20130103"	"Scattered Clouds"	"11"	"54"	"-0.9"	"-18.3"	"0"	"0"	"-9999"	"-9999"	"42"	"partlycloudy"	"METAR KBOS 031654Z 29008KT 10SM FEW040 SCT200 M07/M18 A3009 RMK AO2 SLP188 T10721183"	"-9999.00"	"-9999.00"	"30.09"	"1018.8"	"0"	"0"	"19.0"	"-7.2"	"0"	"0"	"10.0"	"16.1"	"290"	"WNW"	"-9999.0"	"-9999.0"	"8.2"	"-13.2"	"9.2"	"14.8"	
"20130103"	"Scattered Clouds"	"12"	"54"	"-2.0"	"-18.9"	"0"	"0"	"-9999"	"-9999"	"36"	"partlycloudy"	"METAR KBOS 031754Z 29012KT 10SM FEW040 SCT200 M06/M19 A3006 RMK AO2 SLP177 T10611189 11061 21133 58026"	"-9999.00"	"-9999.00"	"30.06"	"1017.7"	"0"	"0"	"21.0"	"-6.1"	"0"	"0"	"10.0"	"16.1"	"290"	"WNW"	"-9999.0"	"-9999.0"	"8.1"	"-13.3"	"13.8"	"22.2"	
"20130103"	"Scattered Clouds"	"13"	"54"	"-0.0"	"-17.8"	"0"	"0"	"-9999"	"-9999"	"37"	"partlycloudy"	"METAR KBOS 031854Z 27009KT 10SM FEW040 SCT200 M05/M18 A3003 RMK AO2 SLP168 T10501178"	"-9999.00"	"-9999.00"	"30.03"	"1016.8"	"0"	"0"	"23.0"	"-5.0"	"0"	"0"	"10.0"	"16.1"	"270"	"West"	"-9999.0"	"-9999.0"	"12.4"	"-10.9"	"10.4"	"16.7"	
"20130103"	"Scattered Clouds"	"14"	"54"	"-2.0"	"-18.9"	"0"	"0"	"-9999"	"-9999"	"31"	"partlycloudy"	"METAR KBOS 031954Z 28008KT 10SM SCT200 M04/M19 A3003 RMK AO2 SLP170 T10391189"	"-9999.00"	"-9999.00"	"30.04"	"1017.0"	"0"	"0"	"25.0"	"-3.9"	"0"	"0"	"10.0"	"16.1"	"280"	"West"	"-9999.0"	"-9999.0"	"15.5"	"-9.2"	"9.2"	"14.8"	
"20130103"	"Partly Cloudy"	"15"	"54"	"-4.0"	"-20.0"	"0"	"0"	"-9999"	"-9999"	"29"	"partlycloudy"	"METAR KBOS 032054Z 26008KT 10SM FEW200 M04/M20 A3003 RMK AO2 SLP168 T10441200 56008"	"-9999.00"	"-9999.00"	"30.03"	"1016.8"	"0"	"0"	"24.1"	"-4.4"	"0"	"0"	"10.0"	"16.1"	"260"	"West"	"-9999.0"	"-9999.0"	"14.4"	"-9.8"	"9.2"	"14.8"	
"20130103"	"Partly Cloudy"	"16"	"54"	"-2.0"	"-18.9"	"0"	"0"	"-9999"	"-9999"	"34"	"partlycloudy"	"METAR KBOS 032154Z 28006KT 10SM FEW200 M05/M19 A3003 RMK AO2 SLP168 T10501189"	"-9999.00"	"-9999.00"	"30.03"	"1016.8"	"0"	"0"	"23.0"	"-5.0"	"0"	"0"	"10.0"	"16.1"	"280"	"West"	"-9999.0"	"-9999.0"	"14.7"	"-9.6"	"6.9"	"11.1"	
"20130103"	"Partly Cloudy"	"17"	"54"	"1.9"	"-16.7"	"0"	"0"	"-9999"	"-9999"	"40"	"partlycloudy"	"METAR KBOS 032254Z 27008KT 10SM FEW200 M05/M17 A3004 RMK AO2 SLP171 T10501167"	"-9999.00"	"-9999.00"	"30.04"	"1017.1"	"0"	"0"	"23.0"	"-5.0"	"0"	"0"	"10.0"	"16.1"	"270"	"West"	"-9999.0"	"-9999.0"	"13.1"	"-10.5"	"9.2"	"14.8"	
"20130103"	"Partly Cloudy"	"18"	"54"	"1.0"	"-17.2"	"0"	"0"	"-9999"	"-9999"	"39"	"partlycloudy"	"METAR KBOS 032354Z 29007KT 10SM FEW200 M05/M17 A3005 RMK AO2 SLP174 T10501172 11039 21061 53006"	"-9999.00"	"-9999.00"	"30.05"	"1017.4"	"0"	"0"	"23.0"	"-5.0"	"0"	"0"	"10.0"	"16.1"	"290"	"WNW"	"-9999.0"	"-9999.0"	"13.9"	"-10.1"	"8.1"	"13.0"	
"20130103"	"Mostly Cloudy"	"19"	"54"	"6.1"	"-14.4"	"0"	"0"	"-9999"	"-9999"	"46"	"mostlycloudy"	"METAR KBOS 040054Z 27005KT 10SM BKN100 BKN210 M04/M14 A3005 RMK AO2 SLP173 T10441144"	"-9999.00"	"-9999.00"	"30.04"	"1017.3"	"0"	"0"	"24.1"	"-4.4"	"0"	"0"	"10.0"	"16.1"	"270"	"West"	"-9999.0"	"-9999.0"	"17.0"	"-8.3"	"5.8"	"9.3"	
"20130103"	"Overcast"	"20"	"54"	"9.0"	"-12.8"	"0"	"0"	"-9999"	"-9999"	"53"	"cloudy"	"METAR KBOS 040154Z 28011G16KT 10SM BKN075 OVC110 M04/M13 A3005 RMK AO2 SLP175 T10441128"	"-9999.00"	"-9999.00"	"30.05"	"1017.5"	"0"	"0"	"24.1"	"-4.4"	"0"	"0"	"10.0"	"16.1"	"280"	"West"	"18.4"	"29.6"	"12.5"	"-10.8"	"12.7"	"20.4"	
"20130103"	"Mostly Cloudy"	"21"	"54"	"9.0"	"-12.8"	"0"	"0"	"-9999"	"-9999"	"58"	"mostlycloudy"	"METAR KBOS 040254Z 23006KT 10SM FEW075 SCT110 BKN220 M06/M13 A3005 RMK AO2 SLP174 T10561128 58001"	"-9999.00"	"-9999.00"	"30.05"	"1017.4"	"0"	"0"	"21.9"	"-5.6"	"0"	"0"	"10.0"	"16.1"	"230"	"SW"	"-9999.0"	"-9999.0"	"13.4"	"-10.3"	"6.9"	"11.1"	
"20130103"	"Scattered Clouds"	"22"	"54"	"10.0"	"-12.2"	"0"	"0"	"-9999"	"-9999"	"60"	"partlycloudy"	"METAR KBOS 040354Z 22007KT 10SM FEW075 SCT110 M06/M12 A3003 RMK AO2 SLP169 T10561122"	"-9999.00"	"-9999.00"	"30.03"	"1016.9"	"0"	"0"	"21.9"	"-5.6"	"0"	"0"	"10.0"	"16.1"	"220"	"SW"	"-9999.0"	"-9999.0"	"12.5"	"-10.8"	"8.1"	"13.0"	
"20130103"	"Scattered Clouds"	"23"	"54"	"10.0"	"-12.2"	"0"	"0"	"-9999"	"-9999"	"58"	"partlycloudy"	"METAR KBOS 040454Z 25008KT 10SM FEW075 SCT100 M05/M12 A3000 RMK AO2 SLP158 T10501122 410391139"	"-9999.00"	"-9999.00"	"30.00"	"1015.8"	"0"	"0"	"23.0"	"-5.0"	"0"	"0"	"10.0"	"16.1"	"250"	"WSW"	"-9999.0"	"-9999.0"	"13.1"	"-10.5"	"9.2"	"14.8"	
"20130102"	"Partly Cloudy"	"00"	"54"	"3.0"	"-16.1"	"0"	"0"	"-9999"	"-9999"	"50"	"partlycloudy"	"METAR KBOS 020554Z 30009KT 10SM FEW220 M07/M16 A2994 RMK AO2 SLP138 T10721161 11017 21072 51012"	"-9999.00"	"-9999.00"	"29.94"	"1013.8"	"0"	"0"	"19.0"	"-7.2"	"0"	"0"	"10.0"	"16.1"	"300"	"WNW"	"-9999.0"	"-9999.0"	"7.5"	"-13.6"	"10.4"	"16.7"	
"20130102"	"Partly Cloudy"	"01"	"54"	"1.9"	"-16.7"	"0"	"0"	"-9999"	"-9999"	"50"	"partlycloudy"	"METAR KBOS 020654Z 30011KT 10SM FEW220 M08/M17 A2996 RMK AO2 SLP143 T10781167"	"-9999.00"	"-9999.00"	"29.96"	"1014.3"	"0"	"0"	"18.0"	"-7.8"	"0"	"0"	"10.0"	"16.1"	"300"	"WNW"	"-9999.0"	"-9999.0"	"4.8"	"-15.1"	"12.7"	"20.4"	
"20130102"	"Clear"	"02"	"54"	"1.9"	"-16.7"	"0"	"0"	"-9999"	"-9999"	"50"	"clear"	"METAR KBOS 020754Z 30007KT 10SM CLR M08/M17 A2996 RMK AO2 SLP145 T10781167"	"-9999.00"	"-9999.00"	"29.96"	"1014.5"	"0"	"0"	"18.0"	"-7.8"	"0"	"0"	"10.0"	"16.1"	"300"	"WNW"	"-9999.0"	"-9999.0"	"7.7"	"-13.5"	"8.1"	"13.0"	
"20130102"	"Clear"	"03"	"54"	"1.9"	"-16.7"	"0"	"0"	"-9999"	"-9999"	"50"	"clear"	"METAR KBOS 020854Z 28008KT 10SM CLR M08/M17 A2995 RMK AO2 SLP142 T10781167 50004"	"-9999.00"	"-9999.00"	"29.95"	"1014.2"	"0"	"0"	"18.0"	"-7.8"	"0"	"0"	"10.0"	"16.1"	"280"	"West"	"-9999.0"	"-9999.0"	"6.9"	"-14.0"	"9.2"	"14.8"	
"20130102"	"Clear"	"04"	"54"	"3.0"	"-16.1"	"0"	"0"	"-9999"	"-9999"	"52"	"clear"	"METAR KBOS 020954Z 29011KT 10SM CLR M08/M16 A2994 RMK AO2 SLP137 T10781161"	"-9999.00"	"-9999.00"	"29.94"	"1013.7"	"0"	"0"	"18.0"	"-7.8"	"0"	"0"	"10.0"	"16.1"	"290"	"WNW"	"-9999.0"	"-9999.0"	"4.8"	"-15.1"	"12.7"	"20.4"	
"20130102"	"Clear"	"05"	"54"	"3.9"	"-15.6"	"0"	"0"	"-9999"	"-9999"	"56"	"clear"	"METAR KBOS 021054Z 29009KT 10SM CLR M08/M16 A2994 RMK AO2 SLP139 T10831156"	"-9999.00"	"-9999.00"	"29.94"	"1013.9"	"0"	"0"	"17.1"	"-8.3"	"0"	"0"	"10.0"	"16.1"	"290"	"WNW"	"-9999.0"	"-9999.0"	"5.0"	"-15.0"	"10.4"	"16.7"	
"20130102"	"Scattered Clouds"	"06"	"54"	"5.0"	"-15.0"	"0"	"0"	"-9999"	"-9999"	"57"	"partlycloudy"	"METAR KBOS 021154Z 27008KT 10SM FEW045 SCT250 M08/M15 A2994 RMK AO2 SLP139 T10781150 11072 21083 55003"	"-9999.00"	"-9999.00"	"29.94"	"1013.9"	"0"	"0"	"18.0"	"-7.8"	"0"	"0"	"10.0"	"16.1"	"270"	"West"	"-9999.0"	"-9999.0"	"6.9"	"-14.0"	"9.2"	"14.8"	
"20130102"	"Scattered Clouds"	"07"	"54"	"7.0"	"-13.9"	"0"	"0"	"-9999"	"-9999"	"59"	"partlycloudy"	"METAR KBOS 021254Z 26009KT 10SM FEW100 SCT250 M07/M14 A2994 RMK AO2 SLP136 T10721139"	"-9999.00"	"-9999.00"	"29.94"	"1013.6"	"0"	"0"	"19.0"	"-7.2"	"0"	"0"	"10.0"	"16.1"	"260"	"West"	"-9999.0"	"-9999.0"	"7.5"	"-13.6"	"10.4"	"16.7"	
"20130102"	"Scattered Clouds"	"08"	"54"	"7.0"	"-13.9"	"0"	"0"	"-9999"	"-9999"	"55"	"partlycloudy"	"METAR KBOS 021354Z 27009G16KT 10SM FEW090 SCT250 M06/M14 A2993 RMK AO2 SLP135 T10611139"	"-9999.00"	"-9999.00"	"29.93"	"1013.5"	"0"	"0"	"21.0"	"-6.1"	"0"	"0"	"10.0"	"16.1"	"270"	"West"	"18.4"	"29.6"	"9.9"	"-12.3"	"10.4"	"16.7"	
"20130102"	"Scattered Clouds"	"09"	"54"	"9.0"	"-12.8"	"0"	"0"	"-9999"	"-9999"	"55"	"partlycloudy"	"METAR KBOS 021454Z 28009KT 10SM SCT060 SCT250 M05/M13 A2995 RMK AO2 SLP140 T10501128 53001"	"-9999.00"	"-9999.00"	"29.95"	"1014.0"	"0"	"0"	"23.0"	"-5.0"	"0"	"0"	"10.0"	"16.1"	"280"	"West"	"-9999.0"	"-9999.0"	"12.4"	"-10.9"	"10.4"	"16.7"	
"20130102"	"Mostly Cloudy"	"10"	"54"	"10.9"	"-11.7"	"0"	"0"	"-9999"	"-9999"	"53"	"mostlycloudy"	"METAR KBOS 021554Z 29015G22KT 10SM BKN070 BKN250 M03/M12 A2993 RMK AO2 SLP135 T10331117"	"-9999.00"	"-9999.00"	"29.93"	"1013.5"	"0"	"0"	"26.1"	"-3.3"	"0"	"0"	"10.0"	"16.1"	"290"	"WNW"	"25.3"	"40.7"	"13.1"	"-10.5"	"17.3"	"27.8"	
"20130102"	"Mostly Cloudy"	"11"	"54"	"12.0"	"-11.1"	"0"	"0"	"-9999"	"-9999"	"49"	"mostlycloudy"	"METAR KBOS 021654Z 28012G20KT 10SM BKN070 BKN250 M02/M11 A2991 RMK AO2 SLP126 T10171111"	"-9999.00"	"-9999.00"	"29.91"	"1012.6"	"0"	"0"	"28.9"	"-1.7"	"0"	"0"	"10.0"	"16.1"	"280"	"West"	"23.0"	"37.0"	"18.2"	"-7.7"	"13.8"	"22.2"	
"20130102"	"Mostly Cloudy"	"12"	"54"	"12.0"	"-11.1"	"0"	"0"	"-9999"	"-9999"	"49"	"mostlycloudy"	"METAR KBOS 021754Z 29018G27KT 10SM SCT050 BKN075 BKN250 M02/M11 A2990 RMK AO2 PK WND 29027/1754 SLP124 T10171111 11011 21078 56016"	"-9999.00"	"-9999.00"	"29.90"	"1012.4"	"0"	"0"	"28.9"	"-1.7"	"0"	"0"	"10.0"	"16.1"	"290"	"WNW"	"31.1"	"50.0"	"15.8"	"-9.0"	"20.7"	"33.3"	
"20130102"	"Scattered Clouds"	"13"	"54"	"12.0"	"-11.1"	"0"	"0"	"-9999"	"-9999"	"49"	"partlycloudy"	"METAR KBOS 021854Z 29015G19KT 10SM SCT050 SCT075 M02/M11 A2991 RMK AO2 PK WND 29028/1755 SLP126 VCSH T10171111"	"-9999.00"	"-9999.00"	"29.91"	"1012.6"	"0"	"0"	"28.9"	"-1.7"	"0"	"0"	"10.0"	"16.1"	"290"	"WNW"	"21.9"	"35.2"	"16.9"	"-8.4"	"17.3"	"27.8"	
"20130102"	"Mostly Cloudy"	"14"	"54"	"12.0"	"-11.1"	"0"	"0"	"-9999"	"-9999"	"51"	"mostlycloudy"	"METAR KBOS 021954Z 29014G21KT 10SM BKN045 BKN055 M02/M11 A2994 RMK AO2 SLP137 T10221111"	"-9999.00"	"-9999.00"	"29.94"	"1013.7"	"0"	"0"	"28.0"	"-2.2"	"0"	"0"	"10.0"	"16.1"	"290"	"WNW"	"24.2"	"38.9"	"16.1"	"-8.8"	"16.1"	"25.9"	
"20130102"	"Mostly Cloudy"	"15"	"54"	"12.0"	"-11.1"	"0"	"0"	"-9999"	"-9999"	"51"	"mostlycloudy"	"METAR KBOS 022054Z 32013G22KT 10SM BKN047 BKN055 M02/M11 A2997 RMK AO2 SLP149 VIRGA T10221111 53024"	"-9999.00"	"-9999.00"	"29.97"	"1014.9"	"0"	"0"	"28.0"	"-2.2"	"0"	"0"	"10.0"	"16.1"	"320"	"NW"	"25.3"	"40.7"	"16.5"	"-8.6"	"15.0"	"24.1"	
"20130102"	"Scattered Clouds"	"16"	"54"	"12.0"	"-11.1"	"0"	"0"	"-9999"	"-9999"	"55"	"partlycloudy"	"METAR KBOS 022154Z 32010KT 10SM FEW045 SCT250 M03/M11 A3000 RMK AO2 SNB17E28 SLP159 P0000 T10331111"	"0.00"	"0.0"	"30.00"	"1015.9"	"0"	"0"	"26.1"	"-3.3"	"0"	"0"	"10.0"	"16.1"	"320"	"NW"	"-9999.0"	"-9999.0"	"15.6"	"-9.1"	"11.5"	"18.5"	
"20130102"	"Scattered Clouds"	"17"	"54"	"8.1"	"-13.3"	"0"	"0"	"-9999"	"-9999"	"49"	"partlycloudy"	"METAR KBOS 022254Z 32014G22KT 10SM FEW048 SCT250 M04/M13 A3002 RMK AO2 SLP166 T10391133"	"-9999.00"	"-9999.00"	"30.02"	"1016.6"	"0"	"0"	"25.0"	"-3.9"	"0"	"0"	"10.0"	"16.1"	"320"	"NW"	"25.3"	"40.7"	"12.2"	"-11.0"	"16.1"	"25.9"	
"20130102"	"Clear"	"18"	"54"	"6.1"	"-14.4"	"0"	"0"	"-9999"	"-9999"	"48"	"clear"	"METAR KBOS 022354Z 31013G20KT 10SM CLR M05/M14 A3004 RMK AO2 SLP172 60000 T10501144 11011 21050 51023"	"-9999.00"	"-9999.00"	"30.04"	"1017.2"	"0"	"0"	"23.0"	"-5.0"	"0"	"0"	"10.0"	"16.1"	"310"	"NW"	"23.0"	"37.0"	"10.1"	"-12.2"	"15.0"	"24.1"	
"20130102"	"Clear"	"19"	"54"	"5.0"	"-15.0"	"0"	"0"	"-9999"	"-9999"	"50"	"clear"	"METAR KBOS 030054Z 29015G25KT 10SM CLR M06/M15 A3005 RMK AO2 SLP176 T10611150"	"-9999.00"	"-9999.00"	"30.05"	"1017.6"	"0"	"0"	"21.0"	"-6.1"	"0"	"0"	"10.0"	"16.1"	"290"	"WNW"	"28.8"	"46.3"	"6.6"	"-14.1"	"17.3"	"27.8"	
"20130102"	"Clear"	"20"	"54"	"3.9"	"-15.6"	"0"	"0"	"-9999"	"-9999"	"50"	"clear"	"METAR KBOS 030154Z 30013G19KT 10SM CLR M07/M16 A3006 RMK AO2 SLP177 T10671156"	"-9999.00"	"-9999.00"	"30.06"	"1017.7"	"0"	"0"	"19.9"	"-6.7"	"0"	"0"	"10.0"	"16.1"	"300"	"WNW"	"21.9"	"35.2"	"6.2"	"-14.3"	"15.0"	"24.1"	
"20130102"	"Clear"	"21"	"54"	"3.9"	"-15.6"	"0"	"0"	"-9999"	"-9999"	"54"	"clear"	"METAR KBOS 030254Z 34013G18KT 10SM CLR M08/M16 A3008 RMK AO2 SLP186 T10781156 53015"	"-9999.00"	"-9999.00"	"30.08"	"1018.6"	"0"	"0"	"18.0"	"-7.8"	"0"	"0"	"10.0"	"16.1"	"340"	"NNW"	"20.7"	"33.3"	"3.6"	"-15.8"	"15.0"	"24.1"	
"20130102"	"Clear"	"22"	"54"	"1.0"	"-17.2"	"0"	"0"	"-9999"	"-9999"	"56"	"clear"	"METAR KBOS 030354Z 33012G18KT 10SM CLR M10/M17 A3010 RMK AO2 SLP193 T11001172"	"-9999.00"	"-9999.00"	"30.10"	"1019.3"	"0"	"0"	"14.0"	"-10.0"	"0"	"0"	"10.0"	"16.1"	"330"	"NNW"	"20.7"	"33.3"	"-0.8"	"-18.2"	"13.8"	"22.2"	
"20130102"	"Clear"	"23"	"54"	"-2.0"	"-18.9"	"0"	"0"	"-9999"	"-9999"	"53"	"clear"	"METAR KBOS 030454Z 32017G25KT 10SM CLR M11/M19 A3009 RMK AO2 PK WND 32027/0437 SLP189 T11111189 410111111"	"-9999.00"	"-9999.00"	"30.09"	"1018.9"	"0"	"0"	"12.0"	"-11.1"	"0"	"0"	"10.0"	"16.1"	"320"	"NW"	"28.8"	"46.3"	"-6.0"	"-21.1"	"19.6"	"31.5"	
"20130101"	"Overcast"	"00"	"54"	"23.0"	"-5.0"	"0"	"0"	"-9999"	"-9999"	"66"	"cloudy"	"METAR KBOS 010554Z 23012KT 10SM FEW045 OVC090 01/M05 A2975 RMK AO2 SLP074 T00061050 10011 21006 57018"	"-9999.00"	"-9999.00"	"29.75"	"1007.4"	"0"	"0"	"33.1"	"0.6"	"0"	"0"	"10.0"	"16.1"	"230"	"SW"	"-9999.0"	"-9999.0"	"23.4"	"-4.8"	"13.8"	"22.2"	
"20130101"	"Overcast"	"01"	"54"	"23.0"	"-5.0"	"0"	"0"	"-9999"	"-9999"	"64"	"cloudy"	"METAR KBOS 010654Z 23011KT 10SM BKN040 OVC080 01/M05 A2976 RMK AO2 SLP077 T00111050"	"-9999.00"	"-9999.00"	"29.76"	"1007.7"	"0"	"0"	"34.0"	"1.1"	"0"	"0"	"10.0"	"16.1"	"230"	"SW"	"-9999.0"	"-9999.0"	"25.0"	"-3.9"	"12.7"	"20.4"	
"20130101"	"Overcast"	"02"	"54"	"23.0"	"-5.0"	"0"	"0"	"-9999"	"-9999"	"64"	"cloudy"	"METAR KBOS 010754Z 23011KT 10SM BKN047 OVC110 01/M05 A2974 RMK AO2 SLP070 T00111050"	"-9999.00"	"-9999.00"	"29.74"	"1007.0"	"0"	"0"	"34.0"	"1.1"	"0"	"0"	"10.0"	"16.1"	"230"	"SW"	"-9999.0"	"-9999.0"	"25.0"	"-3.9"	"12.7"	"20.4"	
"20130101"	"Overcast"	"03"	"54"	"23.0"	"-5.0"	"0"	"0"	"-9999"	"-9999"	"64"	"cloudy"	"METAR KBOS 010854Z 23009KT 10SM BKN044 OVC050 01/M05 A2973 RMK AO2 SLP066 T00111050 58008"	"-9999.00"	"-9999.00"	"29.73"	"1006.6"	"0"	"0"	"34.0"	"1.1"	"0"	"0"	"10.0"	"16.1"	"230"	"SW"	"-9999.0"	"-9999.0"	"26.0"	"-3.3"	"10.4"	"16.7"	
"20130101"	"Overcast"	"04"	"54"	"23.0"	"-5.0"	"0"	"0"	"-9999"	"-9999"	"64"	"cloudy"	"METAR KBOS 010954Z 23012KT 10SM SCT055 OVC070 01/M05 A2973 RMK AO2 SLP067 T00111050"	"-9999.00"	"-9999.00"	"29.73"	"1006.7"	"0"	"0"	"34.0"	"1.1"	"0"	"0"	"10.0"	"16.1"	"230"	"SW"	"-9999.0"	"-9999.0"	"24.6"	"-4.1"	"13.8"	"22.2"	
"20130101"	"Overcast"	"05"	"54"	"24.1"	"-4.4"	"0"	"0"	"-9999"	"-9999"	"64"	"cloudy"	"METAR KBOS 011054Z 24010G17KT 10SM OVC065 02/M04 A2974 RMK AO2 SLP069 T00171044 $"	"-9999.00"	"-9999.00"	"29.74"	"1006.9"	"0"	"0"	"35.1"	"1.7"	"0"	"0"	"10.0"	"16.1"	"240"	"WSW"	"19.6"	"31.5"	"26.9"	"-2.9"	"11.5"	"18.5"	
"20130101"	"Mostly Cloudy"	"06"	"54"	"24.1"	"-4.4"	"0"	"0"	"-9999"	"-9999"	"64"	"mostlycloudy"	"METAR KBOS 011154Z 24010KT 10SM BKN060 02/M04 A2974 RMK AO2 SLP071 T00171044 10017 20006 53005 $"	"-9999.00"	"-9999.00"	"29.74"	"1007.1"	"0"	"0"	"35.1"	"1.7"	"0"	"0"	"10.0"	"16.1"	"240"	"WSW"	"-9999.0"	"-9999.0"	"26.9"	"-2.9"	"11.5"	"18.5"	
"20130101"	"Mostly Cloudy"	"07"	"54"	"24.1"	"-4.4"	"0"	"0"	"-9999"	"-9999"	"64"	"mostlycloudy"	"METAR KBOS 011254Z 25011KT 10SM FEW035 BKN060 BKN280 02/M04 A2975 RMK AO2 SLP074 T00171044"	"-9999.00"	"-9999.00"	"29.75"	"1007.4"	"0"	"0"	"35.1"	"1.7"	"0"	"0"	"10.0"	"16.1"	"250"	"WSW"	"-9999.0"	"-9999.0"	"26.4"	"-3.1"	"12.7"	"20.4"	
"20130101"	"Scattered Clouds"	"08"	"54"	"19.9"	"-6.7"	"0"	"0"	"-9999"	"-9999"	"52"	"partlycloudy"	"METAR KBOS 011354Z 29019G27KT 10SM FEW035 SCT050 SCT300 02/M07 A2975 RMK AO2 PK WND 30027/1346 SLP074 T00221067"	"-9999.00"	"-9999.00"	"29.75"	"1007.4"	"0"	"0"	"36.0"	"2.2"	"0"	"0"	"10.0"	"16.1"	"290"	"WNW"	"31.1"	"50.0"	"24.7"	"-4.0"	"21.9"	"35.2"	
"20130101"	"Scattered Clouds"	"09"	"54"	"17.1"	"-8.3"	"0"	"0"	"-9999"	"-9999"	"46"	"partlycloudy"	"METAR KBOS 011454Z 29015G24KT 10SM FEW050 SCT300 02/M08 A2977 RMK AO2 PK WND 28031/1419 SLP082 T00221083 53011"	"-9999.00"	"-9999.00"	"29.78"	"1008.2"	"0"	"0"	"36.0"	"2.2"	"0"	"0"	"10.0"	"16.1"	"290"	"WNW"	"27.6"	"44.4"	"26.0"	"-3.4"	"17.3"	"27.8"	
"20130101"	"Scattered Clouds"	"10"	"54"	"15.1"	"-9.4"	"0"	"0"	"-9999"	"-9999"	"43"	"partlycloudy"	"METAR KBOS 011554Z 28017G26KT 10SM FEW050 SCT200 02/M09 A2978 RMK AO2 PK WND 27032/1504 SLP083 T00221094"	"-9999.00"	"-9999.00"	"29.78"	"1008.3"	"0"	"0"	"36.0"	"2.2"	"0"	"0"	"10.0"	"16.1"	"280"	"West"	"29.9"	"48.2"	"25.3"	"-3.7"	"19.6"	"31.5"	
"20130101"	"Mostly Cloudy"	"11"	"54"	"16.0"	"-8.9"	"0"	"0"	"-9999"	"-9999"	"46"	"mostlycloudy"	"METAR KBOS 011654Z 30016KT 10SM FEW050 BKN280 02/M09 A2977 RMK AO2 PK WND 28028/1632 SLP079 T00171089"	"-9999.00"	"-9999.00"	"29.77"	"1007.9"	"0"	"0"	"35.1"	"1.7"	"0"	"0"	"10.0"	"16.1"	"300"	"WNW"	"-9999.0"	"-9999.0"	"24.5"	"-4.2"	"18.4"	"29.6"	
"20130101"	"Scattered Clouds"	"12"	"54"	"14.0"	"-10.0"	"0"	"0"	"-9999"	"-9999"	"44"	"partlycloudy"	"METAR KBOS 011754Z 29022G29KT 10SM FEW050 SCT280 01/M10 A2975 RMK AO2 PK WND 30029/1745 SLP073 T00111100 10028 20011 58009"	"-9999.00"	"-9999.00"	"29.75"	"1007.3"	"0"	"0"	"34.0"	"1.1"	"0"	"0"	"10.0"	"16.1"	"290"	"WNW"	"33.4"	"53.7"	"21.3"	"-6.0"	"25.3"	"40.7"	
"20130101"	"Scattered Clouds"	"13"	"54"	"12.9"	"-10.6"	"0"	"0"	"-9999"	"-9999"	"43"	"partlycloudy"	"METAR KBOS 011854Z 27017G28KT 10SM FEW050 SCT280 01/M11 A2975 RMK AO2 PK WND 27030/1759 SLP073 T00061106"	"-9999.00"	"-9999.00"	"29.75"	"1007.3"	"0"	"0"	"33.1"	"0.6"	"0"	"0"	"10.0"	"16.1"	"270"	"West"	"32.2"	"51.9"	"21.5"	"-5.8"	"19.6"	"31.5"	
"20130101"	"Scattered Clouds"	"14"	"54"	"12.9"	"-10.6"	"0"	"0"	"-9999"	"-9999"	"43"	"partlycloudy"	"METAR KBOS 011954Z 29012G22KT 10SM FEW050 SCT280 01/M11 A2976 RMK AO2 PK WND 30028/1905 SLP075 T00061106"	"-9999.00"	"-9999.00"	"29.75"	"1007.5"	"0"	"0"	"33.1"	"0.6"	"0"	"0"	"10.0"	"16.1"	"290"	"WNW"	"25.3"	"40.7"	"23.4"	"-4.8"	"13.8"	"22.2"	
"20130101"	"Scattered Clouds"	"15"	"54"	"12.9"	"-10.6"	"0"	"0"	"-9999"	"-9999"	"47"	"partlycloudy"	"METAR KBOS 012054Z 30016G22KT 10SM FEW050 SCT230 M01/M11 A2977 RMK AO2 SLP081 T10061106 53008"	"-9999.00"	"-9999.00"	"29.77"	"1008.1"	"0"	"0"	"30.9"	"-0.6"	"0"	"0"	"10.0"	"16.1"	"300"	"WNW"	"25.3"	"40.7"	"19.1"	"-7.2"	"18.4"	"29.6"	
"20130101"	"Mostly Cloudy"	"16"	"54"	"12.0"	"-11.1"	"0"	"0"	"-9999"	"-9999"	"47"	"mostlycloudy"	"METAR KBOS 012154Z 29013KT 10SM FEW050 BKN220 M01/M11 A2979 RMK AO2 SLP088 T10111111"	"-9999.00"	"-9999.00"	"29.79"	"1008.8"	"0"	"0"	"30.0"	"-1.1"	"0"	"0"	"10.0"	"16.1"	"290"	"WNW"	"-9999.0"	"-9999.0"	"19.1"	"-7.2"	"15.0"	"24.1"	
"20130101"	"Mostly Cloudy"	"17"	"54"	"12.9"	"-10.6"	"0"	"0"	"-9999"	"-9999"	"49"	"mostlycloudy"	"METAR KBOS 012254Z 29011KT 10SM FEW050 BKN220 M01/M11 A2982 RMK AO2 SLP097 T10111106 $"	"-9999.00"	"-9999.00"	"29.82"	"1009.7"	"0"	"0"	"30.0"	"-1.1"	"0"	"0"	"10.0"	"16.1"	"290"	"WNW"	"-9999.0"	"-9999.0"	"20.0"	"-6.7"	"12.7"	"20.4"	
"20130101"	"Scattered Clouds"	"18"	"54"	"12.0"	"-11.1"	"0"	"0"	"-9999"	"-9999"	"49"	"partlycloudy"	"METAR KBOS 012354Z 30010G16KT 10SM SCT220 M02/M11 A2986 RMK AO2 SLP111 T10171111 10011 21017 53030"	"-9999.00"	"-9999.00"	"29.86"	"1011.1"	"0"	"0"	"28.9"	"-1.7"	"0"	"0"	"10.0"	"16.1"	"300"	"WNW"	"18.4"	"29.6"	"19.2"	"-7.1"	"11.5"	"18.5"	
"20130101"	"Scattered Clouds"	"19"	"54"	"10.0"	"-12.2"	"0"	"0"	"-9999"	"-9999"	"51"	"partlycloudy"	"METAR KBOS 020054Z 33006KT 10SM FEW050 SCT220 M03/M12 A2988 RMK AO2 SLP117 T10331122"	"-9999.00"	"-9999.00"	"29.88"	"1011.7"	"0"	"0"	"26.1"	"-3.3"	"0"	"0"	"10.0"	"16.1"	"330"	"NNW"	"-9999.0"	"-9999.0"	"18.4"	"-7.5"	"6.9"	"11.1"	
"20130101"	"Scattered Clouds"	"20"	"54"	"8.1"	"-13.3"	"0"	"0"	"-9999"	"-9999"	"51"	"partlycloudy"	"METAR KBOS 020154Z 32010KT 10SM FEW050 SCT220 M04/M13 A2989 RMK AO2 SLP121 T10441133"	"-9999.00"	"-9999.00"	"29.89"	"1012.1"	"0"	"0"	"24.1"	"-4.4"	"0"	"0"	"10.0"	"16.1"	"320"	"NW"	"-9999.0"	"-9999.0"	"13.1"	"-10.5"	"11.5"	"18.5"	
"20130101"	"Partly Cloudy"	"21"	"54"	"7.0"	"-13.9"	"0"	"0"	"-9999"	"-9999"	"50"	"partlycloudy"	"METAR KBOS 020254Z 33010KT 10SM FEW220 M05/M14 A2991 RMK AO2 SLP127 T10501139 51016"	"-9999.00"	"-9999.00"	"29.91"	"1012.7"	"0"	"0"	"23.0"	"-5.0"	"0"	"0"	"10.0"	"16.1"	"330"	"NNW"	"-9999.0"	"-9999.0"	"11.7"	"-11.3"	"11.5"	"18.5"	
"20130101"	"Partly Cloudy"	"22"	"54"	"5.0"	"-15.0"	"0"	"0"	"-9999"	"-9999"	"50"	"partlycloudy"	"METAR KBOS 020354Z 30010KT 10SM FEW220 M06/M15 A2993 RMK AO2 SLP133 T10611150"	"-9999.00"	"-9999.00"	"29.93"	"1013.3"	"0"	"0"	"21.0"	"-6.1"	"0"	"0"	"10.0"	"16.1"	"300"	"WNW"	"-9999.0"	"-9999.0"	"9.3"	"-12.6"	"11.5"	"18.5"	
"20130101"	"Partly Cloudy"	"23"	"54"	"3.9"	"-15.6"	"0"	"0"	"-9999"	"-9999"	"50"	"partlycloudy"	"METAR KBOS 020454Z 31010KT 10SM FEW220 M07/M16 A2993 RMK AO2 SLP134 T10671156 400281067"	"-9999.00"	"-9999.00"	"29.93"	"1013.4"	"0"	"0"	"19.9"	"-6.7"	"0"	"0"	"10.0"	"16.1"	"310"	"NW"	"-9999.0"	"-9999.0"	"7.9"	"-13.4"	"11.5"	"18.5"	
